name,doctor_name,address,city,postal_code,country_code,phone,email,website,latitude,longitude,is_active,notes
"Gynekologická ambulancia, Gyn Sante s.r.o.",MUDr. Martin Gažo,Mýtna 5,Nové Mesto,811 07,SK,+421254435218,gazomartin@gmail.com,https://www.zzz.sk/zariadenie/192-192-gynekologicka-ambulancia-gyn-sante-sro-mudr-martin-gazo-phd,48.1546933,17.1159631,t,
DoktorPRO s.r.o.,,Ružinovská 40,Ružinov,821 03,SK,+421800200000,main@doktorpro.sk,https://www.zzz.sk/zariadenie/23107-23107-doktorpro-sro,48.1583270,17.1746413,t,
Gynekologická ambulancia,MUDr. Marián Oros,Gercenova 8/E,Petržalka,85101,SK,+421905344615,marian@oros.sk,https://www.zzz.sk/zariadenie/883-883-gynekologicka-ambulancia-mudr-marian-oros,48.1264757,17.0994652,t,
Gynekologicko-pôrodnícka ambulancia AXAM,MUDr.Ingrid Valaská,Šustekova 2,Petržalka,851 04,SK,+421948251661,gynekologiapetrzalka@gmail.com,https://www.zzz.sk/zariadenie/24366-24366-gynekologicko-porodnicka-ambulancia-axam-mudringrid-valaska,,,t,
Gynekologická ambulancia (EL-Gynda s.r.o.),MUDr. Ľubor Lauda,Tehelná 26,Vajnory,831 03,SK,+421244371016,elgynda@zoznam.sk,https://www.zzz.sk/zariadenie/3433-3433-gynekologicka-ambulancia-el-gynda-sro-mudr-lubor-lauda,48.1648534,17.1285467,t,
"PrimaGyn s.r.o.   gynekologická ambulancia, detská gynekológia, ultrazvuk v gynekológii a pôrodníctve 3D/4D",MUDr. Claudia Čuboňová,Matičné námestie 1124/5,Čadca 02201 Čadca,02201,SK,+421911855744,dr.cubonova@zoznam.sk,https://www.zzz.sk/zariadenie/1348-1348-primagyn-sro-gynekologicka-ambulancia-detska-gynekologia-ultrazvuk-v-gynekologii-a-porodnictve-3d4d-mudr-claudia-cubonova,49.4399538,18.7873027,t,
Gynekologická ambulancia,MUDr. Roman Žáčok,Rezedova 5,Ružinov,821 01,SK,+421220910218,info@zzz.sk,https://www.zzz.sk/zariadenie/7491-7491-gynekologicka-ambulancia-mudr-roman-zacok,48.1522665,17.1611446,t,
Gynekologická ambulancia,MUDr. Ľudmila Tazberíková,Radlinského 27,Staré Mesto,811 07,SK,+421220868777,recepcia.radl@mdclinic.sk,https://www.zzz.sk/zariadenie/23096-23096-gynekologicka-ambulancia-mudr-ludmila-tazberikova-mdclinic-as,48.1524228,17.1176671,t,
Gynekologická ambulancia,MUDr. Karol Hlinšták,"Falck Healthcare, Radlinského 27",Staré Mesto,81107,SK,+421220868777,recepcia-radl@falck.sk,https://www.zzz.sk/zariadenie/7326-7326-gynekologicka-ambulancia-mudr-karol-hlinstak,48.1524228,17.1176671,t,
"GYNEK. AMB. s.r.o., Gynekologická ambulancia",MUDr. Miroslava Vargová PhD.,Ružinovská 10,Ružinov,82007,SK,+421248279268,info@gynekamb.sk,https://www.zzz.sk/zariadenie/3995-3995-gynek-amb-sro-gynekologicka-ambulancia-mudr-miroslava-vargova-phd,48.1586211,17.1789093,t,
PRO FEMINA s.r.o.,MUDr. Ľubica Šablová,Tbiliská 6,Rača,83106,SK,+421903536343,gyn.sestricka@gmail.com,https://www.zzz.sk/zariadenie/1622-1622-pro-femina-sro-gynekologicka-ambulancia-mudr-lubica-sablova,48.2148446,17.1600155,t,
Urogynekologická ambulancia,MUDr. Vilma Karisná,Vysokoškolákov 31,Žilina,01008,SK,+421415627043,info@zilpo.sk,https://www.zzz.sk/zariadenie/2215-2215-urogynekologicka-ambulancia-mudr-vilma-karisna,49.2015098,18.7663061,t,
Gynekologická ambulancia,MUDr. Alexandra Zagyiová,Ružová dolina 21,Ružinov,821 09,SK,+421255566134,objednavanie@probios.sk,https://www.zzz.sk/zariadenie/20022-20022-nestatna-poliklinika-pro-bios,48.1537150,17.1395892,t,
"GYN-FIV a.s., Centrum pre gynekológiu, liečbu neplodnosti a jednodňovú chirurgiu",,Trnavská cesta,101 Ružinov,106 82,SK,+421902818100,objednavky@gyn-fiv.sk,https://www.zzz.sk/zariadenie/622-622-gyn-fiv-as-centrum-pre-gynekologiu-liecbu-neplodnosti-a-jednodnovu-chirurgiu,48.1648446,17.1584704,t,
"Gynekologická ambulancia, TATRA GYN s.r.o.",MUDr. Tomáš Kramár,Záhradnícka 6,Poprad,05801,SK,+421911408233,mudr.kramar@gmail.com,https://www.zzz.sk/zariadenie/5516-5516-gynekologicka-ambulancia-tatra-gyn-sro-mudr-vladimir-kramar,49.0527181,20.2900138,t,
Gynekologicko-pôrodnícka ambulancia,MUDr Jaroslav Bányácsky,P. Horova 14,Okres Bratislava,84107,SK,+421904221818,info@elite-gyn.sk,https://www.zzz.sk/zariadenie/8079-8079-gynekologicko-porodnicka-ambulancia-med-femina-sro-mudr-adriana-smrekova,48.2049598,16.9778387,t,
Gynekologická ambulancia,MUDr. Zuzana Strýčková,Lipová 2,Prešov,08001,SK,+421517710517,info@zzz.sk,https://www.zzz.sk/zariadenie/4754-4754-gynekologicka-ambulancia-mudr-zuzana-stryckova,49.0009291,21.2336593,t,
Gynekologická ambulancia,MUDr. Matej Medovarský,Bratislavská 1,Žilina,010 01,SK,+421417649407,mate46@seznam.cz,https://www.zzz.sk/zariadenie/2238-2238-gynekologicka-ambulancia-mudr-matej-medovarsky,49.2188357,18.7451699,t,
Jednodňová ambulantná starostlivosť,MUDr. Vilma Karisná,Vysokoškolákov 31,Žilina,01008,SK,+421415627038,info@zilpo.sk,https://www.zzz.sk/zariadenie/2218-2218-jednodnova-ambulantna-starostlivost-gynekologia-a-porodnictvo-mudr-vilma-karisna,49.2015098,18.7663061,t,
"Javorka, s.r.o.",,Dončova 17,Ružomberok,03401,SK,+421444322552,info@javorkasro.sk,https://www.zzz.sk/zariadenie/4072-4072-javorka-sro-gynekologia-a-imunoalergologia,49.0842155,19.3009280,t,
"Gynekologická ambulancia, K + K MEDIC, s.r.o.",MUDr. Katarína Kotlebová,SNP 15,Trenčianske Teplice,91451,SK,+421032655141,kotlebova@gmail.com,https://www.zzz.sk/zariadenie/6471-6471-gynekologicka-ambulancia-k-k-medic-sro-mudr-katarina-kotlebova,48.9386901,18.1402006,t,
RADMA GYN s.r.o.,MUDr. Radmila Sládičeková,Strečnianska 13,Petržalka,85105,SK,+421221025226,ambulancia@radmagyn.sk,https://www.zzz.sk/zariadenie/3752-3752-radma-gyn-sro-specializovana-gynekologicko-porodnicka-ambulancia-mudr-radmila-sladicekova-phd-mph,48.1050934,17.1066602,t,
Gynekologická ambulancia,,Bratislavská 49,Senec,90301,SK,+421910371384,ambulancia@fedgyn.sk,https://www.zzz.sk/zariadenie/6934-6934-gynekologicka-ambulancia-fed-gyn-s-r-o-mudr-petra-otapkova-phd,48.2166471,17.3897616,t,
Gynekologická ambulancia GYNJA s.r.o.,MUDr. Miroslava Dubčáková,Mýtna  5,Staré Mesto,811 07,SK,+421257786218,info@zzz.sk,https://www.zzz.sk/zariadenie/23322-23322-gynekologicka-ambulancia-gynja-s-r-o-mudr-katarina-jablonkova,48.1546933,17.1159631,t,
"Gynekologická ambulancia (Medifem, s.r.o.)",MUDr. Martin Valent,Björnsonova 7,Staré Mesto,81105,SK,+421252626344,medifem@medifem.sk,https://www.zzz.sk/zariadenie/8286-8286-gynekologicka-ambulancia-medifem-sro-mudr-martin-valent,48.1559202,17.1145852,t,
"Gynekologická ambulancia, MUDr. Jela Kubalová , (Gynekologická ambulancia Trenčín s.r.o.)",MUDr. Jela Kubalová,Halalovka  63,Trenčín,91108,SK,+421326527868,kubalovajela@centrum.sk,https://www.zzz.sk/zariadenie/23508-23508-gynekologicka-ambulancia-mudr-jela-kubalova-gynekologicka-ambulancia-trencin-sro,48.8709652,18.0483935,t,
"GYN-VIA, s.r.o.",MUDr. Lenka Ladecká Tomková,K dolnej stanici 18,Trenč,911 01,SK,+421914129529,info@zzz.sk,https://www.zzz.sk/zariadenie/7918-7918-gyn-via-sro-gynekologicka-ambulancia-mudr-lenka-ladecka-tomkova,48.8881318,18.0318035,t,
"Gynekologicko-pôrodnícka ambulancia  (MUDr. Borodáč, s.r.o.) MUDr. Jana Kovářová",MUDr. Borodáč,Zigmundíková  1,Vrbové,92203,SK,+421337792451,gynekologiavrbove@gmail.com,https://www.zzz.sk/zariadenie/20865-20865-gynekologicko-porodnicka-ambulancia-mudr-borodac-sro-mudr-jana-kovarova,48.6227521,17.7250667,t,
"Sonoclinic s.r.o., Prof. MUDr Dankovčík, PhD, MPH",Prof. MUDr Dankovčík,Rooseveltova  5,Staré Mesto,040 01,SK,+421905129129,fetalecho@fetalecho.sk,https://www.zzz.sk/zariadenie/23197-23197-sonoclinic-sro-prof-mudr-dankovcik-phd-mph,48.7183942,21.2616361,t,
Inštitút zdravia a krásy FRAIS,,Daxnerovo námestie 5,Ružinov,82108,SK,+421252444022,info@frais.sk,https://www.zzz.sk/zariadenie/20293-20293-institut-zdravia-a-krasy-frais,48.1525669,17.1332132,t,
"Gynekologická ambulancia, gynekologický ultrazvuk, GYNFAN s.r.o.",MUDr. Jana Fantazírová,Gen. Petrova 1,Michalovce,07101,SK,+421948362006,info@zzz.sk,https://www.zzz.sk/zariadenie/5367-5367-gynekologicka-ambulancia-gynekologicky-ultrazvuk-gynfan-sro-mudr-jana-fantazirova,48.7587176,21.9102936,t,
Gynekologická ambulancia FEMINATAL,MUDr. Andrej Karkalík PhD.,M. Sch. Trnavského 8,Dúbravka,84101,SK,+421902551151,dubravka@feminatalplus.sk,https://www.zzz.sk/zariadenie/18-18-gynekologicka-ambulancia-feminatal-mudr-andrej-karkalik-phd-ksar-med-sro,48.1819127,17.0412351,t,
GPN s.r.o.- gynekologické ambulancie,MUDr. Vladimír Cupaník PhD,Ružinovská 10,Ružinov,82007,SK,+421243631713,info@gpn.sk,https://www.zzz.sk/zariadenie/2149-2149-gpn-sro-gynekologicke-ambulancie-mudr-vladimir-cupanik-phd,48.1552465,17.1542790,t,
Gynekologicko-pôrodnícka ambulancia,MUDr. Ján Štrba,Medvedzie,744 Tvrdošín,237 02,SK,+421903484534,gyncentrumsk@gmail.com,https://www.zzz.sk/zariadenie/11765-11765-gynekologicko-porodnicka-ambulancia-gyncentrum-sk-spol-sro-mudr-jan-strba,49.3261168,19.5432967,t,
GYN-FIV a.s.,,Rázusová 16,Nitra,949 01,SK,+421907999618,gyn-fiv@gyn-fiv.sk,https://www.zzz.sk/zariadenie/22898-22898-gyn-fiv-as-centrum-pre-gynekologiu-a-asistovanu-reprodukciu-nitra,48.2988510,18.0827307,t,
Gynekologická ambulancia,MUDr. Ján Adam,Trieda SNP 1,Západ,04011,SK,+421907516614,info@zzz.sk,https://www.zzz.sk/zariadenie/6978-6978-gynekologicka-ambulancia-gynlife-s-r-o-mudr-jan-adam,48.7232210,21.2368717,t,
"Gynekologická ambulancia, Gynomed, s.r.o.",MUDr. Ivana Kleinová,Levočská 18,Prešov,08001,SK,+421517713438,ivana.kleinova@mail.t-com.sk,https://www.zzz.sk/zariadenie/5015-5015-gynekologicka-ambulancia-gynomed-sro-mudr-ivana-kleinova,49.0009291,21.2336593,t,
Gynekologicko,MUDr. Jozefa Sílešová,Heydukova 10,Staré Mesto,81250,SK,+421232249467,jsilesov@ousa.sk,https://www.zzz.sk/zariadenie/6846-6846-gynekologicko-mamologicka-ambulancia-mudr-jozefa-silesova,48.1472096,17.1130618,t,
"Ambulancia reprodukčnej medicíny ISCARE, a.s.",MUDr. Peter Hrúzik,Prievozská 4/A,Staré Mesto,821 09,SK,+421259207800,iscare@iscare.sk,https://www.zzz.sk/zariadenie/8265-8265-ambulancia-reprodukcnej-mediciny-iscare-as-mudr-peter-hruzik-csc,48.1458999,17.1399033,t,
Gynekologická ambulancia,MUDr. Marcel Lupták,Hroncova 5,Sever,04001,SK,+421556333623,gyneko@gyneko.sk,https://www.zzz.sk/zariadenie/9668-9668-gynekologicka-ambulancia-mudr-marcel-luptak,48.7298814,21.2413983,t,
"Gynekologická ambulancia, MUDr. Eva Lompartová , (Gyn Medic, s.r.o.)",MUDr. Eva Lompartová,Hronského  1200/24,Vranov nad Topľou,09301,SK,+421574462701,lompartova.eva@centrum.sk,https://www.zzz.sk/zariadenie/23632-23632-gynekologicka-ambulancia-mudr-eva-lompartova-gyn-medic-sro,48.8896341,21.6774520,t,
Gynekologicko-pôrodnícka ambulancia,MUDr. Peter Kubranský,Hviezdoslavova  13,Piešťany,92101,SK,03769329855812,mudr.peterkubranskypn@gmail.com,https://www.zzz.sk/zariadenie/20744-20744-gynekologicko-porodnicka-ambulancia-mudr-peter-kubransky-sro-mudr-peter-kubransky,48.5873951,17.8318680,t,
Gynekologická ambulancia,MUDr. Martin Zborovjan,Jána Pavla II. č. 5,Sídlisko KVP,04023,SK,+421850888999,info@procare.sk,https://www.zzz.sk/zariadenie/147-147-gynekologicka-ambulancia-mudr-martin-zborovjan,48.7190493,21.2134842,t,
Ambulancia gynekológie a pôrodníctva,MUDr. Štefan Novysedlák,Jánskeho 1,Spišská Nová Ves,05201,SK,+421534199379,nspsnv@nspsnv.sk,https://www.zzz.sk/zariadenie/1181-1181-ambulancia-gynekologie-a-porodnictva-mudr-stefan-novysedlak,48.9564708,20.5669799,t,
"GA Lučenec, s.r.o.",MUDr. Peter KRIŽO,Zlatá ulička 11,Lučenec,98401,SK,+421474320334,p.krizo@mailbox.sk,https://www.zzz.sk/zariadenie/2294-2294-ga-lucenec-sro-mudr-peter-krizo-mudr-peter-krizo,48.3300990,19.6681993,t,
Gynekologická ambulancia,,Heydukova 14,Staré Mesto,81108,SK,+421232171211,info@mediconet.sk,https://www.zzz.sk/zariadenie/5106-5106-gynekologicka-ambulancia-mediconet-slovakia-sro,48.1478079,17.1138921,t,
Gynekologická ambulancia,MUDr. Dezider Orlovský,Partizánska ul. 3,101 Trenčín,731 91,SK,+421326494673,gynekologia@zoznam.sk,https://www.zzz.sk/zariadenie/7542-7542-gynekologicka-ambulancia-mudr-dezider-orlovsky,48.6269995,18.3614103,t,
Gynekologická ambulancia,MUDr. Ján Kurucz,ObZS,Okres Komárno,94637,SK,03769329855812,info@zzz.sk,https://www.zzz.sk/zariadenie/22513-22513-gynekologicka-ambulancia-mudr-jan-kurucz,,,t,
Gynekologická ambulancia,MUDr. Silvia Toporcerová,Magnezitárska č. 2,Staré Mesto,040 13,SK,+421800300000,info@gyncare.sk,https://www.zzz.sk/zariadenie/8732-8732-gynekologicka-ambulancia-mudr-silvia-toporcerova-phd-doc,48.7282603,21.2602376,t,
Gynekologicko,MUDr. Beáta Štrbavá,Piaristická 6,Trenčín,911 01,SK,+421901733772,strbava.beata@gmail.com,https://www.zzz.sk/zariadenie/22943-22943-gynekologicko-porodnicka-ambulancia-mudr-beata-strbava,48.8903369,18.0334908,t,
"Gynekologická ambulancia, MUDr. Peter Bača, (MV","MUDr. Peter Bača, (MV - PANAKEIA, s.r.o.)-Stropkov, Giraltovce",Hviezdoslavova 18A(Pri Lidl-i)/Kukorelliho 16,Giraltovce,09101,SK,+421547428428,peter.baca@mvpanakeia.sk,https://www.zzz.sk/zariadenie/23626-23626-gynekologicka-ambulancia-mudr-peter-baca-mv-panakeia-sro-stropkov-giraltovce,49.1955736,21.6542992,t,
"Gynekologická ambulancia, MUDr. Monika Sojáková, PhD., (FemCare spol. s r.o.)",MUDr. Monika Sojáková,Hlavná  50,Šamorín,93101,SK,+421948088990,gynsamorin@gmail.com,https://www.zzz.sk/zariadenie/23802-23802-gynekologicka-ambulancia-mudr-monika-sojakova-phd-femcare-spol-s-ro,48.0272349,17.3101719,t,
"Gynekologická ambulancia, MUDr. Lívia Jaššová, (MUDr. Pavol Veselý","MUDr. Lívia Jaššová, (MUDr. Pavol Veselý - gynekológ, s.r.o.)",Kysucká cesta  3,Žilina,01001,SK,+421415643400,gyn.jassova@gmail.com,https://www.zzz.sk/zariadenie/23847-23847-gynekologicka-ambulancia-mudr-livia-jassova-mudr-pavol-vesely-gynekolog-sro,49.2310432,18.7389867,t,
Gynekologicko-pôrodnícka ambulancia,MUDr. Alžbeta Vargová,Bitúnkova  13,Nové Zámky,94001,SK,03769329855812,info@zzz.sk,https://www.zzz.sk/zariadenie/21856-21856-gynekologicko-porodnicka-ambulancia-mudr-alzbeta-vargova-sro,,,t,
Gynekologicko-pôrodnícka ambulancia,MUDr. Turba Peter,"Poliklinika Chrenová, Fatranská  12",Nitra,94901,SK,+421377334551,info@zzz.sk,https://www.zzz.sk/zariadenie/21081-21081-gynekologicko-porodnicka-ambulancia-mudr-turba-peter-gynea-sro,48.3086674,18.1080061,t,
Gynekologická ambulancia,MUDr. Klára Mladá,Ružová dolina 21,Ružinov,821 09,SK,+421250229833,gynekologia1@probios.sk,https://www.zzz.sk/zariadenie/22805-22805-gynekologicka-ambulancia-mudr-klara-mlada,48.1536760,17.1395234,t,
"Gynstar spol, s.r.o.",,Nábrežná 3/4,0 01 Prešov,419 08,SK,+421517495072,sestra@gynstar.sk,https://www.zzz.sk/zariadenie/22955-22955-gynstar-spol-sro,48.9967796,21.2296771,t,
Gynekologicko-pôrodnícka ambulancia,MUDr. Stanislav Köszegy,Stavbárov  54/3,Prievidza,97101,SK,+421915695659,info@zzz.sk,https://www.zzz.sk/zariadenie/8643-8643-gynekologicko-porodnicka-ambulancia-mudr-stanislav-koszegy,48.7775934,18.6217943,t,
Gynekologicko-pôrodnícka ambulancia: ambulancia pre rizikovú graviditu BREZNO,,Banisko 1,Brezno,97742,SK,+421486302133,info@zzz.sk,https://www.zzz.sk/zariadenie/6017-6017-porodnica-gynekologicko-porodnicke-oddelenie,48.8093579,19.6256257,t,
Gynekologická ambulancia,MUDr. Viktor Kráľ,Ivana krasku 38,Sereď,92601,SK,+421317896126,vkral@tt.psg.sk,https://www.zzz.sk/zariadenie/6733-6733-gynekologicka-ambulancia-mudr-viktor-kral,48.2932076,17.7378380,t,
GYNCENTRUM,MUDr. Ľudovít Janek,Einsteinova 25,Okres Bratislava,851 01,SK,+421905838986,ambulancia@gyncentrum.sk,https://www.zzz.sk/zariadenie/22956-22956-gyncentrum-sukromna-gynekologicka-ambulacia-mudr-ludovit-janek-phd,48.1298657,17.1066590,t,
Gynekologická ambulancia,MUDr. Ibolya Dobayová,Masarykova 9,Okres Košice,040 01,SK,+421552295875,dobayova@zzke.sk,https://www.zzz.sk/zariadenie/22958-22958-gynekologicka-ambulancia-mudr-ibolya-dobayova,48.7280422,21.2591136,t,
"Gynekologická ambulancia BI-GYN, s.r.o.",MUDr. Ingrid Böhmerová,Strečianska 13,Petržalka,85105,SK,+421263811882,bigyn.bohmer@gmail.com,https://www.zzz.sk/zariadenie/1032-1032-gynekologicka-ambulancia-bi-gyn-sro-mudr-ingrid-bohmerova,48.1051825,17.1064432,t,
Gynekologická ambulancia,MUDr. Zora Vasiľová,Tbiliská 6,Rača,83106,SK,+421918312716,womens.health.ba@gmail.com,https://www.zzz.sk/zariadenie/3404-3404-gynekologicka-ambulancia-mudr-zora-vasilova-womens-health-sro,48.2153819,17.1601052,t,
Gynekologicko-pôrodnícka ambulancia,MUDr. Neubauer Ján,SNP  19,Levice,93401,SK,03769329855812,info@zzz.sk,https://www.zzz.sk/zariadenie/22293-22293-gynekologicko-porodnicka-ambulancia-mudr-neubauer-jan-jadin-sro,48.2229859,18.6145209,t,
"Gynekologická ambulancia, NZZ",MUDr. Martin Okály,Ing. Kožucha č. 3,Spišská Nová Ves,05201,SK,+421534410510,martin.okaly@web.de,https://www.zzz.sk/zariadenie/3777-3777-gynekologicka-ambulancia-nzz-mudr-martin-okaly,48.9402113,20.5651683,t,
Gynekologická ambulancia,MUDr. FILKOR Stanislav,Litovelská 25,Revúca,05001,SK,+421584833333,filkor.stanislav@nsprevuca.sk,https://www.zzz.sk/zariadenie/4636-4636-gynekologicka-ambulancia-mudr-filkor-stanislav,48.6902153,20.1185622,t,
Súkromná gynekologická ambulancia,MUDr. Tatiana Kolková,Piešťanská 39,Radošina,956 05,SK,+421385398525,kolkova@vasgynekolog.sk,https://www.zzz.sk/zariadenie/22965-22965-sukromna-gynekologicka-ambulancia-mudr-tatiana-kolkova,48.5501098,17.9362358,t,
Gynekologicko-pôrodnická klinika Trnava,,Andreja Žarnova 11,Trnava,917 75,SK,+421335938502,renata.valkyova@fntt.sk,https://www.zzz.sk/zariadenie/22976-22976-gynekologicko-porodnicka-klinika-trnava,48.3683834,17.5883355,t,
"Gynekologická ambulancia (Feminatal), Petržalka",,Strečianska 13,Petržalka,85105,SK,+421904663571,petrzalka@feminatalplus.sk,https://www.zzz.sk/zariadenie/23286-23286-gynekologicka-ambulancia-feminatal-petrzalka,48.1052387,17.1065096,t,
Gynekologicko-pôrodnícka ambulancia – MUDr. Peter Blaško,MUDr. Peter Blaško,Satinského 1,Staré Mesto,81108,SK,+421232612227,info@zzz.sk,https://www.zzz.sk/zariadenie/4483-4483-gynekologicka-ambulancia-mudr-peter-blasko,48.4412105,17.0337864,t,
Gynekologicko-pôrodnícka ambulancia,MUDr. Peter Kubranský,Nám. Sv. Michala  9C/4,101 Hlohovec,062 92,SK,03769329855812,info@zzz.sk,https://www.zzz.sk/zariadenie/20574-20574-gynekologicko-porodnicka-ambulancia-mudr-peter-kubransky-sro-mudr-peter-kubransky,48.4270663,17.7981334,t,
Gynekologická ambulancia,MUDr. Karol Amon,ZS BAJZOVA 2.   BA,1. poschodie  c.dv. 38 82108 Ružinov,82108,SK,+421903918700,info@zzz.sk,https://www.zzz.sk/zariadenie/3490-3490-gynekologicka-ambulancia-mudr-karol-amon,48.1485076,17.1267772,t,
Gynekologická ambulancia,MUDr. Magda Adamkovičová,Tatranské nám. 8,Poprad,05801,SK,+421527733303,agyndsro@gmail.com,https://www.zzz.sk/zariadenie/5128-5128-gynekologicka-ambulancia-mudr-magda-adamkovicova-agynd-sro,49.0525979,20.3037049,t,
"Onkogynekologická ambulancia, PREBIOPSIA, s. r. o.",MUDr. Alexander Pačuta,Americká tr. 17,Sídlisko Ťahanovce,04013,SK,+421948477157,info@zzz.sk,https://www.zzz.sk/zariadenie/3644-3644-onkogynekologicka-ambulancia-prebiopsia-s-r-o-mudr-alexander-pacuta,48.7547856,21.2675577,t,
Sanatórium Helios Košice,,Krivá 23,Juh,04001,SK,+421552420200,info@sanatoriumhelioskosice.sk,https://www.zzz.sk/zariadenie/23728-23728-sanatorium-helios-kosice,48.7162772,21.2682781,t,
Gynekologická ambulancia,MUDr. Dana De Furia,ČSA 18,Staré Mesto,04001,SK,+421911801601,ambulancia@gynsole.sk,https://www.zzz.sk/zariadenie/908-908-gynekologicka-ambulancia-mudr-dana-de-furia-gynsole-sro,48.7260309,21.2456787,t,
"MUDr. Gulčik Tibor s. r. o, gynekologická ambulancia",MUDr. Gulčik Tibor s. r. o,Májová 1,201 Čadca,355 02,SK,+421414000213,gulciktibor@gmail.com,https://www.zzz.sk/zariadenie/8120-8120-mudr-gulcik-tibor-s-r-o-gynekologicka-ambulancia,49.4384153,18.7829919,t,
"Gynekologická ambulancia, MUDr. Peter Kotleba, Trenčianske Teplice, (K2 MEDIC s.r.o.)",MUDr. Peter Kotleba,SNP 15,Trenčianske Teplice,91451,SK,+421032655204,kotleba.peter@gmail.com,https://www.zzz.sk/zariadenie/6472-6472-gynekologicka-ambulancia-mudr-peter-kotleba-trencianske-teplice-k2-medic-sro,48.9386901,18.1402006,t,
"Gynekologická ambulancia, MUDr. Miroslava Blahová, (BELAMEDIK s.r.o.)",MUDr. Miroslava Blahová,Štefánikova  42,Spišská Belá,05901,SK,+421524682141,info@zzz.sk,https://www.zzz.sk/zariadenie/23873-23873-gynekologicka-ambulancia-mudr-miroslava-blahova-belamedik-sro,49.1907751,20.4526885,t,
Gynekologická ambulancia Medicomplex s.r.o.,MUDr. Zoltán Jány,Námestie SNP 5,Stupava,90031,SK,+421948223113,recepcia@medicomplex.sk,https://www.zzz.sk/zariadenie/5422-5422-gynekologicka-ambulancia-medicomplex-sro-mudr-zoltan-jany,48.2785364,17.0302395,t,
Gynekologická ambulancia,MUDr. Vladimír Horák,Ružová dolina 19,Ružinov,821 09,SK,+421253635141,gynekologia2@probios.sk,https://www.zzz.sk/zariadenie/473-473-gynekologicka-ambulancia-mudr-vladimir-horak,48.1538436,17.1392201,t,
"Gynekologická ambulancia MUDr. Michalovičová, SVS G, s.r.o.",MUDr. Michalovičová,Štefánikova,845 Gbely,480 90,SK,+421346516380,ambulancia@svsg.eu,https://www.zzz.sk/zariadenie/3489-3489-gynekologicka-ambulancia-mudr-michalovicova-svs-g-sro,48.7156292,17.1216081,t,
Gynekologická ambulancia,MUDr. Gabriela Mészárosová,Hollého 2,Pezinok,90201,SK,+421336412515,info@zzz.sk,https://www.zzz.sk/zariadenie/5152-5152-gynekologicka-ambulancia-mudr-gabriela-meszarosova,48.2864784,17.2746527,t,
"Gynekologická ambulancia, PRO LIFE s.r.o.",MUDr. Ladislav Urban,Senný trh 1,Komárno,94501,SK,+421357725920,prolife.urban@gmail.com,https://www.zzz.sk/zariadenie/6410-6410-gynekologicka-ambulancia-pro-life-sro-mudr-ladislav-urban,47.7617511,18.1247951,t,
"PROFEM, s.r.o – gynekologická ambulancia",MUDr. Dušan Táborský,Učiteľská 20,Podunajské Biskupice,82106,SK,+421245243461,dusan.taborsky@gmail.com,https://www.zzz.sk/zariadenie/1451-1451-profem-sro-gynekologicka-ambulancia-mudr-dusan-taborsky,48.1285898,17.2077752,t,
"Gynekológia Paučin , s.r.o.",,Daniela Dlabača 9,Žilina,01001,SK,+421415626313,gynpaucin@gmail.com,https://www.zzz.sk/zariadenie/3503-3503-gynekologia-paucin-sro,49.2246375,18.7390099,t,
HIPOKRATES DS s.r.o. Gynekologická ambulancia pre deti a dospelých,MUDr. Tibor Feldmár,Hlavná ul. 28/7,Dunajská Streda,92901,SK,+421315543388,feldmart@mail.t-com.sk,https://www.zzz.sk/zariadenie/1199-1199-hipokrates-ds-sro-gynekologicka-ambulancia-pre-deti-a-dospelych-mudr-tibor-feldmar,47.9944528,17.6174255,t,
Gynekologická ambulancia (Dr.Trajanov Peter),,Nemocničná 670/1,Šaľa,927 01,SK,+421905657737,dr.trajanov@gmail.com,https://www.zzz.sk/zariadenie/2321-2321-gynekologicka-ambulancia-drtrajanov-peter,48.1516394,17.8715319,t,
"Gynekologická ambualncia, Helping Hands, s.r.o.",MUDr. Juraj Orság,Komenského 27,Lučenec,98401,SK,+421474334634,info@zzz.sk,https://www.zzz.sk/zariadenie/7726-7726-gynekologicka-ambualncia-helping-hands-sro-mudr-juraj-orsag,48.3235848,19.6655896,t,
"Gynekologická ambulancia (Medifem, s.r.o.)",MUDr. Ľubica Kováčová,Björnsonova 7,Staré Mesto,81105,SK,+421252626344,medifem@medifem.sk,https://www.zzz.sk/zariadenie/8287-8287-gynekologicka-ambulancia-medifem-sro-mudr-lubica-kovacova,48.1559202,17.1145852,t,
Gynekologicko,MUDr. Miroslav Tavač,Námestie svätého Floriána  1,303 Varín,002 01,SK,+421415692222,info@zzz.sk,https://www.zzz.sk/zariadenie/11858-11858-gynekologicko-porodnicka-ambulancia-gyntav-sro-mudr-miroslav-tavac,49.1997560,18.8691180,t,
"GYN-FIV Žilina, s.r.o., CENTRUM ASISTOVANEJ REPRODUKCIE",,Predmestská 8,001 Žilina,600 01,SK,+421905408619,zilina@gyn-fiv.sk,https://www.zzz.sk/zariadenie/22899-22899-gyn-fiv-zilina-sro-centrum-asistovanej-reprodukcie,49.2199056,18.7492579,t,
Gynekologicko-pôrodnícka ambulancia,MUDr. Martin Korčok,Záhradnícka 4,Štúrovo,94301,SK,+421367511157,femina@femina-m.sk,https://www.zzz.sk/zariadenie/1722-1722-gynekologicko-porodnicka-ambulancia-mudr-martin-korcok-femina-m-sro,47.7939916,18.7189069,t,
"GA Lučenec, s.r.o.",MUDr. Ondrej BALCO,Zlatá ulička 11,Lučenec,98401,SK,+421474320334,info@zzz.sk,https://www.zzz.sk/zariadenie/2296-2296-ga-lucenec-sro-mudr-ondrej-balco-mudr-ondrej-balco,48.3300990,19.6681993,t,
"Gynekologická ambulancia, INGYN, s. r. o.",MUDr. Jozef Španka,Bratislavská 6,Most pri Bratislave,90046,SK,+421908663377,ingyn@nextra.sk,https://www.zzz.sk/zariadenie/2411-2411-gynekologicka-ambulancia-ingyn-s-r-o-mudr-jozef-spanka,48.1402894,17.2598744,t,
Gynekologická ambulancia,MUDr. Stela Muránska,Masarykova 17/A,Staré Mesto,04001,SK,+421556220988,fetalecho@fetalecho.sk,https://www.zzz.sk/zariadenie/3454-3454-gynekologicka-ambulancia-mudr-stela-muranska,48.7284768,21.2603446,t,
"Gynekologická ambulancia, MED-ART Lada,  s.r.o.",MUDr. Juraj Páll,Svätoplukova 12,Prešov,08001,SK,+421517715376,mudrpall@slovanet.sk,https://www.zzz.sk/zariadenie/4098-4098-gynekologicka-ambulancia-med-art-lada-sro-mudr-juraj-pall,48.9960028,21.2443633,t,
"Gynekologická ambulancia, Žena s.r.o.",MUDr. Jana Lázárová Chabadová,Balkánska 51,Rusovce,85110,SK,+421262859275,gyn-zena@gyn-zena.sk,https://www.zzz.sk/zariadenie/4238-4238-gynekologicka-ambulancia-zena-sro-mudr-jana-lazarova-chabadova,48.0498531,17.1507960,t,
"Gynekologická ambulancia, GYNEMMA  s.r.o.",MUDr. Patrik Mesároš,Mierové nám.  2545/12,Malacky,90101,SK,+421347725820,gynemma@gmail.com,https://www.zzz.sk/zariadenie/5012-5012-gynekologicka-ambulancia-gynemma-sro-mudr-patrik-mesaros,48.4352780,17.0174617,t,
"Neštátna gynekologická ambulancia Femme, s.r.o.",MUDr. Michaela Fellnerová,Záporožská 12,Petržalka,85101,SK,+421263838686,info@zzz.sk,https://www.zzz.sk/zariadenie/5390-5390-nestatna-gynekologicka-ambulancia-femme-sro-mudr-michaela-fellnerova-phd,48.1262706,17.0971279,t,
Detská gynekologická ambulancia,MUDr. Pavol Brnušák,ul. Sv. Jakuba 21,Bardejov,08501,SK,+421544788275,pavolbrnusak@nsp-bardejov.sk,https://www.zzz.sk/zariadenie/6115-6115-detska-gynekologicka-ambulancia-mudr-pavol-brnusak,49.2876511,21.2716098,t,
Gynekologická ambulancia,MUDr. Andrea Maľová,Nám. 1. Mája č. 9,Senec,903 01,SK,+421910303033,senec.urogyn@gmail.com,https://www.zzz.sk/zariadenie/22977-22977-gynekologicka-ambulancia-mudr-andrea-malova-phd,48.2210469,17.3996417,t,
Gynekologicko-pôrodnícka ambulancia,MUDr. Valéria Sadáková,Tehelná 26 - ZS,Staré Mesto,831 03,SK,+421244458724,gynesa.sro@gmail.com,https://www.zzz.sk/zariadenie/1194-1194-gynekologicko-porodnicka-ambulancia-gynesa-spols-ro-mudr-valeria-sadakova,48.1643367,17.1284366,t,
Ambulancia gynekologickej urológie,MUDr. Tomáš Danys,Kapisztóryho ul.č.5,Nové Zámky,940 02,SK,+421356404444,gyndanys@zoznam.sk,https://www.zzz.sk/zariadenie/1453-1453-ambulancia-gynekologickej-urologie-mudr-tomas-danys-phd,47.9861983,18.1740479,t,
Gynekologická ambulancia,MUDr. František Bálint,Továrenská 2,Michalovce,07101,SK,+421566888411,info@zzz.sk,https://www.zzz.sk/zariadenie/3904-3904-gynekologicka-ambulancia-mudr-frantisek-balint,48.7427766,21.9040878,t,
Gynekologicko-pôrodnícka ambulancia,MUDr. Milan Trizma,Lipová 2,501 Topoľčany,074 95,SK,+421385325322,milan.trizma@centrum.sk,https://www.zzz.sk/zariadenie/4218-4218-gynekologicko-porodnicka-ambulancia-mudr-milan-trizma-mudr-zuzana-pospisilova-tritium-sro,48.5691841,18.1646427,t,
"Gynekologická ambulancia, JANEGYN, s.r.o.",MUDr. Tatiana Janegová,Tematínska 24,Nové Mesto nad Váhom,91501,SK,+421327711643,info@janegyn.sk,https://www.zzz.sk/zariadenie/4687-4687-gynekologicka-ambulancia-janegyn-sro-mudr-tatiana-janegova,48.7545335,17.8217412,t,
Mammacentrum sv. Agáty s.r.o.,,Tibora Andrašovana 46,Banská Bystrica,974 01,SK,+421484204911,info@mammacentrun.sk,https://www.zzz.sk/zariadenie/5490-5490-mammacentrum-sv-agaty-sro-pharmdr-gabriela-bezakova-phd,48.7362770,19.1461917,t,
"PRENATAL, s.r.o.",,Hálkova 3,Žilina,01001,SK,+421903312434,info@zzz.sk,https://www.zzz.sk/zariadenie/10074-10074-prenatal-sro-ambulancia-pre-ultrazvuk-v-gynekologii-a-porodnictve,49.2212044,18.7375262,t,
Gynekologická ambulancia,MUDr. Peter Frankovský,Reimanova 9,Prešov,08001,SK,+421517721230,gynefra@gmail.com,https://www.zzz.sk/zariadenie/1386-1386-gynekologicka-ambulancia-mudr-peter-frankovsky,48.9893246,21.2504581,t,
Gynekologická ambulancia,MUDr. Magdalena Necpálová,Sokolská 275/1,Zvolen,96001,SK,+421455398088,m.necpalova@zoznam.sk,https://www.zzz.sk/zariadenie/1510-1510-gynekologicka-ambulancia-mudr-magdalena-necpalova-sro,48.5776995,19.1359257,t,
NZZ Gynekologická ambulancia,MUDr. Jozef Pajtáš,M. R. Štefánika  3782/25,Trebišov,07501,SK,+421566716106,pajtas.jozef@wmx.sk,https://www.zzz.sk/zariadenie/1545-1545-nzz-gynekologicka-ambulancia-mudr-jozef-pajtas-pajmed-sro,48.6221630,21.7190480,t,
Gynekologická ambulancia,MUDr. Tibor Bertold,Nobelova 34,Nové Mesto,83201,SK,+421905988851,drbertold@gmail.com,https://www.zzz.sk/zariadenie/1635-1635-gynekologicka-ambulancia-mudr-tibor-bertold-msc-gd-care-sro,48.1866546,17.1349968,t,
Gynekologická ambulancia G & D Care s.r.o.,MUDr. Tibor Bertold,Gercenova 8/F,Petržalka,85101,SK,03769329855812,info@zzz.sk,https://www.zzz.sk/zariadenie/1636-1636-gynekologicka-ambulancia-g-d-care-sro-mudr-tibor-bertold-zariadenie-bolo-zrusene,48.1264757,17.0994652,t,
I. ženská gynekologická ambulancia,MUDr. Marian Kollár,Antolská 11,Petržalka,851 07,SK,+421268672551,info@prvazenska.sk,https://www.zzz.sk/zariadenie/3294-3294-i-zenska-gynekologicka-ambulancia-mudr-marian-kollar,48.1010527,17.1175098,t,
Gynekologická-pôrodnícka ambulancia,MUDr. Dalibor Predajňa,Rajecká 3,Okres Bratislava,82107,SK,+421245525707,info@zzz.sk,https://www.zzz.sk/zariadenie/3456-3456-gynekologicka-porodnicka-ambulancia-premedic-sro-mudr-dalibor-predajna,48.1441698,17.2065843,t,
"Gynekologická ambulancia, MUDr. Marek Frühwald, (MF medico, s.r.o.)",MUDr. Marek Frühwald,Bernolákova  14/A,Banská Bystrica,97401,SK,+421484145500,doktor@gynekologickaambulancia.sk,https://www.zzz.sk/zariadenie/3810-3810-gynekologicka-ambulancia-mudr-marek-fruhwald-mf-medico-sro,48.7196039,19.1337513,t,
Gynekologická ambulancia,MUDr. Adrián Laluha,Nemocničná 1,Šaľa,92701,SK,03769329855812,info@zzz.sk,https://www.zzz.sk/zariadenie/3952-3952-gynekologicka-ambulancia-mudr-adrian-laluha,48.1519331,17.8716317,t,
Gynekologická a mamologická ambulancia,MUDr. Ľubomír Krajňák,Chrapčiakova 1,Spišská Nová Ves,05201,SK,+421534166114,lubo.krajnak@stadus.sk,https://www.zzz.sk/zariadenie/5697-5697-gynekologicka-a-mamologicka-ambulancia-mudr-lubomir-krajnak,48.9456437,20.5534480,t,
Súkromná gynekologická ambulancia,MUDr. Marčela Levska,Nové Centrum 1322/B,Rovinka,90041,SK,+421042190527,info@zzz.sk,https://www.zzz.sk/zariadenie/6679-6679-sukromna-gynekologicka-ambulancia-mudr-marcela-levska-tichova,,,t,
Gynekologická ambulancia,MUDr. Katarína Kováľová,Trojičné námestie 195/19,Tvrdošín,02744,SK,+421907317795,gyncare1@gmail.com,https://www.zzz.sk/zariadenie/7578-7578-gynekologicka-ambulancia-gyn-care-sro-mudr-katarina-kovalova,49.3343893,19.5540708,t,
Gynekologická ambulancia,MUDr. Michal Pavlita,Vajanského 1,Modra,90001,SK,+421336902730,info@zzz.sk,https://www.zzz.sk/zariadenie/8136-8136-gynekologicka-ambulancia-mudr-michal-pavlita-soleo-spol-s-r-o,48.3334027,17.3065827,t,
Gynekologicko-pôrodnícka ambulancia,MUDr. Igor Bornay,29. augusta 608/3,Krupina,963 01,SK,+421455512191,info@zzz.sk,https://www.zzz.sk/zariadenie/22973-22973-gynekologicko-porodnicka-ambulancia-mudr-igor-bornay,48.3536032,19.0653230,t,
Gynekologická ambulancia,MUDr. Miroslav Fruš,Legionárska 5,101 Malacky,265 90,SK,+421347725042,miroslav.frus@zoznam.sk,https://www.zzz.sk/zariadenie/1266-1266-gynekologicka-ambulancia-mudr-miroslav-frus,48.4416888,17.0249391,t,
"OGAMA s.r.o., Onko-gynekologická a mamologická ambulancia,",MUDr. Jozef Jendrušák,Kyjevské námestie č.9,Banská Bystrica,97401,SK,+421483904995,lekar@ogama.sk,https://www.zzz.sk/zariadenie/1287-1287-ogama-sro-onko-gynekologicka-a-mamologicka-ambulancia-mudr-jozef-jendrusak,48.7277095,19.1208523,t,
"Gynekologická ambulancia,OK GYN,s.r.o.",MUDr. Mária Oravcová,Spanyola 43,Žilina,01001,SK,+421415110296,okgyn@okgyn.sk,https://www.zzz.sk/zariadenie/1356-1356-gynekologicka-ambulanciaok-gynsro-mudr-maria-oravcova,49.2187543,18.7431788,t,
Gynekologická ambulancia,MUDr. Richard Matyi,Národná trieda  27,Staré Mesto,04001,SK,+421556116660,info@zzz.sk,https://www.zzz.sk/zariadenie/1452-1452-gynekologicka-ambulancia-mudr-richard-matyi,48.7347727,21.2536543,t,
Gynekologická ambulancia NAW piešťany,MUDr. Jaromír Niepel,Winterova 66,Piešťany,92101,SK,7955292,niepel@naw.sk,https://www.zzz.sk/zariadenie/2284-2284-gynekologicka-ambulancia-naw-piestany-mudr-jaromir-niepel,48.5880941,17.8381243,t,
"Gynekologická ambulancia, MUDr. Zuzana Ďurinová (MM FEMINA, s.r.o.)",MUDr. Zuzana Ďurinová,Račianska 44,Nové Mesto,832 42,SK,+421249243211,ambulancia@durinova.sk,https://www.zzz.sk/zariadenie/2536-2536-gynekologicka-ambulancia-mudr-zuzana-durinova-mm-femina-sro,48.1718490,17.1279648,t,
DAHOL MED s.r.o.,MUDr. Danuta Holecová,Záporožská 12,Petržalka,85101,SK,+421903363075,info@zzz.sk,https://www.zzz.sk/zariadenie/3643-3643-dahol-med-sro-gynekologicka-ambulancia-mudr-danuta-holecova,48.1262706,17.0971279,t,
Gynekologická ambulancia,MUDr. Iveta Bachňáková,Železničná č. 23,Rimavská Sobota,97901,SK,+421475631969,iveta.bachnakova@centrum.sk,https://www.zzz.sk/zariadenie/3750-3750-gynekologicka-ambulancia-mudr-iveta-bachnakova,48.3844096,20.0288486,t,
Gynekologicko-pôrodnícka ambulancia,MUDr. Hana Vášová,Fedinova 9,Okres Bratislava,85101,SK,+421263832125,info@zzz.sk,https://www.zzz.sk/zariadenie/3754-3754-gynekologicko-porodnicka-ambulancia-gynaps-sro-mudr-hana-vasova,48.1167562,17.1016771,t,
"CDZ, s.r.o. , gynekologická ambulancia",MUDr. Drahomír Kianička,Horný Val 37,Žilina,01001,SK,+421417635485,kianicka@centrum.sk,https://www.zzz.sk/zariadenie/3780-3780-cdz-sro-gynekologicka-ambulancia-mudr-drahomir-kianicka,49.2217960,18.7394228,t,
"Gynekologická ambulancia (pediatrická), GYNET s.r.o.",MUDr. Iveta Ďurovská,Námestie Hrdinov č.15,Levice,93401,SK,+421366319450,gynet@gynet.sk,https://www.zzz.sk/zariadenie/4095-4095-gynekologicka-ambulancia-pediatricka-gynet-sro-mudr-iveta-durovska,48.2201675,18.6059891,t,
Gynekologicko-pôrodnícka ambulancia,MUDr. Martin Korčok,Janka Kráľa 3,Nové Zámky,94001,SK,+421908771667,femina@femina-m.sk,https://www.zzz.sk/zariadenie/4715-4715-gynekologicko-porodnicka-ambulancia-mudr-martin-korcok-femina-m-sro,47.9825424,18.1574294,t,
Špecializovaná gynekologická ambulancia,MUDr. Jozef Kašuba,Hviezdoslavova 62/A,Zlaté Moravce,95301,SK,+421376424388,jkasuba@zoznam.sk,https://www.zzz.sk/zariadenie/5342-5342-specializovana-gynekologicka-ambulancia-mudr-jozef-kasuba,48.3874182,18.3790724,t,
Gynekologická ambulancia,MUDr. Mária Farkašová,Sklárska 580/33,Poltár,98701,SK,+421474222044,farkasova.mudr.maria@centrum.sk,https://www.zzz.sk/zariadenie/5403-5403-gynekologicka-ambulancia-mudr-maria-farkasova,48.4279619,19.7903479,t,
Gynekologická ambulancia,MUDr. Katarína Rašlová,Rezedová 5,Ružinov,821 01,SK,+421944555100,ambulancia@gynlife.sk,https://www.zzz.sk/zariadenie/5479-5479-gynekologicka-ambulancia-mudr-katarina-raslova-gyn-life-spol-sro,48.1390088,17.2134921,t,
Gynekologická ambulancia s 3D sono,MUDr. Bohumil Rychtárech,ČSA 25,Banská Bystrica,97401,SK,+421484147350,info@zzz.sk,https://www.zzz.sk/zariadenie/5921-5921-gynekologicka-ambulancia-s-3d-sono-mudr-bohumil-rychtarech,48.5985648,19.2831054,t,
"Gynekologická ambulancia, GYMADERM s.r.o.",MUDr. Ľudovít Ševčík,Kukučínova,701 Považská Bystrica,191 01,SK,+421423810989,drsevcik@gymaderm.sk,https://www.zzz.sk/zariadenie/6433-6433-gynekologicka-ambulancia-gymaderm-sro-mudr-ludovit-sevcik,49.1160723,18.4303230,t,
Gynekologická ambulancia (GYNOPED PLUS s.r.o)  MUDr. Miloš Pisák,MUDr. Miloš Pisák,Sládkovičova  300/3,Snina,06901,SK,+421577624794,info.gynoped@pobox.sk,https://www.zzz.sk/zariadenie/23624-23624-gynekologicka-ambulancia-gynoped-plus-sro-mudr-milos-pisak,48.9838177,22.1485344,t,
Gynekologická ambulancia,MUDr. Tomáš Danys,Kapisztóryho ul.č.5,Nové Zámky,940 02,SK,+421356404444,gyndanys@zoznam.sk,https://www.zzz.sk/zariadenie/663-663-gynekologicka-ambulancia-mudr-tomas-danys-phd,47.9861983,18.1740479,t,
GYMAPOR s.r.o.,MUDr. Alexander Suhányi,Petőfiho č. 3,Lučenec,98401,SK,+421474324834,suhanyi.alexander@stonline.sk,https://www.zzz.sk/zariadenie/1271-1271-gymapor-sro-mudr-alexander-suhanyi,48.3314906,19.6675442,t,
Gynekologická ambulancia,MUDr. Eduard Škerlík,Agátová 12,Spišská Nová Ves,05201,SK,+421534426657,edo@demax.sk,https://www.zzz.sk/zariadenie/1370-1370-gynekologicka-ambulancia-mudr-eduard-skerlik,48.9339324,20.5704702,t,
Gynekologická ambulancia,MUDr. Sven Szedély,Hviezdoslavova 1,Zvolen,96001,SK,+421455326850,sven@post.sk,https://www.zzz.sk/zariadenie/2229-2229-gynekologicka-ambulancia-mudr-sven-szedely,48.6093549,19.1506730,t,
Gynekologická ambulancia,MUDr. Zuzana Ančicová,S. Sakalovej 161/16,Bytča,01401,SK,+421415091845,info@zzz.sk,https://www.zzz.sk/zariadenie/2244-2244-gynekologicka-ambulancia-mudr-zuzana-ancicova,49.2228593,18.5605013,t,
Gynekologická  ambulancia Pulse s r.o.,MUDr. Peter Ilavský,Starohájska 2,Trnava,91710,SK,+421335501430,bstj@seznam.cz,https://www.zzz.sk/zariadenie/2335-2335-gynekologicka-ambulancia-pulse-s-ro-mudr-peter-ilavsky,48.3800899,17.5954805,t,
"Gynekologická ambulancia, detská gynekológia, sonografia",MUDr. Stanislav Polievka,Okružná 53,Rimavská Sobota,97901,SK,+421475632246,polievka.gyneko@stonline.sk,https://www.zzz.sk/zariadenie/2719-2719-gynekologicka-ambulancia-detska-gynekologia-sonografia-kastamed-sro-mudr-stanislav-polievka,48.3747840,20.0085020,t,
"MUDr. Richard Lani, gynekologicka ambulancia",MUDr. Richard Lani,M.R.Stefanika 41,Žilina,01001,SK,+421415640385,richardlani2002@yahoo.com,https://www.zzz.sk/zariadenie/2864-2864-mudr-richard-lani-gynekologicka-ambulancia,49.2227752,18.7484804,t,
"Gyneka, s.r.o.",MUDr. Tibor Jankovský,Legionárska 10,Trenčín,91101,SK,+421905743225,tjankovsky@pobox.sk,https://www.zzz.sk/zariadenie/3462-3462-gyneka-sro-privatna-gynekologicko-porodnicka-ambulancia-mudr-tibor-jankovsky,48.8869803,18.0344777,t,
"Gynekologická ambulancia, 4D ultrazvuk, 3D ultrazvuk",MUDr. Štefan Vojtaššák,Dominika Tatarku 4717/ 18,Poprad,05801,SK,+421527721321,ambulancia@gynekologia-poprad.sk,https://www.zzz.sk/zariadenie/3474-3474-gynekologicka-ambulancia-4d-ultrazvuk-3d-ultrazvuk-mudr-stefan-vojtassak,49.0574677,20.2974863,t,
Gynekologická  ambulancia,MUDr. Juliana Zimmermannová,Hlavná 6,Šaľa,92701,SK,+421317010109,info@zzz.sk,https://www.zzz.sk/zariadenie/4459-4459-gynekologicka-ambulancia-mudr-juliana-zimmermannova-vissegyn-sro,48.1495323,17.8725835,t,
"Gynekologická ambulancia, AMRADGYN s.r.o.",MUDr. Adnan Saade,Francisciho ul. 906/23,Poprad,05801,SK,+421692063717,saade@centrum.sk,https://www.zzz.sk/zariadenie/4829-4829-gynekologicka-ambulancia-amradgyn-sro-mudr-adnan-saade,49.0540883,20.3033277,t,
"Gynekologická ambulancia,  Kogyn s.r.o.",MUDr. Jana Kováčová,Šturova 6,Krompachy,05342,SK,+421534471589,kogyn@azet.sk,https://www.zzz.sk/zariadenie/5050-5050-gynekologicka-ambulancia-kogyn-sro-mudr-jana-kovacova,48.9167233,20.8726472,t,
"Gynekologická ambulancia, FEMINA",MUDr. Adriana Rusová,Tomášikova,916 Jelšava,688 04,SK,+421584482373,adriana.rusova@gmail.com,https://www.zzz.sk/zariadenie/5121-5121-gynekologicka-ambulancia-femina-ar-sro-mudr-adriana-rusova,48.6333162,20.2378073,t,
"SEGYN, s.r.o.",MUDr. Andrej Živica,Sotinská 1,501 Senica,588 90,SK,+421346983077,info@zzz.sk,https://www.zzz.sk/zariadenie/5263-5263-segyn-sro-gynekologicka-a-porodnicka-ambulancia-mudr-andrej-zivica-phd,48.6893059,17.3707566,t,
"Gynekologická ambulancia, ALYBODY s.r.o.",MUDr. Alexander Bodnár,Trnavská cesta 67,Ružinov,82104,SK,+421243292609,aly.bodnar@gmail.com,https://www.zzz.sk/zariadenie/5706-5706-gynekologicka-ambulancia-alybody-sro-mudr-alexander-bodnar,48.1653230,17.1599076,t,
Gynekologická ambulancia,MUDr. Adriana Gáťová,Prieložtek 1,Martin,036 01,SK,+421907857999,adrianagatova@gmail.com,https://www.zzz.sk/zariadenie/6756-6756-gynekologicka-ambulancia-agaia-sro-mudr-adriana-gatova,49.0563790,18.9171803,t,
Gynekologicko-pôrodnícka ambulancia Akupunktúra s.r.o.,MUDr. Rastislav Korman,Neslušská cesta 2,401 Kysucké Nové Mesto,011 02,SK,+421414213207,mudr.korman48@gmail.com,https://www.zzz.sk/zariadenie/8134-8134-gynekologicko-porodnicka-ambulancia-akupunktura-sro-mudr-rastislav-korman,49.3030910,18.7721950,t,
Gynekologická ambulancia,MUDr. Zlata Dančová,Čsl. armády 3,501 Trebišov,724 07,SK,+421566722171,info@zzz.sk,https://www.zzz.sk/zariadenie/10586-10586-gynekologicka-ambulancia-mudr-zlata-dancova,48.6300005,21.7089831,t,
Gynekologicko-pôrodnícka ambulancia,MUDr. Bohumír Navrátil,Kalinčiakova  29,Trnava,91701,SK,+421335513698,info@zzz.sk,https://www.zzz.sk/zariadenie/21373-21373-gynekologicko-porodnicka-ambulancia-navratil-sro-mudr-bohumir-navratil,48.3792602,17.5794867,t,
Ambulancia rizikovej gravidity,MUDr. Jana Ševčovičová,Lúčna 57,Okres Košice,04015,SK,+421557234212,jsevcovicova@nemocnicasaca.sk,https://www.zzz.sk/zariadenie/1083-1083-ambulancia-rizikovej-gravidity-mudr-jana-sevcovicova,48.6425461,21.1704829,t,
"G.T. Gynekologická ambulancia, s.r.o.",MUDr. Gabriela Trembecká,Zbrojničná 8,Staré Mesto,04001,SK,+421556220669,info@zzz.sk,https://www.zzz.sk/zariadenie/1311-1311-gt-gynekologicka-ambulancia-sro-mudr-gabriela-trembecka,48.7250269,21.2544887,t,
Gynekologická ambulancia,MUDr. Peter Šťastný,Staromyjavská 59,Myjava,90701,SK,+421346213921,peter.stastny@pobox.sk,https://www.zzz.sk/zariadenie/1394-1394-gynekologicka-ambulancia-mudr-peter-stastny,48.7629964,17.5624347,t,
Gynekologická a pôrodnícka ambulancia,MUDr. Bibiána Bajteková,Nám.Slobody,8 41 Šaštín,951 90,SK,+421346592382,ambulancia@gynac.sk,https://www.zzz.sk/zariadenie/1492-1492-gynekologicka-a-porodnicka-ambulancia-mudr-bibiana-bajtekova,48.6365312,17.1538236,t,
Gynekologicko-pôrodnícka ambulancia,MUDr. Jozef Tholt,Nemocničná 1944/10,Dolný Kubín,02601,SK,+421435801207,tholtaido@gmail.com,https://www.zzz.sk/zariadenie/3121-3121-gynekologicko-porodnicka-ambulancia-gyn-at-s-r-o-mudr-jozef-tholt,49.2132374,19.3037637,t,
"M-CENTRUM, s.r.o., gynekologická ambulancia",MUDr. Dalibor Kušnír,Jurkovičova č. 18,Prešov,08001,SK,+421908728102,kusnirgyn@yahoo.com,https://www.zzz.sk/zariadenie/3479-3479-m-centrum-sro-gynekologicka-ambulancia-mudr-dalibor-kusnir,48.9924748,21.2688014,t,
Gynekologická ambulancia,MUDr. Dagmar Kapralčíková,Nemocničná 1,601 Dolný Kubín,944 02,SK,+421435801530,kapralcikova@centrum.sk,https://www.zzz.sk/zariadenie/5185-5185-gynekologicka-ambulancia-mudr-dagmar-kapralcikova,49.2132374,19.3037637,t,
Gynekologická ambulancia,MUDr. Bohumil Kuchyňa,Textilná  23,Ružomberok,03405,SK,+421444323942,mudrkuchyna@gmail.com,https://www.zzz.sk/zariadenie/5187-5187-gynekologicka-ambulancia-mudr-bohumil-kuchyna,49.0840103,19.2815101,t,
Gynekologická ambulancia,MUDr. Jiří Kozel,Jánskeho 1,Spišská Nová Ves,05201,SK,+421534199234,jkozel@centrum.sk,https://www.zzz.sk/zariadenie/5659-5659-gynekologicka-ambulancia-3d4d-ultrazvuk-mudr-jiri-kozel,48.9559497,20.5673316,t,
Gynekologické centrum Nitra s. r. o.,MUDr. Peter Uharček,Štefánikova 57,Nitra,94901,SK,+421376555044,gynekologicke.centrum@gmail.com,https://www.zzz.sk/zariadenie/7493-7493-gynekologicke-centrum-nitra-s-r-o-mudr-peter-uharcek-phd,48.3085582,18.0861792,t,
"Gynekologická ambulancia, MUDr. Emese Jániová (KOMA-MED, s.r.o.)",MUDr. Emese Jániová,Saratovská 24,Dúbravka,841 02,SK,+421950547431,info@zzz.sk,https://www.zzz.sk/zariadenie/8002-8002-gynekologicka-ambulancia-mudr-emese-janiova-koma-med-sro,48.1927394,17.0355723,t,
Gynekologická ambulancia,MUDr. Miroslav Šestina,Republikánska 6,Vrútky,03861,SK,+421434284284,vestinas@stonline.sk,https://www.zzz.sk/zariadenie/1282-1282-gynekologicka-ambulancia-mudr-miroslav-sestina,49.1123989,18.9252889,t,
"Gynekologická ambulancia,sonografia",MUDr.Ivan Gažo,Gorkého l,Prievidza,97101,SK,+421465406500,igazo@gyngazo.sk,https://www.zzz.sk/zariadenie/1418-1418-gynekologicka-ambulanciasonografia-mudrivan-gazo,48.7803683,18.6444832,t,
Neogyn s.r.o. Neštátne zdravotnícke zariadenie,MUDr. Ján Chlapečka,Soblahovská ul.7,101 Trenčín,262 91,SK,+421326402064,info@zzz.sk,https://www.zzz.sk/zariadenie/1638-1638-neogyn-sro-nestatne-zdravotnicke-zariadenie-gynekologicka-ambulancia-mudr-jan-chlapecka,48.8799795,18.0339862,t,
"HAR-MED, s.r.o., Gynekologická ambulancia",MUDr. Martin Harčár,Námestie sv. Martina 9,Lipany,08271,SK,+421514572075,marharcar@post.sk,https://www.zzz.sk/zariadenie/2261-2261-har-med-sro-gynekologicka-ambulancia-mudr-martin-harcar,49.1525979,20.9631114,t,
Gynekologická ambulancia,MUDr. Imrich Hlavička,G. Czuczora č.1,Nové Zámky,94001,SK,+421356400682,hlavicka.imrich@gmail.com,https://www.zzz.sk/zariadenie/2973-2973-gynekologicka-ambulancia-mudr-imrich-hlavicka,47.9951829,18.1015598,t,
Gynekologická ambulancia,MUDr. Jozef Melicherčík,Obrancov mieru 874/3,Detva,96212,SK,+421455456317,info@zzz.sk,https://www.zzz.sk/zariadenie/7066-7066-gynekologicka-ambulancia-mudr-jozef-melichercik,48.5426322,19.4081253,t,
Gynekologicko-pôrodnícka ambulancia,MUDr. Tomáš Stanko,Kmeťová 18,Nové Zámky,94001,SK,+421911242160,michaela.renckova@gmail.com,https://www.zzz.sk/zariadenie/7413-7413-gynekologicko-porodnicka-ambulancia-mudr-tomas-stanko-mista-gyn-s-r-o,47.9880098,18.1459616,t,
Gynekologická ambulancia,MUDr. Vladimír Kraus,Jána Pavla II. č. 5,Sídlisko KVP,04023,SK,+421850888999,info@procare.sk,https://www.zzz.sk/zariadenie/140-140-gynekologicka-ambulancia-mudr-vladimir-kraus,48.7190493,21.2134842,t,
"Gynekológia a pôrodníctvo, ultrazvuk v gynekológii a pôrodníctve",MUDr. Jozef Mitro,S. Sakalovej,401 Bytča,190 01,SK,+421413812059,info@zzz.sk,https://www.zzz.sk/zariadenie/2376-2376-gynekologia-a-porodnictvo-ultrazvuk-v-gynekologii-a-porodnictve-mudr-jozef-mitro,49.2180721,18.5636852,t,
GYNLINE s.r.o. Gynekologická ambulancia,MUDr. Lenka Rybánska,Ružinovská 10,Ružinov,82007,SK,+421248279474,infogynline123@gmail.com,https://www.zzz.sk/zariadenie/24145-24145-gynline-sro-gynekologicka-ambulancia-mudr-lenka-rybanska-phd-mph,,,t,
Gynekologická ambulancia (FN AGEL Skalica a.s.),MUDr. Peter Budinský,Koreszkova 7,Skalica,909 82,SK,346969329297,info@zzz.sk,https://www.zzz.sk/zariadenie/5978-5978-gynekologicka-ambulancia-fnsp-skalica-as-mudr-peter-budinsky,48.8439650,17.2270359,t,
Gynekologická ambulancia ProCare,MUDr. Peter Hrúzik,Jelačičova 7,Ružinov,82108,SK,+421239049201,info@zzz.sk,https://www.zzz.sk/zariadenie/4872-4872-gynekologicka-ambulancia-procare-mudr-peter-hruzik-csc,48.1554074,17.1286239,t,
Gynekologická ambulancia,Doc. MUDr. Karol Plank,Jelačičova 7,Ružinov,82108,SK,+421850888999,info@zzz.sk,https://www.zzz.sk/zariadenie/7120-7120-gynekologicka-ambulancia-doc-mudr-karol-plank-csc,48.1547685,17.1277368,t,
Gynekologická ambulancia,MUDr. Denis Milly,Bajkalská 18/A,Ružinov,821 08,SK,+421252925120,info@zzz.sk,https://www.zzz.sk/zariadenie/22968-22968-gynekologicka-ambulancia-mudr-denis-milly,48.1578897,17.1433397,t,
Gynekologicko-pôrodnícka ambulancia,MUDr. Miroslav Boďa,Nábrežie J. Kráľa 1293/6,Liptovský Mikuláš,03101,SK,+421445514524,info@zzz.sk,https://www.zzz.sk/zariadenie/11012-11012-gynekologicko-porodnicka-ambulancia-mudr-miroslav-boda,49.0795252,19.6087986,t,
Gynekologicko-pôrodnícka ambulancia,MUDr. Dana Čigášová,Jánošíkovo nábrežie 1212/12,Liptovský Mikuláš,03101,SK,+421445525260,info@zzz.sk,https://www.zzz.sk/zariadenie/11712-11712-gynekologicko-porodnicka-ambulancia-infinity-health-sro-mudr-dana-cigasova,49.0890337,19.6028900,t,
Gynekologicko-pôrodnícka ambulancia,MUDr. Július Muránsky,Bitúnkova 13,Nové Zámky,94075,SK,+421356410864,info@zzz.sk,https://www.zzz.sk/zariadenie/7571-7571-gynekologicko-porodnicka-ambulancia-mudr-julius-muransky,47.9822076,18.1703820,t,
Gynekologická ambulancia,MUDr. František Janiček,Železničná 1039/17,Sereď,92601,SK,+421313812408,info@zzz.sk,https://www.zzz.sk/zariadenie/5843-5843-gynekologicka-ambulancia-mudr-frantisek-janicek-phd,48.2866455,17.7296404,t,
"Gynekologická ambulancia, MUDr. Vladimír Miedzga, (Miedzga, s. r. o.)",MUDr. Vladimír Miedzga,Bajzova  2,Ružinov,82108,SK,+421255561172,info@zzz.sk,https://www.zzz.sk/zariadenie/23725-23725-gynekologicka-ambulancia-mudr-vladimir-miedzga-miedzga-s-r-o,48.1596681,17.1380267,t,
Gynekologická ambulancia,MUDr. Mária Mikulová,Rastislavova 45,Juh,04001,SK,+421556256969,info@zzz.sk,https://www.zzz.sk/zariadenie/9581-9581-gynekologicka-ambulancia-mudr-maria-mikulova,48.7068965,21.2576211,t,
Gynekologická ambulancia,MUDr. Mária Huljaková,Rastislavova 45,Juh,04001,SK,+421556256969,info@zzz.sk,https://www.zzz.sk/zariadenie/10018-10018-gynekologicka-ambulancia-mudr-maria-huljakova-phd,48.7068965,21.2576211,t,
Gynekologicko-pôrodnícka ambulancia,MUDr. Klaudia Čuboňová,Moyzesova 1,201 Čadca,441 02,SK,+421911855744,info@zzz.sk,https://www.zzz.sk/zariadenie/10050-10050-gynekologicko-porodnicka-ambulancia-primagyn-sro-mudr-klaudia-cubonova,49.4399538,18.7873027,t,
"Gynekologicko-pôrodnícka ambulancia MUDr. Igor Fulla, s.r.o.",MUDr. Igor Fulla,Daniela Dlabača 978/2,Žilina,01001,SK,+421415625783,info@zzz.sk,https://www.zzz.sk/zariadenie/10651-10651-gynekologicko-porodnicka-ambulancia-mudr-igor-fulla-sro,49.2227597,18.7443245,t,
Zariadenie na poskytovanie jednodňovej zdravotnej starostlivosti,MUDr. Tibor Čaradský,M. Gorkého 1,Prievidza,97101,SK,+421465404171,info@zzz.sk,https://www.zzz.sk/zariadenie/11075-11075-zariadenie-na-poskytovanie-jednodnovej-zdravotnej-starostlivosti-cibamed-sro-mudr-tibor-caradsky,48.7788032,18.6426372,t,
Gynekologická ambulancia,MUDr. Szilárd Ipóth,Dunajská  13,Komárno,94501,SK,03769329855812,info@zzz.sk,https://www.zzz.sk/zariadenie/22605-22605-gynekologicka-ambulancia-mudr-szilard-ipoth-gynkom-sro,47.7561491,18.1270060,t,
"Gynekologická ambulancia, MUDr. Soňa Horváthová, (Gyn","MUDr. Soňa Horváthová, (Gyn - Sen s.r.o.)",Gorkého  1,Staré Mesto,83101,SK,+421254435066,info@zzz.sk,https://www.zzz.sk/zariadenie/23720-23720-gynekologicka-ambulancia-mudr-sona-horvathova-gyn-sen-sro,48.1425112,17.1095470,t,
"Gynekologická ambulancia, MUDr. Peter Kotleba, Nemšová, (K2 MEDIC s.r.o.)",MUDr. Peter Kotleba,Odbojárov  189/6,Nemšová,91441,SK,+421326598132,info@zzz.sk,https://www.zzz.sk/zariadenie/12288-12288-gynekologicka-ambulancia-mudr-peter-kotleba-nemsova-k2-medic-sro,48.9655614,18.1159104,t,
Gynekologicko-pôrodnícka ambulancia,MUDr. Mýtniková Valéria,Ulica na Štrande  1475/25,Galanta,92401,SK,+421317807337,info@zzz.sk,https://www.zzz.sk/zariadenie/20402-20402-gynekologicko-porodnicka-ambulancia-mudr-mytnikova-valeria-sukromna-gynekologicka-ambulancia-sro,48.1939489,17.7238116,t,
"Gynekologicko-pôrodnícka ambulancia -	MUDr. Kašuba Jozef, s.r.o.",MUDr. Kašuba Jozef,Hviezdoslavova  62/A,Zlaté Moravce,95301,SK,03769329855812,info@zzz.sk,https://www.zzz.sk/zariadenie/21232-21232-gynekologicko-porodnicka-ambulancia-mudr-kasuba-jozef-sro,48.3873881,18.3840022,t,
Gynekologicko-pôrodnícka ambulancia,MUDr. Šindler Rastislav,Bernolákova  24,Zlaté Moravce,95301,SK,03769329855812,info@zzz.sk,https://www.zzz.sk/zariadenie/21240-21240-gynekologicko-porodnicka-ambulancia-mudr-sindler-rastislav-moras-sro,48.3848269,18.3994418,t,
"Gynekologická ambulancia, Zvolen, (DEBRA s.r.o.)",,Hviezdoslavova  830/1,Zvolen,96001,SK,+421455326887,info@zzz.sk,https://www.zzz.sk/zariadenie/23395-23395-gynekologicka-ambulancia-zvolen-debra-sro,48.5761806,19.1371155,t,
"GA Lučenec, s.r.o.",MUDr. Igor TOMAŠOVIČ,Zlatá ulička 11,Lučenec,98401,SK,+421474320334,info@zzz.sk,https://www.zzz.sk/zariadenie/2295-2295-ga-lucenec-sro-mudr-igor-tomasovic-mudr-igor-tomasovic,48.3300990,19.6681993,t,
Gynekologická ambulancia,MUDr. Peter Hrabčák,Betliarska 17,Petržalka,85107,SK,+421850888999,info@zzz.sk,https://www.zzz.sk/zariadenie/5249-5249-gynekologicka-ambulancia-mudr-peter-hrabcak,48.0994981,17.1219394,t,
Gynekologická ambulancia B.G.M. GYN s.r.o.,MUDr. Branislav Murín,Budapeštianska 46-48,Sídlisko Ťahanovce,04013,SK,+421556363444,info@zzz.sk,https://www.zzz.sk/zariadenie/9497-9497-gynekologicka-ambulancia-bgm-gyn-sro-mudr-branislav-murin-phd,48.7551704,21.2683837,t,
Gynekologická ambulancia,MUDr. Jozef Knop,Rastislavova 7,Juh,04001,SK,+421556784246,info@zzz.sk,https://www.zzz.sk/zariadenie/9881-9881-gynekologicka-ambulancia-mudr-jozef-knop,48.7139180,21.2544070,t,
Gynekologicko-pôrodnícka ambulancia / GYNAMA s.r.o.,MUDr. Miloš Paškala,Piešťanská  1165/4,Nové Mesto nad Váhom,91501,SK,+421327710292,info@zzz.sk,https://www.zzz.sk/zariadenie/11334-11334-gynekologicko-porodnicka-ambulancia-gynama-sro-mudr-milos-paskala,48.7513562,17.8337369,t,
"Gynekologicko-pôrodnícka ambulancia / GYNPOL, s.r.o.",MUDr. Peter Petrykowski,Mierové námestie,901 Ilava,863 01,SK,03769329855812,info@zzz.sk,https://www.zzz.sk/zariadenie/11402-11402-gynekologicko-porodnicka-ambulancia-gynpol-sro-mudr-peter-petrykowski,48.9988644,18.2352048,t,
Gynekologická ambulancia,MUDr. Igor Slezák,Hlavná  58A,Dunajská Streda,92901,SK,03769329855812,info@zzz.sk,https://www.zzz.sk/zariadenie/12425-12425-gynekologicka-ambulancia-sagax-sro-mudr-igor-slezak,47.9890940,17.6278860,t,
"Gynekologicko-pôrodnícka ambulancia -	MUDr. Urban Ladislav, PRO LIFE s.r.o.",MUDr. Urban Ladislav,Senný trh  1,Komárno,94501,SK,+421357725920,info@zzz.sk,https://www.zzz.sk/zariadenie/22442-22442-gynekologicko-porodnicka-ambulancia-mudr-urban-ladislav-pro-life-sro,47.7617606,18.1248034,t,
"Gynekologická ambulancia, MUDr. Zuzana Petrovičová, (FAMILIA SANA, s. r. o.)",MUDr. Zuzana Petrovičová,Lazovná ulica  7,Banská Bystrica,97404,SK,+421484145132,info@zzz.sk,https://www.zzz.sk/zariadenie/23646-23646-gynekologicka-ambulancia-mudr-zuzana-petrovicova-familia-sana-s-r-o,48.7370057,19.1440592,t,
Gynekologická ambulancia,MUDr. Dagmar Psalmanová,Malokarpatské námestie 2,Lamač,84103,SK,+421264780765,info@zzz.sk,https://www.zzz.sk/zariadenie/7209-7209-gynekologicka-ambulancia-mudr-dagmar-psalmanova,48.1953916,17.0517520,t,
Gynekologická ambulancia,MUDr. Jozef Andel,Hergottova  2,Svätý Jur,90021,SK,+421244971048,info@zzz.sk,https://www.zzz.sk/zariadenie/7788-7788-gynekologicka-ambulancia-mudr-jozef-andel,48.2537791,17.2155713,t,
Gynekologická ambulancia,MUDr. Miriam Mičková,"Zbrojničná 8,","Košice a Zdravotné stredisko,044 13 Valaliky 04458 Nezaradené",040 01,SK,03769329855812,info@zzz.sk,https://www.zzz.sk/zariadenie/9608-9608-gynekologicka-ambulancia-mudr-miriam-mickova,,,t,
"Gynekologicko-pôrodnícka ambulancia Boháč, s. r. o.",,Mládežnícka  2,701 Považská Bystrica,174 01,SK,+421424340373,info@zzz.sk,https://www.zzz.sk/zariadenie/10188-10188-gynekologicko-porodnicka-ambulancia-bohac-s-r-o,49.1207564,18.4287562,t,
Gynekologicko-pôrodnícka ambulancia,MUDr. Ján Perhács,Galantská cesta  5416/5,Dunajská Streda,93021,SK,03769329855812,info@zzz.sk,https://www.zzz.sk/zariadenie/12776-12776-gynekologicko-porodnicka-ambulancia-hera-spol-s-ro-mudr-jan-perhacs,47.9931643,17.6225453,t,
Gynekologicko-pôrodnícka ambulancia,MUDr. Ján Vodička,Winterova,Piešťany,92101,SK,03769329855812,info@zzz.sk,https://www.zzz.sk/zariadenie/20713-20713-gynekologicko-porodnicka-ambulancia-ratolest-sro-mudr-jan-vodicka,48.5902007,17.8354439,t,
Gynekologicko-pôrodnícka ambulancia,MUDr. Igor Regász MUDr.,M.M.Hodžu  2,Šahy,93601,SK,03769329855812,info@zzz.sk,https://www.zzz.sk/zariadenie/22123-22123-gynekologicko-porodnicka-ambulancia-mudr-igor-regasz-mudr-karol-regasz-regasz-sro,48.0750952,18.9469213,t,
"Gynekologicko-pôrodnícka ambulancia / 	ultrazvuk v gynekológii a pôrodníctve -	MUDr. Ďurovská Iveta, GYNET s.r.o.",MUDr. Ďurovská Iveta,Námestie Hrdinov  15,Levice,93401,SK,03769329855812,info@zzz.sk,https://www.zzz.sk/zariadenie/22306-22306-gynekologicko-porodnicka-ambulancia-ultrazvuk-v-gynekologii-a-porodnictve-mudr-durovska-iveta-gynet-sro,48.2201563,18.6059941,t,
Gynpor S.r.o.,MUDr. Ján Galád,SNP 9,Sliač,962 31,SK,+421455442901,info@zzz.sk,https://www.zzz.sk/zariadenie/22922-22922-gynpor-sro-mudr-jan-galad,48.6147377,19.1414402,t,
Ambulancia pre patologickú graviditu,MUDr. Štefan Kožuškanič,Obrancov mieru 3,Stará Ľubovňa,06401,SK,+421524317441,info@zzz.sk,https://www.zzz.sk/zariadenie/1151-1151-ambulancia-pre-patologicku-graviditu-mudr-stefan-kozuskanic,49.2983268,20.6901338,t,
"Gynmaster, s.r.o.",MUDr. Ján Pružinský,Sládkovičova 10,Stará Ľubovňa,06401,SK,+421522388456,info@zzz.sk,https://www.zzz.sk/zariadenie/1153-1153-gynmaster-sro-mudr-jan-pruzinsky,49.2978776,20.6885116,t,
Gynekologická ambulancia-je zrušená,MUDr. Alexander Hoschek,Roľnícka 1,Vajnory,83107,SK,03769329855812,info@zzz.sk,https://www.zzz.sk/zariadenie/7179-7179-gynekologicka-ambulancia-je-zrusena-mudr-alexander-hoschek,48.2018402,17.2015346,t,
Gynekologická ambulancia,MUDr. Peter VávraPod Hájkom 2006/37,Pod Hájkom 2006/37,Skalica,90901,SK,+421346646394,info@zzz.sk,https://www.zzz.sk/zariadenie/7557-7557-gynekologicka-ambulancia-mudr-peter-vavrapod-hajkom-200637,48.8356138,17.2271641,t,
Gynekologická ambulancia,MUDr. Dagmar Galiovská,Pod hájom 1288/,841 Dubnica nad Váhom,116 01,SK,+421424653333,info@zzz.sk,https://www.zzz.sk/zariadenie/7797-7797-gynekologicka-ambulancia-mudr-dagmar-galiovska-citogyn-s-r-o,48.9568697,18.1738791,t,
Gynekologická ambulancia,MUDr. Martina Matušovičová,Štúrova 82,Modra,90001,SK,+421336475549,info@zzz.sk,https://www.zzz.sk/zariadenie/7887-7887-gynekologicka-ambulancia-mudr-martina-matusovicova,48.3381801,17.3105877,t,
Gynekologická ambulancia,MUDr. Jana Pričová,Masarykova 1340/88,Michalovce,07101,SK,+421566425146,info@zzz.sk,https://www.zzz.sk/zariadenie/9145-9145-gynekologicka-ambulancia-mudr-jana-pricova,48.7529766,21.9029033,t,
Gynekologická ambulancia,MUDr. Ivan Pokrievka,Agátová 12,Spišská Nová Ves,05201,SK,+421908321307,info@zzz.sk,https://www.zzz.sk/zariadenie/9193-9193-gynekologicka-ambulancia-mudr-ivan-pokrievka,48.9339324,20.5704702,t,
Gynekologická ambulancia,MUDr. Peter Linkesch,Murgašova 1,Staré Mesto,04001,SK,+421905297115,info@zzz.sk,https://www.zzz.sk/zariadenie/9694-9694-gynekologicka-ambulancia-mudr-peter-linkesch,48.7178241,21.2561834,t,
Gynekologická ambulancia,MUDr. Marta Jeleneková,Krivá 23,Juh,04001,SK,+421556771033,info@zzz.sk,https://www.zzz.sk/zariadenie/9961-9961-gynekologicka-ambulancia-mudr-marta-jelenekova,48.7163876,21.2683200,t,
Gynekologická ambulancia,MUDr. Tatiana Ivanovová,Toryská 1,Západ,04011,SK,03769329855812,info@zzz.sk,https://www.zzz.sk/zariadenie/9986-9986-gynekologicka-ambulancia-mudr-tatiana-ivanovova,48.7136173,21.2311076,t,
Gynekologická ambulancia,MUDr. Martin Hoppan,Spišské námestie 4,Nad Jazerom,04012,SK,+421556740727,info@zzz.sk,https://www.zzz.sk/zariadenie/10122-10122-gynekologicka-ambulancia-mudr-martin-hoppan,48.6896207,21.2845808,t,
"Gynekologicko-pôrodnícka ambulancia FEMICARE, s. r. o.",MUDr. František Grochal,Kollárova 17A,Martinová,03601,SK,03769329855812,info@zzz.sk,https://www.zzz.sk/zariadenie/10707-10707-gynekologicko-porodnicka-ambulancia-femicare-s-r-o-mudr-frantisek-grochal,49.0592030,18.9193720,t,
Gynekologicko-pôrodnícka ambulancia,MUDr.,Generála Svobodu 1069/4,Partizánske,95801,SK,+421387495031,info@zzz.sk,https://www.zzz.sk/zariadenie/11408-11408-gynekologicko-porodnicka-ambulancia-majercik-jan-mudr,48.6247815,18.3627787,t,
Gynekologicko-pôrodnícka ambulancia,MUDr. Ľubomír Sámel,Tatranská  1069/1,Trenč,91101,SK,+421326526958,info@zzz.sk,https://www.zzz.sk/zariadenie/11604-11604-gynekologicko-porodnicka-ambulancia-sunu-sro-mudr-lubomir-samel,48.8811728,18.0356812,t,
Gynekologicko,MUDr. Spišáková Monika,Hollého 200 Poliklinika,Rajec,01501,SK,+421415423810,info@zzz.sk,https://www.zzz.sk/zariadenie/11724-11724-gynekologicko-porodnicka-ambulancia-gynekologia-mudr-spisakova-monika-sro,49.0929320,18.6387197,t,
Gynekologicko,MUDr. Karol Brányik,Ádorská  21,Dunajská Streda,92901,SK,+421315524359,info@zzz.sk,https://www.zzz.sk/zariadenie/12851-12851-gynekologicko-porodnicka-ambulancia-amb-sro-mudr-karol-branyik-phd,47.9959950,17.6110160,t,
Gynekologicko-pôrodnícka ambulancia,MUDr. Peter Uharček,Štefánikova  57,Nitra,94901,SK,03769329855812,info@zzz.sk,https://www.zzz.sk/zariadenie/21078-21078-gynekologicko-porodnicka-ambulancia-mudr-peter-uharcek-phd-gynekologicke-centrum-nitra-sro,48.3085582,18.0861793,t,
Gynekologická ambulancia,MUDr. Baláž Ján,Eötösa  37,Komárno,94501,SK,03769329855812,info@zzz.sk,https://www.zzz.sk/zariadenie/22603-22603-gynekologicka-ambulancia-mudr-balaz-jan-gytap-sro,47.7616890,18.1177895,t,
Gynekologická ambulancia,MUDr. Angelika Göghová,Tržná  1,Kolárovo,94603,SK,03769329855812,info@zzz.sk,https://www.zzz.sk/zariadenie/22664-22664-gynekologicka-ambulancia-mudr-angelika-goghova-a-n-g-sro,47.9169832,17.9944682,t,
"Gynekologická ambulancia, MUDr. Natália Benovičová, (SAMITA spol. s r.o.)",MUDr. Natália Benovičová,Nám. 1. mája  474/1,Senec,90301,SK,+421901776661,info@zzz.sk,https://www.zzz.sk/zariadenie/23644-23644-gynekologicka-ambulancia-mudr-natalia-benovicova-samita-spol-s-ro,48.2212037,17.3997510,t,
Gynekologická ambulancia,MUDr. Ďuračka,Ružinovská 6,Ružinov,826 06,SK,+421248234762,info@zzz.sk,https://www.zzz.sk/zariadenie/860-860-gynekologicka-ambulancia-mudr-duracka,48.1552301,17.1519477,t,
Gynekologicko,MUDr. Anton Čunderlík,Hroboňova 4,Staré Mesto,81707,SK,+421254792509,info@zzz.sk,https://www.zzz.sk/zariadenie/7141-7141-gynekologicko-porodnicka-ambulancia-mudr-anton-cunderlik-phd,48.1608592,17.0889355,t,
Gynekologická ambulancia,MUDr. Peter Šaško,Medvedzie,Tvrdošín,02744,SK,+421903484534,info@zzz.sk,https://www.zzz.sk/zariadenie/7208-7208-gynekologicka-ambulancia-mudr-peter-sasko,49.3315470,19.5452396,t,
Gynekologická ambulancia,MUDr. Ján Danko,Jesenského 4351/13,Martinová,03601,SK,+421434302380,info@zzz.sk,https://www.zzz.sk/zariadenie/8344-8344-gynekologicka-ambulancia-centrum-prevencie-rakoviny-prof-mudr-jan-danko-csc,49.0595495,18.9200569,t,
Gynekologická ambulancia,MUDr. Zuzana Šoltésová,Brigádnická 2,Západ,04001,SK,03769329855812,info@zzz.sk,https://www.zzz.sk/zariadenie/8799-8799-gynekologicka-ambulancia-mudr-zuzana-soltesova,48.7159924,21.2310278,t,
Gynekologická ambulancia,MUDr. Vladimír Osif,Hutnícka 20,Spišská Nová Ves,05201,SK,+421534413413,info@zzz.sk,https://www.zzz.sk/zariadenie/9415-9415-gynekologicka-ambulancia-mudr-vladimir-osif,48.9552926,20.5361538,t,
Gynekologická ambulancia,MUDr. Jana Mikulová,Panelová 17,Juh,04001,SK,+421918640111,info@zzz.sk,https://www.zzz.sk/zariadenie/9582-9582-gynekologicka-ambulancia-mudr-jana-mikulova,48.7072699,21.2590793,t,
Gynekologicko-pôrodnícka ambulancia,MUDr. PhDr. Alojz Širanec,Palárikova 2,201 Čadca,311 02,SK,+421414333141,info@zzz.sk,https://www.zzz.sk/zariadenie/9644-9644-gynekologicko-porodnicka-ambulancia-siranec-sro-mudr-phdr-alojz-siranec,49.4410988,18.7610081,t,
Gynekologicko-pôrodnícka ambulancia,MUDr. Branislav Bellan,Pavla Mudroňa 38/30,Martinová,03601,SK,+421434131923,info@zzz.sk,https://www.zzz.sk/zariadenie/10972-10972-gynekologicko-porodnicka-ambulancia-bellet-sro-mudr-branislav-bellan,49.0675328,18.9204654,t,
Gynekologicko-pôrodnícka ambulancia,MUDr. Beáta Sonogová,SNP  2,Handlová,97251,SK,+421465470440,info@zzz.sk,https://www.zzz.sk/zariadenie/11696-11696-gynekologicko-porodnicka-ambulancia-n-e-s-a-b-s-r-o-mudr-beata-sonogova,48.7282491,18.7590015,t,
Gynekologicko-pôrodnícka ambulancia,MUDr. Miroslav Belanský,Podzámska  16,Hlohovec,92001,SK,03769329855812,info@zzz.sk,https://www.zzz.sk/zariadenie/20599-20599-gynekologicko-porodnicka-ambulancia-medbel-sro-mudr-miroslav-belansky,48.4247031,17.7951788,t,
Gynekologicko-pôrodnícka ambulancia,MUDr. Martin Donoval,Hviezdoslavova  3,851 Holíč,023 90,SK,+421034668203,info@zzz.sk,https://www.zzz.sk/zariadenie/20671-20671-gynekologicko-porodnicka-ambulancia-medon-sro-mudr-martin-donoval,48.8102837,17.1639977,t,
Gynekologicko-pôrodnícka ambulancia,MUDr. Riško Ivan,Novozámocká,905 Nitra,129 94,SK,03769329855812,info@zzz.sk,https://www.zzz.sk/zariadenie/20973-20973-gynekologicko-porodnicka-ambulancia-mudr-risko-ivan-mudr-ivan-risko-sro,48.2739295,18.0995505,t,
Gynekologicko,MUDr. Miroslav Krjak,Jarmočná  15,Nitra,94901,SK,03769329855812,info@zzz.sk,https://www.zzz.sk/zariadenie/21158-21158-gynekologicko-porodnicka-ambulancia-mudr-miroslav-krjakphd-colpex-sro,48.2984773,18.0867955,t,
Gynekologicko-pôrodnícka ambulancia,MUDr. Langová Jana,Andovská  6,Nové Zámky,94001,SK,03769329855812,info@zzz.sk,https://www.zzz.sk/zariadenie/21897-21897-gynekologicko-porodnicka-ambulancia-mudr-langova-jana-jalagyn-sro,47.9857721,18.1561339,t,
Gynekologická ambulancia,Mgr. Viola Tömösközyová,Ambulancia onkológie v gynekológii FORLIFE Všeobecná nemocnica Komárno Mederčská ul.  39,Komárno,94501,SK,03769329855812,info@zzz.sk,https://www.zzz.sk/zariadenie/22626-22626-gynekologicka-ambulancia-onkologia-v-gynekologii-mgr-viola-tomoskozyova-zuzana-doczeova-mgr-zuzana-szaboova-mgr-zlatica-halmova-mudr-rudolf-pelikan-komarno-forlife-no,47.7625785,18.1294132,t,
Gynekologická ambulancia,MUDr. Mária Bašková,Textilná  4,Bánovce nad Bebravou,957 01,SK,+421387621506,info@zzz.sk,https://www.zzz.sk/zariadenie/22773-22773-gynekologicka-ambulancia-mudr-maria-baskova-besme-sro,48.7187952,18.2665175,t,
"Onkogynekologická ambulancia, prof. MUDr. Pavol Žúbor, PhD., DrSc., MBA, FRSM, (Univerzitná nemocnica Martin)",MUDr. Pavol Žúbor,Kollárova  2,Martin,03659,SK,+421434203591,info@zzz.sk,https://www.zzz.sk/zariadenie/23554-23554-onkogynekologicka-ambulancia-prof-mudr-pavol-zubor-phd-drsc-mba-frsm-univerzitna-nemocnica-martin,49.0604008,18.9194998,t,
GYNOD s.r.o.,MUDr. Jaroslav Novotný,Hviezdoslavova 27,Kežmarok,06001,SK,+421527781848,novotnyjaro@azet.sk,https://www.zzz.sk/zariadenie/2966-2966-gynod-sro-mudr-jaroslav-novotny,49.1325704,20.4276587,t,
"Gynekologická ambulancia, MUDr. Iveta Kamenská, (Kamenská, s.r.o.)",MUDr. Iveta Kamenská,Cambelova,613 Okres Banská Bystrica,316 97,SK,+421484196628,info@zzz.sk,https://www.zzz.sk/zariadenie/23851-23851-gynekologicka-ambulancia-mudr-iveta-kamenska-kamenska-sro,48.7659726,19.2738873,t,
"Poradňa pre rizikovo tehotné (Nemocnica Poprad, a. s.)",MUDr. Vladimír Böhmer,Banícka 803/28,Poprad,05845,SK,+421527125269,info@zzz.sk,https://www.zzz.sk/zariadenie/4618-4618-poradna-pre-rizikovo-tehotne-nemocnica-poprad-a-s-mudr-vladimir-bohmer,49.0520520,20.3034103,t,
"Ambulancia urológie, gynekológie a pôrodníctva, URO- GYN Senec, s.r.o.",MUDr. Milan Maľa,Lichnerova 76,Senec,90301,SK,03769329855812,info@zzz.sk,https://www.zzz.sk/zariadenie/7339-7339-ambulancia-urologie-gynekologie-a-porodnictva-uro-gyn-senec-sro-mudr-milan-mala,48.2175780,17.4044555,t,
Gynekologická ambulancia,MUDr. Anna Petriľáková,Spišské námestie č. 4,Nad Jazerom,04001,SK,+421556747242,info@zzz.sk,https://www.zzz.sk/zariadenie/7598-7598-gynekologicka-ambulancia-mudr-anna-petrilakova,48.6895798,21.2849183,t,
Gynekologická ambulancia,MUDr. Štefan Nagy,Poštová 15,Staré Mesto,04001,SK,+421556116669,info@zzz.sk,https://www.zzz.sk/zariadenie/7638-7638-gynekologicka-ambulancia-mudr-stefan-nagy,48.7226033,21.2526019,t,
"Gynekologická ambulancia (FEMA-GYN, s.r.o.)",MUDr. Marek Fifík,Limbová 5,Nové Mesto,83101,SK,+421259541111,info@zzz.sk,https://www.zzz.sk/zariadenie/7780-7780-gynekologicka-ambulancia-fema-gyn-sro-mudr-marek-fifik,48.1675332,17.0878031,t,
Gynekologická ambulancia,MUDr. Silvia Zambová,Námestie osloboditeľov 12/1,101 Michalovce,002 07,SK,+421566281720,info@zzz.sk,https://www.zzz.sk/zariadenie/8500-8500-gynekologicka-ambulancia-mudr-silvia-zambova,48.7559935,21.9171715,t,
Gynekologicko-pôrodnícka ambulancia,,Nová nemocnica,801 Partizánske,511 95,SK,+421387473331,info@zzz.sk,https://www.zzz.sk/zariadenie/8898-8898-gynekologicko-porodnicka-ambulancia,48.6269995,18.3614103,t,
Gynekologická ambulancia,MUDr. Zoltán Pataky,"Rákocziho 3,",Kráľovský Chlmec 07631 Streda nad Bodrogom,077 01,SK,03769329855812,info@zzz.sk,https://www.zzz.sk/zariadenie/9389-9389-gynekologicka-ambulancia-mudr-zoltan-pataky,,,t,
Gynekologická ambulancia,MUDr. Zuzana Melichová,Gemerská 3,Juh,04001,SK,+421556460027,info@zzz.sk,https://www.zzz.sk/zariadenie/9614-9614-gynekologicka-ambulancia-mudr-zuzana-melichova,48.7012734,21.2513763,t,
Gynekologická ambulancia,MUDr. Michal Lichvár,Hviezdoslavova 13,Spišská Nová Ves,05201,SK,+421534423453,info@zzz.sk,https://www.zzz.sk/zariadenie/9696-9696-gynekologicka-ambulancia-mudr-michal-lichvar,,,t,
Gynekologická ambulancia,MUDr. Marián Holda,"A. Bernoláka 20,",Michalovce 07204 Nezaradené,071 01,SK,+421566442412,info@zzz.sk,https://www.zzz.sk/zariadenie/10127-10127-gynekologicka-ambulancia-mudr-marian-holda,48.6994200,21.8051860,t,
MUDr. Božena Jancová,MUDr. Božena Jancová - gynekologická ambulancia s.r.o.,Pod Lachovcom 1727/55,Púchov,02001,SK,+421424605346,info@zzz.sk,https://www.zzz.sk/zariadenie/10405-10405-mudr-bozena-jancova-gynekologicka-ambulancia-sro,49.1288571,18.3216772,t,
Gynekologicko-pôrodnícka ambulancia VEGAFEM s. r. o.,MUDr. Veronika Gáboriková,Líščie údolie 57,Karlova Ves,84104,SK,+421260264143,info@zzz.sk,https://www.zzz.sk/zariadenie/10655-10655-gynekologicko-porodnicka-ambulancia-vegafem-s-r-o-mudr-veronika-gaborikova,48.1531164,17.0616482,t,
Gynekologicko-pôrodnícka ambulancia,MUDr. Katarína Krkošková,Bjőrnsonova 20,Martinová,03601,SK,+421434131563,info@zzz.sk,https://www.zzz.sk/zariadenie/11181-11181-gynekologicko-porodnicka-ambulancia-gynmart-gynekologicke-centrum-sro-mudr-katarina-krkoskova,49.0711111,18.9229382,t,
Gynekologicko-pôrodnícka ambulancia,MUDr. Ivana Majtánová,Mládežnícka 2,701 Považská Bystrica,174 01,SK,+421424340367,info@zzz.sk,https://www.zzz.sk/zariadenie/11411-11411-gynekologicko-porodnicka-ambulancia-gyniva-sro-mudr-ivana-majtanova,49.1207564,18.4287562,t,
Gynekologicko-pôrodnícka ambulancia,MUDr. Luboš Mičko,Pruské,852 Pruské,293 01,SK,+421424492910,info@zzz.sk,https://www.zzz.sk/zariadenie/12274-12274-gynekologicko-porodnicka-ambulancia-gynekon-sro-mudr-lubos-micko,49.0277028,18.2100692,t,
Gynekologicko-pôrodnícka ambulancia,MUDr. Ivan Juhás,Fatranská 12,Nitra nad Ipľom,94901,SK,03769329855812,info@zzz.sk,https://www.zzz.sk/zariadenie/12610-12610-gynekologicko-porodnicka-ambulancia-stomgyn-sro-mudr-ivan-juhas,48.3089036,18.1079456,t,
Gynekologicko-pôrodnícka ambulancia,MUDr. Alexander Varga,Gabčíkovo,Gabčíkovo,93005,SK,03769329855812,info@zzz.sk,https://www.zzz.sk/zariadenie/12675-12675-gynekologicko-porodnicka-ambulancia-mudr-alexander-varga,47.8914405,17.5762670,t,
Gynekologicko,MUDr. Peter Lesnický,Veľkoblahovská cesta  23,Dunajská Streda,92901,SK,03769329855812,info@zzz.sk,https://www.zzz.sk/zariadenie/12817-12817-gynekologicko-porodnicka-ambulancia-dr-l-gyn-sro-mudr-peter-lesnicky,48.0009648,17.6046308,t,
Gynekologicko-pôrodnícka ambulancia,MUDr. Miroslav Šišák,ObZS Jelka,Jelka,92523,SK,03769329855812,info@zzz.sk,https://www.zzz.sk/zariadenie/20407-20407-gynekologicko-porodnicka-ambulancia-mudr-miroslav-sisak,,,t,
Gynekologicko-pôrodnícka ambulancia,MUDr. Peter Gindl,Mierová  1435/35,Galanta,92401,SK,03769329855812,info@zzz.sk,https://www.zzz.sk/zariadenie/20497-20497-gynekologicko-porodnicka-ambulancia-diagnoza-sro-mudr-peter-gindl,48.1924425,17.7152441,t,
Gynekologicko-pôrodnícka ambulancia,MUDr. Juraj Čunderlík,Mazúrova  2,Skalica,90901,SK,03769329855812,info@zzz.sk,https://www.zzz.sk/zariadenie/20698-20698-gynekologicko-porodnicka-ambulancia-mudr-juraj-cunderlik,48.8428725,17.2249914,t,
Gynekologicko-pôrodnícka ambulancia,MUDr. Karin Vondráková,Rázusova  24,Nitra,94901,SK,03769329855812,info@zzz.sk,https://www.zzz.sk/zariadenie/21079-21079-gynekologicko-porodnicka-ambulancia-mudr-karin-vondrakovagynekologicke-centrum-aevitas-sro,48.2982367,18.0837693,t,
Gynekologicko-pôrodnícka ambulancia,MUDr. Bohumír Navrátil,Obvodné zdravotné stredisko,Dechtice,91953,SK,+421905228464,info@zzz.sk,https://www.zzz.sk/zariadenie/21374-21374-gynekologicko-porodnicka-ambulancia-navratil-sro-mudr-bohumir-navratil,48.5442634,17.5935045,t,
Gynekologicko-pôrodnícka ambulancia,MUDr. Laluha Adrián,Nemocničná  933/13,Šaľa,92701,SK,+421317899942,info@zzz.sk,https://www.zzz.sk/zariadenie/21625-21625-gynekologicko-porodnicka-ambulancia-mudr-laluha-adrian-gynasono-sro,48.1517738,17.8718723,t,
Gynekologicko-pôrodnícka ambulancia,MUDr. Eduard Havlas,Komárňanská  8967/24,Nové Zámky,94076,SK,03769329855812,info@zzz.sk,https://www.zzz.sk/zariadenie/21688-21688-gynekologicko-porodnicka-ambulancia-mudr-eduard-havlas-red-line-sro,47.9817427,18.1764979,t,
Privátna gynekologická ambulancia,MUDr. Peter Hrabčák,Babuškova 2,Ružinov,821 03,SK,+421902295842,info@zzz.sk,https://www.zzz.sk/zariadenie/22940-22940-privatna-gynekologicka-ambulancia-mudr-peter-hrabcak,48.1528066,17.1692694,t,
Gynekologická ambulancia,MUDr. Katarína Kočajdová,Bernolákova 10,Banská Bystrica,974 05,SK,+421484399213,info@zzz.sk,https://www.zzz.sk/zariadenie/22983-22983-gynekologicka-ambulancia-mudr-katarina-kocajdova,48.7206327,19.1349668,t,
"Gynekologická ambulancia, MUDr. Pavol Garaj, (FemiMed, s.r.o.)",MUDr. Pavol Garaj,Budovateľská  702/1,Brezová pod Bradlom,90613,SK,+421346242084,info@zzz.sk,https://www.zzz.sk/zariadenie/23461-23461-gynekologicka-ambulancia-mudr-pavol-garaj-femimed-sro,48.6654766,17.5367278,t,
"Gynekologická ambulancia, MUDr. Ján Kmeťko, (KMEŤKO, s. r. o.)",MUDr. Ján Kmeťko,Mládežnícka  2,701 Považská Bystrica,174 01,SK,+421424340368,info@zzz.sk,https://www.zzz.sk/zariadenie/23478-23478-gynekologicka-ambulancia-mudr-jan-kmetko-kmetko-s-r-o,49.1215850,18.4273960,t,
"Gynekologická ambulancia, MUDr. Štefan Braunstein, Veľká Čalomija, (G.O.MED. s.r.o.)",MUDr. Štefan Braunstein,Veľká Čalomija,109 Veľká Čalomija,223 99,SK,+421474875115,info@zzz.sk,https://www.zzz.sk/zariadenie/23862-23862-gynekologicka-ambulancia-mudr-stefan-braunstein-velka-calomija-gomed-sro,48.0670241,19.2009753,t,
Príjmová ambulancia,MUDr. Alojz Bolgáč,29.augusta 23,Krupina,96301,SK,03769329855812,info@zzz.sk,https://www.zzz.sk/zariadenie/925-925-prijmova-ambulancia-gynekologicka-mudr-alojz-bolgac,48.3533138,19.0639849,t,
Gynekologická ambulancia,,Duklianskych hrdinov 34,Malacky,90122,SK,+421342829700,info@zzz.sk,https://www.zzz.sk/zariadenie/4484-4484-gynekologicka-ambulancia,48.4412105,17.0337864,t,
Gynekologická ambulancia,MUDr. Štefan Ander,Rákocziho 22,Kráľovský Chlmec,07701,SK,+421907947025,info@zzz.sk,https://www.zzz.sk/zariadenie/6990-6990-gynekologicka-ambulancia-mudr-stefan-ander,48.4220035,21.9770649,t,
Gynekologická ambulancia,MUDr. Peter Ligus,Matice Slovenskej,Prešov,08001,SK,03769329855812,info@zzz.sk,https://www.zzz.sk/zariadenie/7860-7860-gynekologicka-ambulancia-mudr-peter-ligus,49.0017248,21.2265786,t,
Gynekologická ambulancia,MUDr. Peter Štefanko,Mieru 12,Sobrance,07301,SK,03769329855812,info@zzz.sk,https://www.zzz.sk/zariadenie/8782-8782-gynekologicka-ambulancia-mudr-peter-stefanko,48.7452812,22.1865624,t,
Gynekologická ambulancia,MUDr. Marianna Šestinová,Cottbuská 13,Sídlisko KVP,04023,SK,+421556444530,info@zzz.sk,https://www.zzz.sk/zariadenie/8813-8813-gynekologicka-ambulancia-mudr-marianna-sestinova,48.7145936,21.2160148,t,
Gynekologická ambulancia,MUDr. Igor Sedliak,Rastislavova 45,Juh,04001,SK,+421556331562,info@zzz.sk,https://www.zzz.sk/zariadenie/9042-9042-gynekologicka-ambulancia-mudr-igor-sedliak,48.7068965,21.2576211,t,
Gynekologická ambulancia,MUDr. Miroslav Halapin,Dargovských hrdinov 137/10,Sečovce,07801,SK,03769329855812,info@zzz.sk,https://www.zzz.sk/zariadenie/10216-10216-gynekologicka-ambulancia-mudr-miroslav-halapin,48.7037168,21.6446522,t,
Gynekologicko-pôrodnícka ambulancia,MUDr. Daniela Režňáková,Daniela Michaelliho 2,Martinová,03601,SK,+421434220735,info@zzz.sk,https://www.zzz.sk/zariadenie/10363-10363-gynekologicko-porodnicka-ambulancia-r-gyn-sro-mudr-daniela-reznakova,49.0506742,18.9227690,t,
Gynekologicko-pôrodnícka ambulancia MUDr. Mária Mihálová s.r.o.,MUDr. Mária Mihálová s.r.o.,Janka Kráľa 15,Bojnice,97201,SK,+421465430443,info@zzz.sk,https://www.zzz.sk/zariadenie/10436-10436-gynekologicko-porodnicka-ambulancia-mudr-maria-mihalova-sro,,,t,
Gynekologicko-pôrodnícka ambulancia GYN-PRAKTIK s.r.o.,MUDr. Pavol Hartel,Bajzova 8401/48A,Žilina,01001,SK,+421415007800,info@zzz.sk,https://www.zzz.sk/zariadenie/10764-10764-gynekologicko-porodnicka-ambulancia-gyn-praktik-sro-mudr-pavol-hartel,49.2044417,18.7345356,t,
Gynekologická ambulancia,MUDr. Beáta Brnová,Štúrova 6,Krompachy,05342,SK,+421534472059,info@zzz.sk,https://www.zzz.sk/zariadenie/10879-10879-gynekologicka-ambulancia-mudr-beata-brnova,48.9167233,20.8726472,t,
Gynekologicko-pôrodnícka ambulancia,MUDr. Štefan Dlugoš,Belanského 1,401 Kysucké Nové Mesto,345 02,SK,+421414000456,info@zzz.sk,https://www.zzz.sk/zariadenie/11160-11160-gynekologicko-porodnicka-ambulancia-mudr-stefan-dlugos-sro,49.3018671,18.7859228,t,
Gynekologicko-pôrodnícka ambulancia,MUDr. Edita Priečinská,M. R. Štefánika  319/32,Nováky,97271,SK,+421465461346,info@zzz.sk,https://www.zzz.sk/zariadenie/11498-11498-gynekologicko-porodnicka-ambulancia-gynedit-sro-mudr-edita-priecinska,48.7160008,18.5402891,t,
Gynekologicko-pôrodnícka ambulancia,MUDr. Ján Perhács,Školská  41,Šamorín,93101,SK,+421312702997,info@zzz.sk,https://www.zzz.sk/zariadenie/12782-12782-gynekologicko-porodnicka-ambulancia-hera-spol-s-ro-mudr-jan-perhacs,48.0259067,17.3096023,t,
Gynekologicko-pôrodnícka ambulancia,MUDr. Vladimír Brešťanský,Za poštou  8,Hlohovec,92001,SK,03769329855812,info@zzz.sk,https://www.zzz.sk/zariadenie/20552-20552-gynekologicko-porodnicka-ambulancia-ulmus-s-ro-mudr-vladimir-brestansky,48.4253132,17.7987331,t,
"Gynekologicko-pôrodnícka ambulancia,MUDr. Milan Čech",MUDr. Milan Čech,Ulica Koniarekova,Trnava,91700,SK,03769329855812,info@zzz.sk,https://www.zzz.sk/zariadenie/21426-21426-gynekologicko-porodnicka-ambulanciamudr-milan-cech,48.3737031,17.6081946,t,
Gynekologicko-pôrodnícka ambulancia,MUDr. Jozef Geöreögh,nan nan Šurany,,,SK,03769329855812,info@zzz.sk,https://www.zzz.sk/zariadenie/21839-21839-gynekologicko-porodnicka-ambulancia-mudr-jozef-georeogh,,,t,
Gynekologicko-pôrodnícka ambulancia,MUDr. Jozef Rešeta,Mozartova  3,Trnava,91708,SK,03769329855812,info@zzz.sk,https://www.zzz.sk/zariadenie/22052-22052-gynekologicko-porodnicka-ambulancia-babae-sro-mudr-jozef-reseta,48.3695375,17.5677660,t,
Gynekologická ambulancia Raučina & Surgent,,Mnoheľova 2,Poprad,058 01,SK,+421524314161,info@zzz.sk,https://www.zzz.sk/zariadenie/22975-22975-gynekologicka-ambulancia-raucina-surgent,49.0583090,20.2963381,t,
"Gynekologická ambulancia, MUDr. Monika Molnárová, (LadyGyn s.r.o.)",MUDr. Monika Molnárová,Hollého,501 Rajec,200 01,SK,+421415423810,info@zzz.sk,https://www.zzz.sk/zariadenie/23845-23845-gynekologicka-ambulancia-mudr-monika-molnarova-ladygyn-sro,49.0929724,18.6388150,t,
"Súkromná gynekologická ambulancia, gynekologický ultrazvuk",MUDr. František Bálint,Továrenská 2,Michalovce,07101,SK,+421566888411,info@zzz.sk,https://www.zzz.sk/zariadenie/3024-3024-sukromna-gynekologicka-ambulancia-gynekologicky-ultrazvuk-mudr-frantisek-balint,48.7427766,21.9040878,t,
Gynekologická ambulancia,MUDr. Ivona Ďubeková,Fedinova 9,Petržalka,85101,SK,+421263813850,info@zzz.sk,https://www.zzz.sk/zariadenie/3949-3949-gynekologicka-ambulancia-mudr-ivona-dubekova,48.1167562,17.1016771,t,
Gynekologická ambulancia,MUDr. Juraj Furo,Nábrežná 5,Prievidza,97101,SK,+421465113357,info@zzz.sk,https://www.zzz.sk/zariadenie/6554-6554-gynekologicka-ambulancia-mudr-juraj-furo-zdravy-zivot-s-r-o,48.7791463,18.6093455,t,
Gynekologická ambulancia,MUDr. Ivan Vážny,Betliarska 3776/17,Petržalka,85107,SK,+421907888999,info@zzz.sk,https://www.zzz.sk/zariadenie/7266-7266-gynekologicka-ambulancia-mudr-ivan-vazny,48.0994981,17.1219394,t,
Gynekologická ambulancia,MUDr. Marína Tripšanská,Námestie SNP 2,Spišská Nová Ves,05201,SK,+421534410446,info@zzz.sk,https://www.zzz.sk/zariadenie/8718-8718-gynekologicka-ambulancia-mudr-marina-tripsanska,48.9475772,20.5606997,t,
Gynekologická ambulancia,MUDr. Igor Lenďák,Hlavná 620/,402 Nezaradené,360 04,SK,4662325,info@zzz.sk,https://www.zzz.sk/zariadenie/9704-9704-gynekologicka-ambulancia-mudr-igor-lendak,,,t,
Gynekologicko-pôrodnícka ambulancia,MUDr. Andrea Bašková,Hviezdoslavova 23/3,Bánovce nad Bebravou,957 01,SK,+421387624353,info@zzz.sk,https://www.zzz.sk/zariadenie/10954-10954-gynekologicko-porodnicka-ambulancia-mudr-andrea-baskova-gynein-sro,48.7202290,18.2581671,t,
Gynekologicko,MUDr. Dezider Timko,Nábrežie 4. apríla  1,101 Liptovský Mikuláš,990 03,SK,+421445524441,info@zzz.sk,https://www.zzz.sk/zariadenie/11863-11863-gynekologicko-porodnicka-ambulancia-mudr-dezider-timko-gsa-sro,49.0768865,19.6136646,t,
Gynekologicko-pôrodnícka ambulancia,MUDr. Ľubomír Havlík,Moravský Svätý Ján  12,Moravský Svätý Ján,90871,SK,+421347770241,info@zzz.sk,https://www.zzz.sk/zariadenie/20431-20431-gynekologicko-porodnicka-ambulancia-gynprax-sromudr-lubomir-havlik,48.5908453,17.0037080,t,
Gynekologicko-pôrodnícka ambulancia,MUDr. Lucia Mudrončíková,Robotnícka  12,Piešťany,92101,SK,03769329855812,info@zzz.sk,https://www.zzz.sk/zariadenie/20823-20823-gynekologicko-porodnicka-ambulancia-medigyn-spol-s-ro-mudr-lucia-mudroncikova,48.5826992,17.8256288,t,
Gynekologicko-pôrodnícka ambulancia,MUDr. Eva Radičová,"OZS , sídl.  Juh",Topoľčany,95501,SK,03769329855812,info@zzz.sk,https://www.zzz.sk/zariadenie/21362-21362-gynekologicko-porodnicka-ambulancia-mudr-eva-radicova,48.5614719,18.1716087,t,
Gynekologicko-pôrodnícka ambulancia,MUDr. Ľubor Péči,Starohájska ulica  2,Trnava,91701,SK,+421335533888,info@zzz.sk,https://www.zzz.sk/zariadenie/21381-21381-gynekologicko-porodnicka-ambulancia-mudr-lubor-peci-sro,48.3798830,17.5956051,t,
Gynekologicko-pôrodnícka ambulancia,MUDr. Tomáš Danys,Slovenská  11,Nové Zámky,94034,SK,03769329855812,info@zzz.sk,https://www.zzz.sk/zariadenie/21911-21911-gynekologicko-porodnicka-ambulancia-mudr-tomas-danys-phd-gyndanys-sro,47.9860672,18.1640649,t,
Gynekologicko-pôrodnícka ambulancia,MUDr. Milan Čech,Koniarekova,Trnava,91700,SK,03769329855812,info@zzz.sk,https://www.zzz.sk/zariadenie/21990-21990-gynekologicko-porodnicka-ambulancia-gyncech-sro-mudr-milan-cech,48.3737031,17.6081946,t,
Gynekologická ambulancia,MUDr. Dominika Valúchová,Veľkoblahovská Cesta 23,Dunajská Streda,929 01,SK,+421315571223,info@zzz.sk,https://www.zzz.sk/zariadenie/22979-22979-gynekologicka-ambulancia-mudr-dominika-valuchova,48.0008882,17.6048793,t,
Súkromná gynekologická ambulancia,MUDr. Jaroslav Kardoš,Nemocničná 986/1,Považská Bystrica,017 01,SK,+421424304303,info@zzz.sk,https://www.zzz.sk/zariadenie/22982-22982-sukromna-gynekologicka-ambulancia-mudr-jaroslav-kardos,49.1065752,18.4578954,t,
Gynekologicko-pôrodnícka ambulancia (GYN,MUDr. Peter Stanko,Hollého 2,Pezinok,90201,SK,+421336412126,info@zzz.sk,https://www.zzz.sk/zariadenie/23201-23201-gynekologicko-porodnicka-ambulancia-gyn-gaal-sro-mudr-peter-stanko,48.2859901,17.2734963,t,
"Gynekologická ambulancia a poradňa, MUDr. Martin Krč, (Nemocnica Alexandra Wintera, n.o. Piešťany)",MUDr. Martin Krč,Winterova 66.,Piešťany,92101,SK,+421948800754,info@zzz.sk,https://www.zzz.sk/zariadenie/23805-23805-gynekologicka-ambulancia-a-poradna-mudr-martin-krc-nemocnica-alexandra-wintera-no-piestany,48.5882912,17.8380010,t,
"Gynekologická ambulancia, MUDr. Štefan Braunstein, Vinica, (G.O.MED. s.r.o.)",MUDr. Štefan Braunstein,Nekyjská  1,128 Vinica,730 99,SK,+421474891213,info@zzz.sk,https://www.zzz.sk/zariadenie/23863-23863-gynekologicka-ambulancia-mudr-stefan-braunstein-vinica-gomed-sro,48.1192668,19.1153275,t,
Gynekologická a mamologická ambulancia,Prof. MUDr. Kamil Pohlodek,Heydukova 14,Staré Mesto,81108,SK,+421944469698,prsnikova.ambulancia@gmail.com,https://www.zzz.sk/zariadenie/7734-7734-gynekologicka-a-mamologicka-ambulancia-prof-mudr-kamil-pohlodek-phd-mph,48.1478396,17.1138596,t,
Gynekologicko-pôrodnícka ambulancia,MUDr. Juraj Braun,Nábrežná  3,Levice,93401,SK,+421366345963,info@zzz.sk,https://www.zzz.sk/zariadenie/22116-22116-gynekologicka-ambulancia-levice-trinita-spol-s-ro,48.2095235,18.6039298,t,
Gynekológia,MUDr. Dagmar Gavorníková,Einsteinova 7,Petržalka,85101,SK,+421268230911,gynekologia@interklinik.sk,https://www.zzz.sk/zariadenie/8148-8148-gynekologia-mudr-dagmar-gavornikova,48.1308349,17.1156623,t,
Sanatórium Helios Banská Bystrica,,Rudlovská cesta 83,Banská Bystrica,974 01,SK,+421484700733,info@sanatoriumheliosbb.sk,https://www.zzz.sk/zariadenie/24347-24347-sanatorium-helios-banska-bystrica,,,t,
Gynekologicko-pôrodnícka ambulancia,MUDr. Dušan Stanislav,Strečnianska 13,Petržalka,851 05,SK,+421262520524,stanislav.medicentrumhsc@gmail.com,https://www.zzz.sk/zariadenie/4144-4144-gynekologicko-porodnicka-ambulancia-medicentrum-hsc-s-r-o-mudr-dusan-stanislav,48.1052387,17.1065096,t,
Neštátna gynekologická a onkogynekologická ambulancia,MUDr. Jozef Adam,Tatranská 25,Staré Mesto,04001,SK,+421556225606,ambulanciagpo@gmail.com,https://www.zzz.sk/zariadenie/4295-4295-nestatna-gynekologicka-a-onkogynekologicka-ambulancia-mudr-jozef-adam-phd,48.7249867,21.2438700,t,
Gynekologická ambulancia,MUDr. Miloslav Hronec,Satinského 1,Staré Mesto,81108,SK,+421250947253,mihron@gmail.com,https://www.zzz.sk/zariadenie/533-533-gynekologicka-ambulancia-mudr-miloslav-hronec-csc,48.1461942,17.1172657,t,
Elgyn s.r.o.,MUDr. Radoslav Šraga,Fábryho 1,901 Veľké Kapušany,280 07,SK,+421566382696,radosraga@pobox.sk,https://www.zzz.sk/zariadenie/3383-3383-elgyn-sro-gynekologicka-ambulancia-mudr-radoslav-sraga,48.5549153,22.0763269,t,
"Gynekologická chirurgia (Vox Lauri,s.r.o.)",,Jarmočná 15,Nitra,94901,SK,+421907746889,batovskyv@gmail.com,https://www.zzz.sk/zariadenie/21207-21207-gynekologicka-chirurgia-vox-laurisro,48.2986465,18.0870701,t,
"Gynekologická ambulancia, FEMINA LM s.r.o.",MUDr. Michal Luníček,Priehradná č. 23,Liptovský Mikuláš,03101,SK,+421445541839,michallunicek@gmail.com,https://www.zzz.sk/zariadenie/5731-5731-gynekologicka-ambulancia-femina-lm-sro-mudr-michal-lunicek,49.0871507,19.5922838,t,
Gynekologická ambulancia FEMINA LM s.r.o.,MUDr. Michal Luníček,Mostová 6,Ružomberok,03401,SK,+421444321066,michallunicek@gmail.com,https://www.zzz.sk/zariadenie/821-821-gynekologicka-ambulancia-femina-lm-sro-mudr-michal-lunicek,49.0834661,19.3048828,t,
Gynekologická ambulancia,MUDr. Igor Bornay,Železničná 23,Rimavská Sobota,97901,SK,+421475631717,info@zzz.sk,https://www.zzz.sk/zariadenie/5126-5126-gynekologicka-ambulancia-mudr-igor-bornay,48.3848287,20.0252012,t,
Gynekologická ambulancia,MUDr. Eugénia Pankuchová,Masarykova 26 0801 Prešov,,,SK,+421517734080,info@zzz.sk,https://www.zzz.sk/zariadenie/8140-8140-gynekologicka-ambulancia-mudr-eugenia-pankuchova,48.9849037,21.2499818,t,
Gynekologická ambulancia,MUDr. Emil Havránek,Hlavná  929/6,Galanta,92401,SK,+421905269067,ehavranek@zoznam.sk,https://www.zzz.sk/zariadenie/1592-1592-gynekologicka-ambulancia-afw-sro-mudr-emil-havranek,48.1909765,17.7253358,t,
Mammárna ambulancia,MUDr. Peter Chaba,Obrancov mieru 3,Stará Ľubovňa,06401,SK,+421524317436,info@zzz.sk,https://www.zzz.sk/zariadenie/1152-1152-mammarna-ambulancia-mudr-peter-chaba,49.2983268,20.6901338,t,
Gynekologicko,MUDr. Miroslav Borovský,Antolská 11,Petržalka,851 07,SK,+421268672544,info@zzz.sk,https://www.zzz.sk/zariadenie/1136-1136-gynekologicko-porodnicka-ambulancia-nemocnica-sv-cyrila-a-metoda-prof-mudr-miroslav-borovsky-csc,48.1020874,17.1183618,t,
Gynekologicko – pôrodnícka príjmová a konziliárna ambulancia (Nemocnica sv. Cyrila a Metoda),MUDr. Adriana Lipovská PhD.,Antolská 11,Petržalka,851 07,SK,+421268672619,info@zzz.sk,https://www.zzz.sk/zariadenie/1140-1140-gynekologicko-porodnicka-prijmova-a-konziliarna-ambulancia-nemocnica-sv-cyrila-a-metoda-mudr-adriana-lipovska-phd,48.1010527,17.1175098,t,
Gynekologická ambualncia,MUDr. Jozef Janovský,Murgašova 1,Okres Košice,040 01,SK,+421949803035,janovskyjozo@gmail.com,https://www.zzz.sk/zariadenie/7561-7561-gynekologicka-ambualncia-mudr-jozef-janovsky,48.7179322,21.2562281,t,
Gynekologicko,MUDr. Andrea Maľová,Antolská 11,Petržalka,851 07,SK,+421268672618,info@zzz.sk,https://www.zzz.sk/zariadenie/346-346-gynekologicko-porodnicka-ultrazvukova-ambulancia-nemocnica-sv-cyrila-a-metoda-mudr-andrea-malova-phd,48.1020874,17.1183618,t,
Gynekologická ambulancia,MUDr. Andrea Ďurechová,Jelačičova 7,Ružinov,82108,SK,+421907888999,info@zzz.sk,https://www.zzz.sk/zariadenie/4898-4898-gynekologicka-ambulancia-mudr-andrea-durechova,48.1547685,17.1277368,t,
Gynekologicko,MUDr. Jozef Oravec,Antolská 11,Petržalka,851 07,SK,+421268672620,info@zzz.sk,https://www.zzz.sk/zariadenie/1132-1132-gynekologicko-porodnicka-ambulancia-nemocnica-sv-cyrila-a-metoda-mudr-jozef-oravec,48.1020874,17.1183618,t,
Gynekologicko,MUDr. Martin Petrenko,Antolská 11,Petržalka,851 07,SK,+421268672443,info@zzz.sk,https://www.zzz.sk/zariadenie/22822-22822-gynekologicko-porodnicka-ambulancia-nemocnica-sv-cyrila-a-metoda-prim-mudr-martin-petrenko-csc,48.1010527,17.1175098,t,
Gynekologicko,MUDr. Emil Scholtz,Antolská 11,Petržalka,851 07,SK,+421268672621,info@zzz.sk,https://www.zzz.sk/zariadenie/1128-1128-gynekologicko-porodnicka-ambulancia-nemocnica-sv-cyrila-a-metoda-mudr-emil-scholtz-mph,48.1020874,17.1183618,t,
Gynekologicko,MUDr. Miroslav Korbeľ,Antolská 11,Petržalka,851 07,SK,+421268672549,info@zzz.sk,https://www.zzz.sk/zariadenie/1129-1129-gynekologicko-porodnicka-ambulancia-nemocnica-sv-cyrila-a-metoda-doc-mudr-miroslav-korbel-csc,48.1020874,17.1183618,t,
Gynekologicko-pôrodnícka ambulancia,MUDr. Juraj Braun,Námestie Odborárov  7,Tlmače,93521,SK,03769329855812,info@zzz.sk,https://www.zzz.sk/zariadenie/22112-22112-gynekologicko-porodnicka-ambulancia-mudr-braun-juraj-trinita-spol-s-ro,48.2960454,18.5164648,t,
Gynekologicko- pôrodnícka ambulancia,MUDr. Marčela Levska,Poštová 2,Zlaté Klasy,93039,SK,+421315691441,marcela.tichova@gmail.com,https://www.zzz.sk/zariadenie/3781-3781-gynekologicko-porodnicka-ambulancia-alpha-medical-group-sro-mudr-marcela-levska-tichova,48.1219626,17.4218843,t,
Gynekologicko-pôrodnícka ambulancia,MUDr. Hlavačka Jaroslav,"Hviezdoslavova 1 ,  PK",Nitra,94901,SK,03769329855812,info@zzz.sk,https://www.zzz.sk/zariadenie/21191-21191-gynekologicko-porodnicka-ambulancia-mudr-hlavacka-jaroslav-aktis-plus-sro,48.3148451,18.0879864,t,
HaMed s.r.o.,MUDr. Vladimír Hruda,Námestie slobody 1,Dolný Kubín,02601,SK,+421435111230,vladimir.hruda@gmail.com,https://www.zzz.sk/zariadenie/2983-2983-hamed-sro-gynekologicko-porodnicka-a-ultrazvukova-ambulancia-mudr-vladimir-hruda,49.2110712,19.2876534,t,
Gynekologická a pôrodnícka ambulancia,MUDr. Ivan Mrázik,Boženy Nemcovej 1240/7,Revúca,05001,SK,+421584431912,ivan.mrazik@gmail.com,https://www.zzz.sk/zariadenie/3201-3201-mudr-ivan-mrazik-gynekologicka-ambulancia,48.6869177,20.1177353,t,
Gynekologická ambulancia I.,MUDr. Daniel Keder,Heydukova 10,Staré Mesto,81250,SK,+421232249265,daniel.keder@ousa.sk,https://www.zzz.sk/zariadenie/6851-6851-gynekologicka-ambulancia-i-mudr-daniel-keder,48.1472096,17.1130618,t,
Gynekologicko-pôrodnícka ambulancia,MUDr. Ladislav Maršík,Sv. Vincenta 4,Okres Bratislava,821 03,SK,+421905251904,reprodukcia@reprodukcia.sk,https://www.zzz.sk/zariadenie/11714-11714-gynekologicko-porodnicka-ambulancia-reprodukcia-sro-mudr-ladislav-marsik-phd,48.1524877,17.1662306,t,
"Gynekologická ambulancia Gyn Iv., spol. s r. o.",MUDr. Martin Alföldi,Nemocničná 1,Šaľa,92701,SK,+421909107879,info@gyn.sk,https://www.zzz.sk/zariadenie/10780-10780-gynekologicka-ambulancia-gyn-iv-spol-s-r-o-mudr-martin-alfoldi,48.1519331,17.8716317,t,
"CARE, s.r.o. gynekologická ambulancia",MUDr. Ľudovít Janek,Administratívny areál PD Úsvit,Dunajská Lužná,90042,SK,+421315624291,janekad@stonline.sk,https://www.zzz.sk/zariadenie/975-975-care-sro-gynekologicka-ambulancia-mudr-ludovit-janek,48.0850914,17.2584445,t,
Konziliárna gynekologická ambulancia,MUDr. Dušan Frič,Lúčna 57,Okres Košice,04015,SK,+421557234213,dfric@nemocnicasaca.sk,https://www.zzz.sk/zariadenie/1082-1082-konziliarna-gynekologicka-ambulancia-mudr-dusan-fric,48.6425461,21.1704829,t,
Gynekologická ambulancia,MUDr. Milan Puskeiler,Mostová 6,Ružomberok,03401,SK,+421918754597,mpuskeiler@gmail.com,https://www.zzz.sk/zariadenie/7201-7201-gynekologicka-ambulancia-mudr-milan-puskeiler,49.0833507,19.3045159,t,
Gynekologická ambulancia II.,MUDr. Peter Hrúzik,Limbová 5,Nové Mesto,83305,SK,+421259541111,info@zzz.sk,https://www.zzz.sk/zariadenie/8266-8266-gynekologicka-ambulancia-ii-mudr-peter-hruzik-csc,48.1675332,17.0878031,t,
"Gynekologicko-pôrodnícka ambulancia, 3/4D ultrazvuk",MUDr. Eva Podmanická,Belanského 1,401 Kysucké Nové Mesto,345 02,SK,+421907857777,objednavky@gynekologiaknm.sk,https://www.zzz.sk/zariadenie/5688-5688-gynekologicko-porodnicka-ambulancia-34d-ultrazvuk-medica-care-sro-mudr-eva-podmanicka,49.3024953,18.7865214,t,
Gynekologicko-pôrodnícka ambulancia,MUDr. Nidal Abutuaima,Nábrežná 5,Prievidza,97101,SK,+421465433220,gynferea@gynferea.sk,https://www.zzz.sk/zariadenie/10843-10843-gynekologicko-porodnicka-ambulancia-gynferea-s-r-o-mudr-nidal-abutuaima,48.7804329,18.6104183,t,
Gynekologicko,MUDr. Eva Méry,Zdravotnícka 599/5,Gabčíkovo,93005,SK,315584364,info@zzz.sk,https://www.zzz.sk/zariadenie/24225-24225-gynekologicko-porodnicka-ambulancia-mudr-eva-mery-femga-sro,,,t,
Gynekologická ambulancia,MUDr. Ján Neubauer,SNP 19,Levice,93401,SK,+421366379532,info@zzz.sk,https://www.zzz.sk/zariadenie/3375-3375-gynekologicka-ambulancia-jadin-sro-mudr-jan-neubauer,48.2221616,18.6142829,t,
Gynekologická ambulancia,MUDr. Martin Ditte,Partizánska 27,Staré Mesto,81107,SK,+421254412612,info@gpn.sk,https://www.zzz.sk/zariadenie/8346-8346-gynekologicka-ambulancia-ultrazvuk-gpn-sro-mudr-martin-ditte,48.1460945,17.0990481,t,
Gynekologická ambulancia II.,MUDr. Ladislav Masák,Heydukova 10,Staré Mesto,81250,SK,+421232249292,lmasak@ousa.sk,https://www.zzz.sk/zariadenie/6850-6850-gynekologicka-ambulancia-ii-mudr-ladislav-masak-csc,48.1472096,17.1130618,t,
Gynekologická ambulancia Prakovce,MUDr. Ruth Špirková,Prakovce,562 Prakovce,299 05,SK,+421917700889,ruthspirkova@azet.sk,https://www.zzz.sk/zariadenie/4271-4271-gynekologicka-ambulancia-prakovce-gynerva-sro-mudr-ruth-spirkova,48.8150693,20.9114558,t,
Gynekologická ambulancia,MUDr. Juraj Chochláč,Kostolná 14,Pohronský Ruskov,93562,SK,+421367795002,juraj.chochlac@centrum.sk,https://www.zzz.sk/zariadenie/3146-3146-gynekologicka-ambulancia-mudr-juraj-chochlac,47.9573655,18.6509626,t,
"Gynekologická ambulancia, MUDr. Erik Benyovszky, GYNKO, s. r. o.)",MUDr. Erik Benyovszky,Rastislavova 45,Juh,04001,SK,+421556221562,info@zzz.sk,https://www.zzz.sk/zariadenie/11018-11018-gynekologicka-ambulancia-mudr-erik-benyovszky-gynko-s-r-o,48.7070255,21.2576084,t,
"Gynekologicko-pôrodnícka ambulancia GYNMED Žilina, s.r.o.",MUDr. Peter Durmis,Hálkova 3,Žilina,01001,SK,+421911399535,info@zzz.sk,https://www.zzz.sk/zariadenie/10568-10568-gynekologicko-porodnicka-ambulancia-gynmed-zilina-sro-mudr-peter-durmis,49.2214468,18.7375263,t,
Gynekologicko-pôrodnícka ambulancia,MUDr. Viktor Kráľ,I. Krasku,Leopoldov,92601,SK,03769329855812,info@zzz.sk,https://www.zzz.sk/zariadenie/20393-20393-gynekologicko-porodnicka-ambulancia-mudr-viktor-kral,48.4500362,17.7649401,t,
Gynekologicko-pôrodnícka ambulancia,MUDr. Jozef Bajcar,Stred 41,Turzovka,02341,SK,+421414308437,info@zzz.sk,https://www.zzz.sk/zariadenie/10913-10913-gynekologicko-porodnicka-ambulancia-gynekol-sro-mudr-jozef-bajcar,49.4026418,18.6220127,t,
"Gynekologicko-pôrodnícka ambulancia GYNMEDIK, s.r.o.",MUDr. Viera Micháliková,Stred 41,Turzovka,02354,SK,+421414308436,info@zzz.sk,https://www.zzz.sk/zariadenie/10439-10439-gynekologicko-porodnicka-ambulancia-gynmedik-sro-mudr-viera-michalikova,,,t,
Gynekologicko-pôrodnícka ambulancia,MUDr. František Janiček,Železničná  1039/17,Sereď,92601,SK,03769329855812,info@zzz.sk,https://www.zzz.sk/zariadenie/20449-20449-gynekologicko-porodnicka-ambulancia-mudr-frantisek-janicek-sro-mudr-frantisek-janicek-phd,48.2863955,17.7302411,t,
Gynekologicko,MUDr. Károly Foldes,obvodné zdravotné stredisko Topoľníky,Topoľníky,93011,SK,03769329855812,info@zzz.sk,https://www.zzz.sk/zariadenie/12857-12857-gynekologicko-porodnicka-ambulancia-afk-sro-mudr-karoly-foldes,47.9675599,17.7868002,t,
Gynekologicko-pôrodnícka ambulancia,MUDr. Viera Ugorová,Starohájska ulica  2,Trnava,91701,SK,+421335513134,ambulancia@gynars.sk,https://www.zzz.sk/zariadenie/21991-21991-gynekologicko-porodnicka-ambulancia-gynars-sro-mudr-viera-ugorova,48.3795524,17.5954806,t,
Gynekologická ambulancia,MUDr. Róbert Paldia,Bazovského  2,Dúbravka,841 01,SK,03769329855812,info@zzz.sk,https://www.zzz.sk/zariadenie/1137-1137-gynekologicka-ambulancia-mudr-robert-paldia-phd-olympex-sro,48.1826849,17.0430882,t,
Gynekologicko-pôrodnícka ambulancia,MUDr. Oto Balco,Trieda A. Hlinku  28,Zlaté Moravce,95301,SK,03769329855812,info@zzz.sk,https://www.zzz.sk/zariadenie/21281-21281-gynekologicko-porodnicka-ambulancia-mudr-oto-balco-bons-offices-sro,48.3835560,18.3967405,t,
Gynekologická ambulancia,MUDr. Mária Krepsová,Špitálska 1,Rožňava,04801,SK,+421587342128,info@zzz.sk,https://www.zzz.sk/zariadenie/9782-9782-gynekologicka-ambulancia-mudr-maria-krepsova,,,t,
Mammárna poradňa,MUDr. Igor Mihók,"M.R.Štefánika, 187/177B",Vranov nad Topľou,09327,SK,+421574865431,info@zzz.sk,https://www.zzz.sk/zariadenie/448-448-mammarna-poradna-mudr-igor-mihok,48.8853267,21.6907975,t,
Gynekologická ambulancia,MUDr. Ladislav Janovský,Andreja Hlinku 28,Zlaté Moravce,95301,SK,+421905340307,info@zzz.sk,https://www.zzz.sk/zariadenie/2664-2664-gynekologicka-ambulancia-mudr-ladislav-janovsky,48.3835619,18.3959160,t,
Gynekologicko-pôrodnícka ambulancia,MUDr. Jaroslav Lacko,17. novembra  1,501 Topoľčany,300 95,SK,03769329855812,info@zzz.sk,https://www.zzz.sk/zariadenie/21395-21395-gynekologicko-porodnicka-ambulancia-mudr-jaroslav-lacko,48.5610968,18.1707168,t,
Gynekologická ambulancia,MUDr. František Sýkora,Slovenská 11/A,Nové Zámky,94034,SK,+421356912658,info@zzz.sk,https://www.zzz.sk/zariadenie/2794-2794-gynekologicka-ambulancia-mudr-frantisek-sykora,47.9884245,18.1554813,t,
Gynekologická ambulancia,MUDr. Ľubomír Petráš,Jasov 73,Okres Košice,04423,SK,+421554668500,info@zzz.sk,https://www.zzz.sk/zariadenie/9274-9274-gynekologicka-ambulancia-mudr-lubomir-petras,,,t,
Gynekologicko-pôrodnícka ambulancia,MUDr. Mikuš Miloslav Mikuš,Nábrežná  1635/4,Trenč,91101,SK,+421327436860,info@zzz.sk,https://www.zzz.sk/zariadenie/12307-12307-gynekologicko-porodnicka-ambulancia-mudr-mikus-miloslav-mikus,48.9012776,18.0494845,t,
Gynekologicko-pôrodnícka ambulancia /  ambulancia pediatrickej gynekológie,MUDr. Zuzana Pospíšilová,Pribinova  5,Topoľčany,95501,SK,03769329855812,info@zzz.sk,https://www.zzz.sk/zariadenie/21364-21364-gynekologicko-porodnicka-ambulancia-ambulancia-pediatrickej-gynekologie-mudr-zuzana-pospisilova,48.5594414,18.1762301,t,
Ambulancia rizikovej gravidity,MUDr. Karol Plank,Limbova 5,Nové Mesto,83305,SK,+421259542423,info@zzz.sk,https://www.zzz.sk/zariadenie/3584-3584-ambulancia-rizikovej-gravidity-mudr-karol-plank-csc,48.1673919,17.0878109,t,
Gynekologicko-pôrodnícka ambulancia,MUDr. Kováčik Ivan,OZS Neded,585 Neded,309 92,SK,03769329855812,info@zzz.sk,https://www.zzz.sk/zariadenie/21602-21602-gynekologicko-porodnicka-ambulancia-mudr-kovacik-ivan-medi-gama-sro,,,t,
Gynekologicko-pôrodnícka ambulancia,MUDr. Ľubomír Božoň,"M.R.Štefánika, 187/177B",Vranov nad Topľou,09327,SK,+421574865356,info@zzz.sk,https://www.zzz.sk/zariadenie/155-155-gynekologicko-porodnicka-ambulancia-mudr-lubomir-bozon,48.8853267,21.6907975,t,
"Gynekologická ambulancia, MUDr. Dušan Macala",MUDr. Dušan Macala,Bezručova  538/3,Bardejov,08501,SK,+421544724609,info@zzz.sk,https://www.zzz.sk/zariadenie/23868-23868-gynekologicka-ambulancia-mudr-dusan-macala,49.2860967,21.2707745,t,
Gynekologická ambulancia,MUDr. Jozef Kantík,J. D. Matejovie,3 80 Liptovský Hrádok,542 03,SK,+421445209228,jkantik@jokagyn.sk,https://www.zzz.sk/zariadenie/1156-1156-gynekologicka-ambulancia-joka-gyn-sro-mudr-jozef-kantik,49.0387458,19.7240418,t,
Gynekologicko,MUDr. Fedor Volár,Hurbanova  13,Trenč,91101,SK,+421327434668,info@zzz.sk,https://www.zzz.sk/zariadenie/12020-12020-gynekologicko-porodnicka-ambulancia-mudr-fedor-volar,48.8996501,18.0489187,t,
Gynekologická ambulancia,MUDr. Richard Molokáč,Národná trieda 27,Sever,04001,SK,+421951206913,info@zzz.sk,https://www.zzz.sk/zariadenie/24293-24293-gynekologicka-ambulancia-mudr-richard-molokac,,,t,
Gynekológicko,MUDr. Angelika Göghová,Križná  8,Kolárovo,94603,SK,03769329855812,info@zzz.sk,https://www.zzz.sk/zariadenie/22576-22576-gynekologicko-porodnicka-ambulancia-jednodnova-zdravotna-starostlivost-mudr-angelika-goghova-medchir-sro,47.9142473,18.0038702,t,
Gynekologicko-pôrodnícka ambulancia,MUDr. Tibor Nagy,Nemesszegská  6331/5,Dunajská Streda,92901,SK,03769329855812,info@zzz.sk,https://www.zzz.sk/zariadenie/12800-12800-gynekologicko-porodnicka-ambulancia-gretina-sro-mudr-tibor-nagy,47.9919753,17.6151843,t,
NZZ Gynekologická ambulancia,MUDr. Vladimír Igaz,Kamenecká č. 2,Streda nad Bodrogom,07631,SK,+421566373334,mudr.igaz@.post.sk,https://www.zzz.sk/zariadenie/3453-3453-nzz-gynekologicka-ambulancia-mudr-vladimir-igaz,48.3787007,21.7625165,t,
Gynekologicko-pôrodnícka ambulancia,MUDr. Božena Paldiová,Bazovského  2,Okres Bratislava,84104,SK,+421264462791,gynekologia-dubravka.sk,https://www.zzz.sk/zariadenie/9318-9318-gynekologicko-porodnicka-ambulancia-ivf-europe-sro-mudr-bozena-paldiova,48.1828477,17.0432622,t,
Gynekologická ambulancia (FEMINA,MUDr. Sebő Zsolt,Eötvösova  37,Komárno,94501,SK,+421917480629,femina.ambulancia@gmail.com,https://www.zzz.sk/zariadenie/22630-22630-gynekologicka-ambulancia-femina-v-spol-s-ro-mudr-sebo-zsolt,47.7617784,18.1176181,t,
Gynekologicko,MUDr. Vladimír Klacik,J. Hollého 180/60,Michalovce,07101,SK,+421566442243,info@zzz.sk,https://www.zzz.sk/zariadenie/7650-7650-gynekologicko-porodnicka-ambulancia-mudr-vladimir-klacik,48.7504190,21.9261865,t,
Ambulancia gynekológia a pôrodníctvo,MUDr. Ján VYŠŇOVSKÝ,1. mája,Humenné,06601,SK,+421911272030,humenlek@gmail.com,https://www.zzz.sk/zariadenie/1406-1406-ambulancia-gynekologia-a-porodnictvo-humenlek-sro-mudr-jan-vysnovsky,48.9330836,21.8996602,t,
Gynekologicko-pôrodnícka ambulancia,MUDr. Miroslava Zahradníková,Majerníkova 9,Okres Bratislava,84105,SK,+421265426730,info@zzz.sk,https://www.zzz.sk/zariadenie/10823-10823-gynekologicko-porodnicka-ambulancia-hortulanus-sro-mudr-miroslava-zahradnikova,48.1516559,17.0477315,t,
Gynekologická ambulancia,MUDr. Jádyová Tamara,Brnenské námestie  4,Kolárovo,94603,SK,+421357772690,info@zzz.sk,https://www.zzz.sk/zariadenie/22591-22591-gynekologicka-ambulancia-mudr-jadyova-tamara-javita-sro,47.9183907,17.9968472,t,
"CARE, s.r.o. gynekologická ambulancia",MUDr. Ľudovít Janek,Obv ZS,Rohovce,93030,SK,+421315624291,janekad@stonline.sk,https://www.zzz.sk/zariadenie/974-974-care-sro-gynekologicka-ambulancia-mudr-ludovit-janek,47.9917100,17.4025321,t,
Gynekologicko,MUDr. Anna Vilčinská,Nová Doba,743 Nižná Kaloša,497 02,SK,+421905240734,info@zzz.sk,https://www.zzz.sk/zariadenie/11980-11980-gynekologicko-porodnicka-ambulancia-mudr-anna-vilcinska,,,t,
Gynekologicko-pôrodnícka ambulancia SaluD s.r.o.,MUDr. Pavol Durdík,Kpt. Nálepku 11,Nové Mesto nad Váhom,91501,SK,+421327740444,durdikp@salud.sk,https://www.zzz.sk/zariadenie/10553-10553-gynekologicko-porodnicka-ambulancia-salud-sro-mudr-pavol-durdik,48.7510849,17.8298201,t,
Gynekologicko-pôrodnícka ambulancia,MUDr. Pavol Kopka,Hlavná  35,Vráble,95201,SK,03769329855812,info@zzz.sk,https://www.zzz.sk/zariadenie/21050-21050-gynekologicko-porodnicka-ambulancia-mudr-pavol-kopka-kengimed-sro,48.2431395,18.3040840,t,
Gynekologicko-pôrodnícka ambulancia,MUDr. Peter Trajanov,Nemocničná  670/1,Šaľa,92701,SK,03769329855812,info@zzz.sk,https://www.zzz.sk/zariadenie/21525-21525-gynekologicko-porodnicka-ambulancia-mudr-peter-trajanov-u-starostliveho-medvedika-sro,48.1516394,17.8715319,t,
Gynekologická ambulancia,MUDr. Ľudovít Gonda,Svätotrojičné námestie 1,Krupina,963 01,SK,+421455522249,info@zzz.sk,https://www.zzz.sk/zariadenie/22974-22974-gynekologicka-ambulancia-mudr-ludovit-gonda,48.3536269,19.0666491,t,
Gynekologická ambulancia,MUDr. Ján Masaryk,Vajnorská 40,Nové Mesto,83263,SK,+421249202514,info@zzz.sk,https://www.zzz.sk/zariadenie/427-427-gynekologicka-ambulancia-mudr-jan-masaryk,48.1626859,17.1327675,t,
Gynekologická ambulancia,MUDr. Rudolf Halák,Banícka štvrť 1,Krompachy,05342,SK,+421269643920,info@zzz.sk,https://www.zzz.sk/zariadenie/10217-10217-gynekologicka-ambulancia-mudr-rudolf-halak,,,t,
Gynekologicko-pôrodnícka ambulancia,MUDr. Jozef Kmeť,Obvodné zdravotné stredisko Michal na Ostrove,Michal na Ostrove,93035,SK,03769329855812,info@zzz.sk,https://www.zzz.sk/zariadenie/12616-12616-gynekologicko-porodnicka-ambulancia-mudr-jozef-kmet,48.0242762,17.5127184,t,
NZZ,MUDr. Marcel Vyšný,Partizánska 4,Bardejov,08501,SK,+421544725253,mvysny@azet.sk,https://www.zzz.sk/zariadenie/2224-2224-nzz-gynekologicka-ambulancia-mudr-marcel-vysny,49.2922002,21.2630246,t,
Gynekologická ambulancia,MUDr. Nadežda Maličkayová,Staré grunty 56,Karlova Ves,84104,SK,+421232313020,recepcia@klinikamd.sk,https://www.zzz.sk/zariadenie/7963-7963-gynekologicka-ambulancia-mudr-nadezda-malickayova,48.1584692,17.0679169,t,
Gynekologická ambulancia,MUDr. Eva Bystrická,Gorkého 1,Staré Mesto,81101,SK,+421254435068,info@zzz.sk,https://www.zzz.sk/zariadenie/7506-7506-gynekologicka-ambulancia-mudr-eva-bystricka-ambulancia-zrusena,48.1425243,17.1096491,t,
ONKOGYN BOX s.r.o.,MUDr. Eugénia Pankuchová,Masarykova 26,Prešov,08001,SK,+421517734080,info@zzz.sk,https://www.zzz.sk/zariadenie/8128-8128-onkogyn-box-sro-mudr-eugenia-pankuchova,48.9849037,21.2499818,t,
Pracovisko jednodňovej zdravotnej starostlivosti v odbore gynekológia a pôrodníctvo Bratislava,,Šancová,104 Okres Bratislava,110 83,SK,03769329855812,info@zzz.sk,https://www.zzz.sk/zariadenie/23951-23951-pracovisko-jednodnovej-zdravotnej-starostlivosti-v-odbore-gynekologia-a-porodnictvo-bratislava,48.1579151,17.1249133,t,
Gynekologická príjmová ambulancia,MUDr. J. Nemeček,Hviezdoslavova 23/3,Bánovce nad Bebravou,95701,SK,+421387624209,info@zzz.sk,https://www.zzz.sk/zariadenie/937-937-gynekologicka-prijmova-ambulancia-mudr-j-nemecek,48.7202290,18.2581671,t,
Gynekologicko-pôrodnícka ambulancia,MUDr. Stanislav Gilan,Štefánikova trieda 57,Nitra nad Ipľom,94901,SK,03769329855812,info@zzz.sk,https://www.zzz.sk/zariadenie/12627-12627-gynekologicko-porodnicka-ambulancia-sono-horma-gynekologicke-centrum-sro-mudr-stanislav-gilan,48.3020713,18.0828863,t,
Ultrazvuková ambulancia,MUDr. Stanislav Kutlák,Heydukova 10,Staré Mesto,81108,SK,+421232249111,info@zzz.sk,https://www.zzz.sk/zariadenie/1134-1134-ultrazvukova-ambulancia-iii-gynekologicko-porodnicka-klinika-lfuk-mudr-stanislav-kutlak,48.1472512,17.1132999,t,
Gynekologické USG,MUDr. Petrová,Ružinovská 6,Ružinov,82606,SK,769,info@zzz.sk,https://www.zzz.sk/zariadenie/218-218-gynekologicke-usg-mudr-petrova,48.1552301,17.1519477,t,
Gynekologická ambulancia,MUDr. Mikuláš Bujňák,Maršala Koneva 1,Dargovských Hrdinov,04001,SK,+421556714090,info@zzz.sk,https://www.zzz.sk/zariadenie/10789-10789-gynekologicka-ambulancia-mudr-mikulas-bujnak,48.7395044,21.2823085,t,
Gynekologická ambulancia,MUDr.Šťastný Peter  (GYNOCARE s.r.o.),Staromyjavská 59,Myjava,90701,SK,+421346979167,peter.stastny@pobox.sk,https://www.zzz.sk/zariadenie/20660-20660-gynekologicko-porodnicka-ambulancia-gynocare-sromudr-peter-stastny,48.6873413,17.3781804,t,
"Gynekologická ambulancia, MUDr. Soňa Horváthová, (Gyn","MUDr. Soňa Horváthová, (Gyn - Sen s.r.o.)",Viničná  2,Bernolákovo,90027,SK,+421240200641,info@zzz.sk,https://www.zzz.sk/zariadenie/23734-23734-gynekologicka-ambulancia-mudr-sona-horvathova-gyn-sen-sro,48.1985949,17.3014782,t,
"Gynekologická ambulancia (GYN BIELIK, s.r.o.)",MUDr. Peter Bielik,Spojová 25,Banská Bystrica,974 04,SK,+421940115832,gyn.bielik@gmail.com,https://www.zzz.sk/zariadenie/22763-22763-gynekologicka-ambulancia-gyn-bielik-sro-mudr-peter-bielik-phd,48.7330768,19.1220309,t,
"Gynekologická ambulancia, MUDr. Ondrej Šefara, (GYPOS, s. r. o.)",MUDr. Ondrej Šefara,Ľ. Štúra  6,Beluša,01861,SK,+421424624392,info@zzz.sk,https://www.zzz.sk/zariadenie/23502-23502-gynekologicka-ambulancia-mudr-ondrej-sefara-gypos-s-r-o,49.0629576,18.3282930,t,
Gynekologicko,MUDr. Válečková,Jánošíkovo nábrežie  2/1,101 Liptovský Mikuláš,212 03,SK,+421905220845,info@zzz.sk,https://www.zzz.sk/zariadenie/11942-11942-gynekologicko-porodnicka-ambulancia-gynval-mudr-valeckova-s-r-o-mudr-maria-valeckova,49.0890337,19.6028900,t,
Zariadenie spoločných vyšetrovacích a liečebných zložiek,MUDr. Alojz Štrbo,Športová  12,Trnava,91701,SK,03769329855812,info@zzz.sk,https://www.zzz.sk/zariadenie/21994-21994-zariadenie-spolocnych-vysetrovacich-a-liecebnych-zloziek-gyn-group-sro-mudr-alojz-strbo,48.3727376,17.5908876,t,
Gynekologicko,MUDr. Károly Foldes,obvodné zdravotné stredisko Dolný štál,Dolný Štál,93010,SK,03769329855812,info@zzz.sk,https://www.zzz.sk/zariadenie/12859-12859-gynekologicko-porodnicka-ambulancia-afk-sro-mudr-karoly-foldes,47.9367102,17.7172103,t,
Gynekologicko-pôrodnícka ambulancia,MUDr. Ľubica Bognárová,nan nan Topoľčany,,,SK,03769329855812,info@zzz.sk,https://www.zzz.sk/zariadenie/21435-21435-gynekologicko-porodnicka-ambulancia-mudr-lubica-bognarova,,,t,
Gynekologicko-pôrodnícka ambulancia,MUDr. Chochláč Juraj,Kostolná  14,Pohronský Ruskov,93562,SK,03769329855812,info@zzz.sk,https://www.zzz.sk/zariadenie/22372-22372-gynekologicko-porodnicka-ambulancia-mudr-chochlac-juraj-chochlac-sro,47.9778849,18.6558414,t,
Gynekologicko-pôrodnícka ambulancia,MUDr. Klimeková Lucia,Bernolákova  24,Zlaté Moravce,95301,SK,03769329855812,info@zzz.sk,https://www.zzz.sk/zariadenie/21229-21229-gynekologicko-porodnicka-ambulancia-mudr-klimekova-lucia,48.3848269,18.3994418,t,
"Gynekologická ambulancia, Humenné, (GYN-M.M. spol. s r.o.)",,Komenského   6206/7,Humenné,06601,SK,+421948071633,info@zzz.sk,https://www.zzz.sk/zariadenie/23607-23607-gynekologicka-ambulancia-humenne-gyn-mm-spol-s-ro,48.9326707,21.8928178,t,
Gynekologicko-pôrodnícka ambulancia,MUDr. Ľuboš Varga,Nitrianska  5,Piešťany,92101,SK,03769329855812,info@zzz.sk,https://www.zzz.sk/zariadenie/20724-20724-gynekologicko-porodnicka-ambulancia-mudr-lubos-varga,48.5885545,17.8338364,t,
Ambulancia pre choroby prsníkov,Doc. MUDr. Pavol Bazovský,Limbova 5,Nové Mesto,83305,SK,+421259542424,info@zzz.sk,https://www.zzz.sk/zariadenie/3587-3587-ambulancia-pre-choroby-prsnikov-doc-mudr-pavol-bazovsky-csc,48.1673919,17.0878109,t,
"Onkogynekologická ambulancia, prof. MUDr. Jozef Višňovský, CSc.(Univerzitná nemocnica Martin)",MUDr. Jozef Višňovský,Kollárova  2,Martin,03659,SK,+421434203591,info@zzz.sk,https://www.zzz.sk/zariadenie/23693-23693-onkogynekologicka-ambulancia-prof-mudr-jozef-visnovsky-cscuniverzitna-nemocnica-martin,49.0604008,18.9194998,t,
"Gynekologická ambulancia, MUDr. Helena Múdra, (wesper, a.s.)",MUDr. Helena Múdra,Jurkovičova  19,Prešov,08001,SK,+421517563541,info@zzz.sk,https://www.zzz.sk/zariadenie/23878-23878-gynekologicka-ambulancia-mudr-helena-mudra-wesper-as,48.9941174,21.2669388,t,
Gynekologická ambulancia,MUDr. Marcela Šoltýsová,ul. Mieru 3,Sobrance,07301,SK,+421566521065,info@zzz.sk,https://www.zzz.sk/zariadenie/8794-8794-gynekologicka-ambulancia-mudr-marcela-soltysova,48.7437843,22.1864710,t,
Gynekologická a ultrazvuková ambulancia,MUDr. Karol Balko,Rúbanisko 2,Lučenec,98403,SK,+421474334810,l.gombalova@zoznam.sk,https://www.zzz.sk/zariadenie/2814-2814-gynekologicka-a-ultrazvukova-ambulancia-re-gyn-a-sro-mudr-karol-balko,48.3362070,19.6451538,t,
Gynekologická ambulancia,MUDr. Dagmar Gavorníková,Jelačičova 7,Ružinov,82108,SK,+421850888999,info@zzz.sk,https://www.zzz.sk/zariadenie/7122-7122-gynekologicka-ambulancia-mudr-dagmar-gavornikova,48.1547685,17.1277368,t,
Gynekologicko-pôrodnícka ambulancia,MUDr. Košecká Ľudmila,Mudroňova  2,Topoľčany,95501,SK,03769329855812,info@zzz.sk,https://www.zzz.sk/zariadenie/21480-21480-gynekologicko-porodnicka-ambulancia-mudr-kosecka-ludmila-diagyn-siles-sro,48.5614719,18.1716087,t,
Centrum prenatálnej diagnostiky,MUDr. Muránska Stela,Masarykova 17/A,Staré Mesto,04001,SK,+421556221007,info@muranska.sk,https://www.zzz.sk/zariadenie/2235-2235-centrum-prenatalnej-diagnostiky-ultrazvukova-ambulancia-mudr-muranska-stela,48.7283139,21.2602359,t,
Ambulancia pre choroby mliečnej žľazy,MUDr. Alojz Bolgáč,29.augusta 23,Krupina,96301,SK,03769329855812,info@zzz.sk,https://www.zzz.sk/zariadenie/918-918-ambulancia-pre-choroby-mliecnej-zlazy-mudr-alojz-bolgac,48.3533138,19.0639849,t,
Gynekologická ambulancia,MUDr. Jozef Pecina,Pod Lachovcom  1727/55,Púchov,02001,SK,+421424642811,info@zzz.sk,https://www.zzz.sk/zariadenie/11364-11364-gynekologicka-ambulancia-mudr-jozef-pecina,49.1288571,18.3216772,t,
"Gynekologická ambulancia, MAMO-GYN, s.r.o.",MUDr. Jaroslav Šorf,Tehelná 26,Nové Mesto,83103,SK,+421244454912,sorfgyn@gmail.com,https://www.zzz.sk/zariadenie/5741-5741-gynekologicka-ambulancia-mamo-gyn-sro-mudr-jaroslav-sorf,48.1648534,17.1285467,t,
Gynekologická ambulancia,MUDr. Viera Cserhalmiová,M. R. Štefánika 3560/52A,Trebišov,07501,SK,+421566686700,info@zzz.sk,https://www.zzz.sk/zariadenie/10756-10756-gynekologicka-ambulancia-mudr-viera-cserhalmiova,48.6266915,21.7194600,t,
"Gynekologicko-pôrodnícka ambulancia /Gynekológia Paučinová, s.r.o.,",,Belanského  1,401 Kysucké Nové Mesto,346 02,SK,+421414207323,info@zzz.sk,https://www.zzz.sk/zariadenie/11341-11341-gynekologicko-porodnicka-ambulancia-gynekologia-paucinova-sro,49.3018671,18.7859228,t,
Gynekologicko-pôrodnícka ambulancia NZZ,"MUDr.Halko, s. r. o.",Jánošíkovo nábrežie,Liptovský Mikuláš,03101,SK,+421903349447,info@zzz.sk,https://www.zzz.sk/zariadenie/10732-10732-gynekologicko-porodnicka-ambulancia-nzz-gynob-mudrhalko-s-r-o,49.0890337,19.6028900,t,
Gynekologicko-pôrodnícka ambulancia,MUDr. Peter Kosler,Zdravotné stredisko,Veľké Úľany,92522,SK,03769329855812,info@zzz.sk,https://www.zzz.sk/zariadenie/20398-20398-gynekologicko-porodnicka-ambulancia-mudr-peter-kosler,48.1668684,17.5748244,t,
Gynekologická ambulancia,MUDr. Ján Cifrák,Masarykova 9,Okres Košice,040 01,SK,+421552295874,cifrak@zzke.sk,https://www.zzz.sk/zariadenie/22959-22959-gynekologicka-ambulancia-mudr-jan-cifrak,48.7280422,21.2591136,t,
Gynekologická ambulancia,MUDr. Holomáň,Ružinovská 6,Ružinov,82606,SK,+421248234111,info@zzz.sk,https://www.zzz.sk/zariadenie/1709-1709-gynekologicka-ambulancia-mudr-holoman,48.1552301,17.1519477,t,
Gynekologická ambulancia,MUDr. Gabriela Bartošková,Kolónia 546/ 5,Senica,905 01,SK,03769329855812,info@zzz.sk,https://www.zzz.sk/zariadenie/22967-22967-gynekologicka-ambulancia-mudr-gabriela-bartoskova,48.6853346,17.3618080,t,
Gynekologicko-pôrodnícka ambulancia,MUDr. Peter Princzkel,ZS Osloboditeľov  16,Tekovské Lužany,93541,SK,03769329855812,info@zzz.sk,https://www.zzz.sk/zariadenie/22130-22130-gynekologicko-porodnicka-ambulancia-mudr-peter-princzkelprinczkel-sro,48.1002065,18.5421905,t,
Gynekologicko-pôrodnícka ambulancia,MUDr. Zuzana Krúžová,SNP  19,Levice,93401,SK,03769329855812,info@zzz.sk,https://www.zzz.sk/zariadenie/22215-22215-gynekologicko-porodnicka-ambulancia-mudr-zuzana-kruzova,48.2229859,18.6145209,t,
Gynekologicko-pôrodnícka ambulancia,MUDr. Beáta Mikesková,Moyzesova  7,Topoľčany,95501,SK,03769329855812,info@zzz.sk,https://www.zzz.sk/zariadenie/21487-21487-gynekologicko-porodnicka-ambulancia-mudr-beata-mikeskova-beagyn-sro,48.5607695,18.1686729,t,
Gynekologigko,MUDr. Jana Bezáková,Nábrežná ul.  1,Levice,93401,SK,03769329855812,info@zzz.sk,https://www.zzz.sk/zariadenie/22083-22083-gynekologigko-porodnicka-ambulancia-mudr-jana-bezakova-sanat-spol-sro-zariadenie-na-poskytovanie-jednodnovej-zdravotnej-starostlivosti,48.2099491,18.6034594,t,
Gynekologicko-pôrodnícka ambulancia,MUDr. Vladimír Bátovský,"Mestská nemocnica prof. MUDr. Rudolfa Korca , DrSc , Bernolákova  4",Zlaté Moravce,95301,SK,03769329855812,info@zzz.sk,https://www.zzz.sk/zariadenie/21206-21206-gynekologicko-porodnicka-ambulancia-mudr-vladimir-batovsky-vox-lauri-sro,48.3832027,18.3978708,t,
Gynekologicko-pôrodnícka ambulancia,MUDr. Gabriel Bende,Školská  1,Šahy,93601,SK,03769329855812,info@zzz.sk,https://www.zzz.sk/zariadenie/22335-22335-gynekologicko-porodnicka-ambulancia-mudr-gabriel-bende-endoservice-mac-sro,48.0702917,18.9496807,t,
Gynekologicko-pôrodnícka ambulancia GYN,MUDr. Miroslav Korbeľ,Budmerice 42,Budmerice,90286,SK,+421336448449,gyn-media@szm.sk,https://www.zzz.sk/zariadenie/10409-10409-gynekologicko-porodnicka-ambulancia-gyn-media-plus-sro-mudr-miroslav-korbel-csc,,,t,
Gynekologická ambulancia a ambulancia gynekologickej urogynekológie,MUDr. Peter Brenišin,Francisciho 4977/22,Poprad,05801,SK,+421527781956,p.brenisin@centrum.sk,https://www.zzz.sk/zariadenie/5928-5928-gynekologicka-ambulancia-a-ambulancia-gynekologickej-urogynekologie-brencare-mudr-peter-brenisin,49.0531900,20.3002960,t,
Gynekologická ambulancia,MUDr. Roman Lajš,Komenského 37/A,Sever,04001,SK,+421905563833,info@zzz.sk,https://www.zzz.sk/zariadenie/9720-9720-gynekologicka-ambulancia-mudr-roman-lajs-phd,48.7370832,21.2458847,t,
Gynekologicko,MUDr. Juraj Puha,Hlavná  58A,Dunajská Streda,92901,SK,+421911265552,info@zzz.sk,https://www.zzz.sk/zariadenie/12828-12828-gynekologicko-porodnicka-ambulancia-cyrma-sro-mudr-juraj-puha,47.9892839,17.6280487,t,
Gynekologicko-pôrodnícka ambulancia,MUDr. Ľudmila Košecká,"Poliklinika , 17. novembra  1",501 Topoľčany,300 95,SK,03769329855812,info@zzz.sk,https://www.zzz.sk/zariadenie/21328-21328-gynekologicko-porodnicka-ambulancia-mudr-ludmila-kosecka-pro-femme-sro,48.5610968,18.1707168,t,
"Gynekologická ambulancia, MUDr. Július Štefanovič, Pezinok, (Psychiatrická nemocnica Philippa Pinela)",MUDr. Július Štefanovič,Malacká cesta  63,Pezinok,90218,SK,+421336482143,info@zzz.sk,https://www.zzz.sk/zariadenie/23344-23344-gynekologicka-ambulancia-mudr-julius-stefanovic-pezinok-psychiatricka-nemocnica-philippa-pinela,48.3164951,17.2555939,t,
"Gynekologicko-pôrodnícka ambulancia -VK Gynam, s.r.o.",MUDr. Viktor Kunský,Hviezdoslavova 1,Nitra nad Ipľom,94911,SK,03769329855812,info@zzz.sk,https://www.zzz.sk/zariadenie/12531-12531-gynekologicko-porodnicka-ambulancia-vk-gynam-sro-mudr-viktor-kunsky,48.3030043,18.0656102,t,
Gynekologická amulancia,MUDr. Tibor Ševčík,Belanského,401 Kysucké Nové Mesto,773 02,SK,+421414207328,tibor.sevcik@lightnet.sk,https://www.zzz.sk/zariadenie/5724-5724-gynekologicka-amulancia-mudr-tibor-sevcik,49.3018671,18.7859228,t,
Gynekologicko-pôrodnícka ambulancia,MUDr. Eva Pelachová,Nemocničná  1944/10,Dolný Kubín,02601,SK,+421435801525,info@zzz.sk,https://www.zzz.sk/zariadenie/11368-11368-gynekologicko-porodnicka-ambulancia-mudr-eva-pelachova,49.2132374,19.3037637,t,
Gynekologicko-pôrodnícka ambulancia,MUDr. Bibiána Halmešová,Kapisztóryho 5,Nové Zámky,94001,SK,+421917778999,bibianahalmesova@zoznam.sk,https://www.zzz.sk/zariadenie/5912-5912-gynekologicko-porodnicka-ambulancia-mudr-bibiana-halmesova-bh-gyn-sro,47.9870431,18.1728448,t,
Gynekologická ambulancia,MUDr. Margita Kopjáková,Komárňanská,701 Hurbanovo,104 94,SK,03769329855812,info@zzz.sk,https://www.zzz.sk/zariadenie/22590-22590-gynekologicka-ambulancia-mudr-margita-kopjakova-kajano-gyn-sro,47.8718945,18.1913376,t,
Gynamb. C.T.s.r.o.,MUDr. Tatiana Cepková,Komenského,801 Medzilaborce,134 06,SK,+421577322006,info@zzz.sk,https://www.zzz.sk/zariadenie/3447-3447-gynamb-ctsro-gynekologicka-ambulancia-mudr-tatiana-cepkova,49.2711944,21.9031940,t,
Gynekologicko-pôrodnícka ambulancia,MUDr. Karol Pálfy,Lipový rad,Okoč,93028,SK,03769329855812,info@zzz.sk,https://www.zzz.sk/zariadenie/12461-12461-gynekologicko-porodnicka-ambulancia-p-gyn-sro-mudr-karol-palfy,47.8928591,17.8077918,t,
"Ambulancia gynekológie, fyziatrie, balneológie a liečebnej rehabilitácie",,Šafárikova  65,Senec,90301,SK,+421245924443,info@zzz.sk,https://www.zzz.sk/zariadenie/11954-11954-ambulancia-gynekologie-fyziatrie-balneologie-a-liecebnej-rehabilitacie-gyn-reh-sro,48.2208721,17.3953055,t,
Gynekologická ambulancia,MUDr. Peter Slezák,Krajinská 91 825 5 Podunajské Biskupice (Bratislava),,,SK,+421918379730,info@zzz.sk,https://www.zzz.sk/zariadenie/78-78-gynekologicka-ambulancia-mudr-peter-slezak,48.1250130,17.2080807,t,
Gynekologicko-pôrodnícka ambulancia,MUDr. Miroslav Krjak,ObZS,Nitra,95117,SK,03769329855812,info@zzz.sk,https://www.zzz.sk/zariadenie/21159-21159-gynekologicko-porodnicka-ambulancia-mudr-miroslav-krjak-phd-colpex-sro,48.2433994,18.0171977,t,
"ERF, s.r.o","MUDr, Elena Šuňalová MPH",SNP 1198/32,Dolný Kubín,02601,SK,+421917851892,sunalova@orangemail.sk,https://www.zzz.sk/zariadenie/2150-2150-erf-sro-mudr-elena-sunalova-mph,49.2111232,19.2857146,t,
"Gynekologická ambulancia, MUDr. Richard Kočkovský, (KORIGYN s. r. o.)",MUDr. Richard Kočkovský,Zlatovská  2,105 Trenčín,210 91,SK,+421326581616,korigyn@centrum.sk,https://www.zzz.sk/zariadenie/23509-23509-gynekologicka-ambulancia-mudr-richard-kockovsky-korigyn-s-r-o,48.8936800,18.0184052,t,
Gynekologická ambulancia,MUDr. Adriana Humeňanská,Široké,237 Široké,353 08,SK,+421915497992,info@zzz.sk,https://www.zzz.sk/zariadenie/7428-7428-gynekologicka-ambulancia-mudr-adriana-humenanska-gynkohum-sro,48.9987161,20.9433320,t,
Ambulancia klinickej onkológie BREZNO,,Banisko 1,Brezno,97701,SK,+421482820140,info@zzz.sk,https://www.zzz.sk/zariadenie/4542-4542-onkogynekologicka-ambulancia-mudr-dagmar-kersakova,48.8093579,19.6256257,t,
Neštátna gynekologická ambulancia,MUDr. Eduard Duda,Ružinovská 10,Ružinov,82007,SK,+421248279476,info@zzz.sk,https://www.zzz.sk/zariadenie/3832-3832-nestatna-gynekologicka-ambulancia-mudr-eduard-duda,48.1586211,17.1789093,t,
Gynekologická ambulancia,MUDr. Adriana Ivančová,"Mierová 84,",Strážske 07222 Strážske,072 22,SK,03769329855812,info@zzz.sk,https://www.zzz.sk/zariadenie/10000-10000-gynekologicka-ambulancia-mudr-adriana-ivancova,,,t,
Gynekologicko-pôrodnícka ambulancia,MUDr. Juraj Puha,"Zdravotné stredisko,Trstice",545 Trstice,318 92,SK,03769329855812,info@zzz.sk,https://www.zzz.sk/zariadenie/20510-20510-gynekologicko-porodnicka-ambulancia-cyrma-sro-mudr-juraj-puha,48.0169535,17.8057116,t,
Koliziárna gynekologická ambulancia,MUDr. Michal Skreptáč,MUDr. Pribulu 412/4,Svidník,08901,SK,+421547860111,info@zzz.sk,https://www.zzz.sk/zariadenie/4675-4675-koliziarna-gynekologicka-ambulancia-mudr-michal-skreptac,49.3106085,21.5707150,t,
"Gynekologicko-pôrodnícka ambulancia -	MUDr. Ján Ulrich, Gynekológ No1, s.r.o.",MUDr. Ján Ulrich,Jesenského  85,Štúrovo,94301,SK,03769329855812,info@zzz.sk,https://www.zzz.sk/zariadenie/21913-21913-gynekologicko-porodnicka-ambulancia-mudr-jan-ulrich-gynekolog-no1-sro,47.7887244,18.7154346,t,
"Gynekologická ambulancia, GYNARIN s.r.o MUDr.Patrik Horváth",MUDr.Patrik Horváth,Biskupická 32,Fiľakovo,98601,SK,+421474382722,mudrhorvath@gmail.com,https://www.zzz.sk/zariadenie/4294-4294-gynekologicka-ambulancia-gynarin-sro-mudrpatrik-horvath,48.2644654,19.8242333,t,
Gynekologicko-pôrodnícka ambulancia,MUDr.,Krátka 241/6,Partizánske,95801,SK,+421387493127,info@zzz.sk,https://www.zzz.sk/zariadenie/10988-10988-gynekologicko-porodnicka-ambulancia-benuska-julius-mudr,48.6265366,18.3769559,t,
Gynekologicko-pôrodnícka ambulancia,MUDr. Miloslav Hajdušek,Andovská 9/D,Nové Zámky,94053,SK,+421356430646,hajdusek.m@stonline.sk,https://www.zzz.sk/zariadenie/2434-2434-gynekologicko-porodnicka-ambulancia-mudr-miloslav-hajdusek-jomimedsro,47.9832299,18.1434021,t,
Gynekologická ambulancia,MUDr. Vladimír Ďuračka,Ružinovská 12,Ružinov,82101,SK,+421248234762,info@zzz.sk,https://www.zzz.sk/zariadenie/7779-7779-gynekologicka-ambulancia-mudr-vladimir-duracka,48.1551859,17.1549375,t,
Detská gynekologická ambulancia,MUDr. Ľubica Olajcová,Kuzmányho nábrežie 28,Zvolen,960 01,SK,+421455201651,info@zzz.sk,https://www.zzz.sk/zariadenie/22963-22963-detska-gynekologicka-ambulancia-mudr-lubica-olajcova,48.5796948,19.1318102,t,
Gynekologicko-pôrodnícka ambulancia,MUDr. Mančík Gabriel,Námestie hrdinov  7-8,Levice,93401,SK,03769329855812,info@zzz.sk,https://www.zzz.sk/zariadenie/22104-22104-gynekologicko-porodnicka-ambulancia-mudr-mancik-gabriel-vital-sro,,,t,
"Gynekologická ambulancia, MUDr. Erika Mináriková, (GYNSON, s.r.o.)",MUDr. Erika Mináriková,Haburská  9,Prešov,08006,SK,+421517765505,gynson@gynson.sk,https://www.zzz.sk/zariadenie/23614-23614-gynekologicka-ambulancia-mudr-erika-minarikova-gynson-sro,49.0185593,21.2791153,t,
Gynekologická ambulancia,MUDr. Igor Olšavský,"Špitálska 1,",Rožňava 04943 Jablonov nad Turňou,048 01,SK,+421587329668,info@zzz.sk,https://www.zzz.sk/zariadenie/9435-9435-gynekologicka-ambulancia-mudr-igor-olsavsky,,,t,
Gynekologická ambulancia,MUDr. Silvia Rejtová.,Mieru 12,Sobrance,07301,SK,+421566524576,info@zzz.sk,https://www.zzz.sk/zariadenie/9114-9114-gynekologicka-ambulancia-mudr-silvia-rejtova-regyne-sro,48.7452812,22.1865624,t,
Gynekologicko-pôrodnícka ambulancia,MUDr. Svetlana Móriová,Červeného kríža  62/30,Námestovo,02901,SK,+421435503246,moriovasvetlana@orava.sk,https://www.zzz.sk/zariadenie/12338-12338-gynekologicko-porodnicka-ambulancia-mudr-svetlana-moriova-gyn-orl-s-r-o,49.4056805,19.4763709,t,
Gynekologicko,MUDr. Főldes Károly,Veľkoblahovská 23,Dunajská Streda,92901,SK,+421315571200,drfoldes@freemail.hu,https://www.zzz.sk/zariadenie/1419-1419-gynekologicko-porodnicka-ambulancia-afk-sro-mudr-foldes-karoly,48.0009648,17.6046308,t,
Gynekologicko-pôrodnícka ambulancia,MUDr. Beáta Nichtová,SNP  19,Levice,93401,SK,03769329855812,info@zzz.sk,https://www.zzz.sk/zariadenie/22195-22195-gynekologicko-porodnicka-ambulancia-mudr-beata-nichtova,48.2229859,18.6145209,t,
"Gynekologická ambulancia  ZDRAVSTAR,s.r.o.",MUDr. Ján Hruška,M. Madačova 5,Ružomberok,03401,SK,+421444322545,info@zzz.sk,https://www.zzz.sk/zariadenie/3003-3003-gynekologicka-ambulancia-zdravstarsro-mudr-jan-hruska,49.0826693,19.2992726,t,
Gynekologicko-pôrodnícka ambulancia,MUDr. Žák Pavel,ZS,Bátorove Kosihy,94634,SK,03769329855812,info@zzz.sk,https://www.zzz.sk/zariadenie/22414-22414-gynekologicko-porodnicka-ambulancia-mudr-zak-pavel-via-fem-sro,47.8304839,18.4118276,t,
Gynekologická ambulancia,MUDr. Iveta Trnovská,Hodžova  1,Martin,03601,SK,+421433810037,info@zzz.sk,https://www.zzz.sk/zariadenie/11902-11902-gynekologicka-ambulancia-it-gynekologia-sro-mudr-iveta-trnovska,49.0868786,18.9353465,t,
Gynekologická ambulancia,MUDr. Anna Attila,Špitálska 1,Rožňava,04801,SK,+421587324750,info@zzz.sk,https://www.zzz.sk/zariadenie/7001-7001-gynekologicka-ambulancia-mudr-anna-attila,48.6651017,20.5339033,t,
Gynekologická ambulancia,MUDr. František Hvizdák,Námestie SNP 10,Staré Mesto,811 06,SK,+421257887222,info@zzz.sk,https://www.zzz.sk/zariadenie/42-42-gynekologicka-ambulancia-mudr-frantisek-hvizdak-phd,48.1456956,17.1107540,t,
Gynekologicko-pôrodnícka ambulancia,MUDr. Eduard Čupka,Mlynská  10,Piešťany,92101,SK,03769329855812,info@zzz.sk,https://www.zzz.sk/zariadenie/20778-20778-gynekologicko-porodnicka-ambulancia-mudr-eduard-cupka,48.5897611,17.8168164,t,
Gynekologická ambulancia,MUDr. Pavol Kuchta,"Námestie osloboditeľov 25,",Michalovce 07301 Sobrance,071 01,SK,03769329855812,info@zzz.sk,https://www.zzz.sk/zariadenie/9754-9754-gynekologicka-ambulancia-mudr-pavol-kuchta-mph,,,t,
Neštátna gynekologická ambulancia,MUDr. Alžbeta Zadjorová,Horná 60,Banská Bystrica,97517,SK,03769329855812,info@zzz.sk,https://www.zzz.sk/zariadenie/5034-5034-nestatna-gynekologicka-ambulancia-mudr-alzbeta-zadjorova,48.7388842,19.1546179,t,
Gynekologická ambulancia,MUDr. Ľubomíra Halmová,Rozmarínová  3,Komárno,94501,SK,+421902366210,lubahalmova@mail.t-com.sk,https://www.zzz.sk/zariadenie/22598-22598-gynekologicka-ambulancia-mudr-lubomira-halmova-halgyn-sro,47.7614803,18.1194923,t,
"Gynekologická ambulancia, MUDr. Roman Ďurček, (DUO-GYN, s.r.o.)",MUDr. Roman Ďurček,Sidónie Sakalovej  161/16,Bytča,01401,SK,+421415091827,info@zzz.sk,https://www.zzz.sk/zariadenie/23520-23520-gynekologicka-ambulancia-mudr-roman-durcek-duo-gyn-sro,49.2200284,18.5608163,t,
Gynekológ,MUDr. Richard Molokáč,Národná trieda 27,Sever,04001,SK,+421940985987,info@zzz.sk,https://www.zzz.sk/zariadenie/24234-24234-gynekolog-gynekologia-mudr-richard-molokac,,,t,
Gynekologicko-pôrodnícka ambulancia,MUDr. Hlavačka Jaroslav,Topoľová  27,Nitra,94901,SK,03769329855812,info@zzz.sk,https://www.zzz.sk/zariadenie/21187-21187-gynekologicko-porodnicka-ambulancia-mudr-hlavacka-jaroslav-altis-plus-sro,48.3109291,18.1032191,t,
Gynekologicko,MUDr. Karol Brányik,Poľovnícka  1679/41,Veľký Meder,93201,SK,+421905242587,info@zzz.sk,https://www.zzz.sk/zariadenie/12852-12852-gynekologicko-porodnicka-ambulancia-amb-sro-mudr-karol-branyik-phd,47.8502459,17.7633329,t,
Ambulancia pre plánované rodičovstvo a antikoncepciu,MUDr. Ľuboslav Mráz,ul. Vojtecha Spanyola 43,Žilina,01207,SK,+421415110798,info@zzz.sk,https://www.zzz.sk/zariadenie/4509-4509-ambulancia-pre-planovane-rodicovstvo-a-antikoncepciu-mudr-luboslav-mraz,49.2188357,18.7451699,t,
Gynekologická ambulancia,MUDr. Danka Nevická,ul. Maršala Koneva 1,Okres Košice,04022,SK,+421556716092,info@zzz.sk,https://www.zzz.sk/zariadenie/9465-9465-gynekologicka-ambulancia-mudr-danka-nevicka,,,t,
Gynekologicko-pôrodnícka ambulancia,MUDr. Zvarič Vladimír,Nitrianska cesta 1,801 Partizánske,134 95,SK,+421387497898,zvaric@stonline.sk,https://www.zzz.sk/zariadenie/3208-3208-gynekologicko-porodnicka-ambulancia-mudr-zvaric-vladimir-sro,48.6278245,18.3713399,t,
"Gynekologicko-pôrodnícka ambulancia / JKK, s.r.o.",MUDr. Klaudia Péčová,Pavla Mudroňa  14,Martinová,03601,SK,+421434220831,info@zzz.sk,https://www.zzz.sk/zariadenie/11365-11365-gynekologicko-porodnicka-ambulancia-jkk-sro-mudr-klaudia-pecova,49.0669920,18.9198555,t,
Gynekologicko-pôrodnícka ambulancia,MUDr. Adrián Obert GALIPEA,Kmeťkova  9,Nitra,94901,SK,03769329855812,info@zzz.sk,https://www.zzz.sk/zariadenie/21088-21088-gynekologicko-porodnicka-ambulancia-mudr-adrian-obert-galipea-sro,48.3146790,18.0914041,t,
Gynekologická ambulancia,MUDr. Daniela Harbuláková,Jelačičova 7,Ružinov,82108,SK,+421850888999,info@zzz.sk,https://www.zzz.sk/zariadenie/7121-7121-gynekologicka-ambulancia-mudr-daniela-harbulakova,48.1547685,17.1277368,t,
"Galipea s.r.o.,gynekologická ambulancia,ultrazvuk v gynekológii a pôrodníctve",MUDr. Adrian Obert,Štefánikova trieda 46,Nitra,94901,SK,+421940601415,obertdr@gmail.com,https://www.zzz.sk/zariadenie/2291-2291-galipea-srogynekologicka-ambulanciaultrazvuk-v-gynekologii-a-porodnictve-mudr-adrian-obert,48.3147277,18.0915208,t,
Ambulancia zubného lekárstva,MUDr. Daniela Cabajová,Sidónie Sakalovej 161/16,Bytča,01401,SK,+421415521633,info@zzz.sk,https://www.zzz.sk/zariadenie/11065-11065-ambulancia-zubneho-lekarstva-mudr-daniela-cabajova,49.2228593,18.5605013,t,
Gynekologická ambulancia,MUDr. Daniela Polčínová,Protifašistických bojovníkov 11,Staré Mesto,04001,SK,+421556444313,info@zzz.sk,https://www.zzz.sk/zariadenie/9185-9185-gynekologicka-ambulancia-mudr-daniela-polcinova,48.7197778,21.2643089,t,
Neštátna gynekologicko,MUDr. Valéria Héželová,Zbrojničná 8,Staré Mesto,04001,SK,+421556222207,info@zzz.sk,https://www.zzz.sk/zariadenie/7082-7082-nestatna-gynekologicko-porodnicka-ambulancia-mudr-valeria-hezelova,48.7245687,21.2539419,t,
Gynekologická ambulancia,MUDr . Viktor Kráľ,Teslova 33,Ružinov,81103,SK,+421903234343,vkral@tt.psg.sk,https://www.zzz.sk/zariadenie/7016-7016-gynekologicka-ambulancia-mudr-viktor-kral,48.1620418,17.1449829,t,
"Gynekologická ambulancia (Proferax s.r.o.),",MUDr. Anna Čukášová,Limbová 5,Nové Mesto,833 05,SK,+421259542428,info@zzz.sk,https://www.zzz.sk/zariadenie/8342-8342-gynekologicka-ambulancia-proferax-sro-mudr-anna-cukasova,48.1673919,17.0878109,t,
Gynekologicko-pôrodnícka ambulancia,MUDr. Hlavička Imrich,G. Czuczora  1,Nové Zámky,94001,SK,03769329855812,info@zzz.sk,https://www.zzz.sk/zariadenie/21937-21937-gynekologicko-porodnicka-ambulancia-mudr-hlavicka-imrich-dia-gyn-sro,47.9865847,18.1599590,t,
Gynekologická-pôrodnícka ambulancia,MUDr. Ivan Wallenfels,Smreková 39,Žilina,01001,SK,+421911811378,info@zzz.sk,https://www.zzz.sk/zariadenie/7819-7819-gynekologicka-porodnicka-ambulancia-gianna-no-mudr-ivan-wallenfels,49.1985423,18.7368852,t,
Gynekologicko-pôrodnícka ambulancia,MUDr.Juraj Puha,Zdravotné stredisko  Mostová  13,Jelka,92507,SK,03769329855812,info@zzz.sk,https://www.zzz.sk/zariadenie/20511-20511-gynekologicko-porodnicka-ambulancia-cyrma-sro-mudrjuraj-puha,,,t,
Gynekologická ambulancia,MUDr. Soňa Valašíková,Rákocziho  3,501 Komárno,125 94,SK,03769329855812,info@zzz.sk,https://www.zzz.sk/zariadenie/22548-22548-gynekologicka-ambulancia-mudr-sona-valasikova,47.7627028,18.1346399,t,
Ambulancia pre sterilné manželstvá,MUDr. Katarína Eliášová,Obrancov mieru 3,Stará Ľubovňa,06401,SK,+421524317436,info@zzz.sk,https://www.zzz.sk/zariadenie/8234-8234-ambulancia-pre-sterilne-manzelstva-mudr-katarina-eliasova,49.2983268,20.6901338,t,
Ambulancia rizikovej gravidity,MUDr. Michal Zelizňák,"M.R.Štefánika, 187/177B",Vranov nad Topľou,09327,SK,+421574865356,info@zzz.sk,https://www.zzz.sk/zariadenie/200-200-ambulancia-rizikovej-gravidity-mudr-michal-zeliznak,48.8853267,21.6907975,t,
Gynekologicko-pôrodnícka ambulancia,MUDr. Ctirad Mokráš,Pod hájom  1288/,841 Dubnica nad Váhom,116 01,SK,+421424653364,info@zzz.sk,https://www.zzz.sk/zariadenie/12328-12328-gynekologicko-porodnicka-ambulancia-mcm-gynped-s-r-o-mudr-ctirad-mokras,48.9569037,18.1739251,t,
"Ambulancia pre plánované rodičovstvo a antikoncepciu, ambulancia pre gynekologickú endokrinológiu, ambulancia pre sterilitu a infertilitu",MUDr. Radomír Trška,Ul. Tibora Andrašovana 46,Banská Bystrica,97401,SK,03769329855812,info@zzz.sk,https://www.zzz.sk/zariadenie/5083-5083-ambulancia-pre-planovane-rodicovstvo-a-antikoncepciu-ambulancia-pre-gynekologicku-endokrinologiu-ambulancia-pre-sterilitu-a-infertilitu-mudr-radomir-trska,48.7337220,19.1337538,t,
Gynekologická ambulancia BREZNO,,Banisko 1,Brezno,97701,SK,+421482820546,info@zzz.sk,https://www.zzz.sk/zariadenie/4534-4534-gynekologicka-ambulancia-mudr-alexander-chudik,48.8093579,19.6256257,t,
Gynekologicko-pôrodnícka ambulancia / ELUMED s.r.o.,MUDr. Ľubomír Paul,Hviezdoslavova  23/3,Bánov,95701,SK,+421387608989,paul@pobox.sk,https://www.zzz.sk/zariadenie/11344-11344-gynekologicko-porodnicka-ambulancia-elumed-sro-mudr-lubomir-paul,48.7202290,18.2581671,t,
Gynekologicko-pôrodnícka ambulancia (rizikové tehotenstvo),,Banícka 803/28,Poprad,05845,SK,+42152 7125,info@zzz.sk,https://www.zzz.sk/zariadenie/4614-4614-ultrazvukova-ambulancia-nemocnica-poprad-a-s-mudr-vladimir-bohmer,49.0520520,20.3034103,t,
"Neštatná gynekologická ambulancia, mamodiagnostika",MUDr. František Kruľ,MUDr. Pribulu,901 Svidník,149 08,SK,+421917690565,topgyn29@gmail.com,https://www.zzz.sk/zariadenie/4677-4677-nestatna-gynekologicka-ambulancia-mamodiagnostika-topgyn-sro-mudr-frantisek-krul,49.3106085,21.5707150,t,
"Gynekologická ambulancia, MUDr.Juraj Wallenfels, (WALLGYN, s.r.o.)","MUDr.Juraj Wallenfels, (WALLGYN, s.r.o.)",SNP  26,Handlová,97251,SK,+421465477978,wjuraj0@gmail.com,https://www.zzz.sk/zariadenie/23495-23495-gynekologicka-ambulancia-mudrjuraj-wallenfels-wallgyn-sro,48.7292180,18.7574810,t,
Gynekologická ambulancia,MUDr. Peter Roch,Nad Laborcom 24,Michalovce,07101,SK,+421566422082,info@zzz.sk,https://www.zzz.sk/zariadenie/9093-9093-gynekologicka-ambulancia-mudr-peter-roch,48.7584879,21.9311370,t,
Gynekologicko-pôrodnícka ambulancia,MUDr. Tomáš Danys,Starohájska ulica  2,Trnava,91701,SK,03769329855812,info@zzz.sk,https://www.zzz.sk/zariadenie/21992-21992-gynekologicko-porodnicka-ambulancia-gyn-centrum-spol-s-ro-mudr-tomas-danys,48.3795524,17.5954806,t,
Gynekologicko-pôrodnícka ambulancia,MUDr. Erik Jankovský,SNP  97,Smolenice,91904,SK,03769329855812,info@zzz.sk,https://www.zzz.sk/zariadenie/22018-22018-gynekologicko-porodnicka-ambulancia-epedonna-sro-mudr-erik-jankovsky,48.5052803,17.4297573,t,
"Gynekologická ambulancia, GYNAMIL s.r.o.",MUDr. Andrej Karkalík,Strečianska 13,Petržalka,85105,SK,+421263814195,petrzalka@feminatalplus.sk,https://www.zzz.sk/zariadenie/1033-1033-gynekologicka-ambulancia-gynamil-sro-mudr-andrej-karkalik-phd,48.1051194,17.1065028,t,
Gynekologicko-pôrodnícka ambulancia,MUDr. Oto Balco,Parková 12,Topoľčianky,95193,SK,+421376301084,oto.balco@nextra.sk,https://www.zzz.sk/zariadenie/1404-1404-gynekologicko-porodnicka-ambulancia-mudr-oto-balco-bons-offices-sro,48.4207991,18.4165960,t,
Gynekologická ambulancia,MUDr. Ivan Dzúr,Cottbuská 13,Sídlisko KVP,04023,SK,+421556444529,info@zzz.sk,https://www.zzz.sk/zariadenie/10482-10482-gynekologicka-ambulancia-mudr-ivan-dzur,48.7145936,21.2160148,t,
Gynekologicko-pôrodnícka ambulancia,MUDr. Peter Princzkel,Komenského  36,Želiezovce,93701,SK,03769329855812,info@zzz.sk,https://www.zzz.sk/zariadenie/22128-22128-gynekologicko-porodnicka-ambulancia-mudr-peter-princzkel-princzkel-sro,48.0433674,18.6566520,t,
Gynekologická ambulancia,MUDr. Elena Šuňalová,Zdravotné stredisko,Zákamenné,02955,SK,+421907871766,sunalova@orangemail.sk,https://www.zzz.sk/zariadenie/5209-5209-gynekologicka-ambulancia-mudr-elena-sunalova-mph,49.3840852,19.3080680,t,
Gynekologická ambulancia,MUDr. Jana Langová,Podzámska 32,Nové Zámky,94001,SK,+421356420920,info@zzz.sk,https://www.zzz.sk/zariadenie/7059-7059-gynekologicka-ambulancia-mudr-jana-langova,47.9880666,18.1687262,t,
"Gynekologická ambulancia, Klenovec, (MV GYN.POR s.r.o.)",,Námestie SNP,055 Hnúšťa,128 98,SK,+421475422417,info@zzz.sk,https://www.zzz.sk/zariadenie/23386-23386-gynekologicka-ambulancia-klenovec-mv-gynpor-sro,48.5973810,19.8892223,t,
Gynekologicko-pôrodnícka ambulancia,MUDr. Ľubomír Turkota,Malokarpatské námestie 2,Lamač,84103,SK,+421264780765,info@zzz.sk,https://www.zzz.sk/zariadenie/8923-8923-gynekologicko-porodnicka-ambulancia-a-gyn-s-r-o-mudr-lubomir-turkota-phd,48.1951552,17.0520269,t,
Gynekologicko-pôrodnícka ambulancia,MUDr. Rudolf Kovačič,Starohájska ulica  2,Trnava,91701,SK,03769329855812,info@zzz.sk,https://www.zzz.sk/zariadenie/21946-21946-gynekologicko-porodnicka-ambulancia-janamed-sro-mudr-rudolf-kovacic,48.3795524,17.5954806,t,
JAS,MUDr. Michal Zelizňák,"M.R.Štefánika, 187/177B",Vranov nad Topľou,09327,SK,+421574865287,info@zzz.sk,https://www.zzz.sk/zariadenie/149-149-jas-gynekologicka-ambulancia-mudr-michal-zeliznak,48.8853267,21.6907975,t,
Gynekologicko,MUDr. Ľudovít Janek,Hlavná ul. 51,Šamorín,93101,SK,+421315624291,janekad@stonline.sk,https://www.zzz.sk/zariadenie/973-973-gynekologicko-porodnicka-ambulancia-care-spol-s-ro-mudr-ludovit-janek,48.0284310,17.3077279,t,
"Gynekologicko-pôrodnícka ambulancia, MUDr. Milan Pikna",MUDr. Milan Pikna,Starohájska ulica  2,Trnava,91701,SK,03769329855812,info@zzz.sk,https://www.zzz.sk/zariadenie/21429-21429-gynekologicko-porodnicka-ambulancia-mudr-milan-pikna,48.3795524,17.5954806,t,
Zariadenie spoločných vyšetrovacích a liečebných zložiek GPN s.r.o.,MUDr. Jozef Pružinec,Partizánska 27,Staré Mesto,81107,SK,+421254412612,info@gpn.sk,https://www.zzz.sk/zariadenie/10475-10475-zariadenie-spolocnych-vysetrovacich-a-liecebnych-zloziek-gpn-sro-mudr-jozef-pruzinec,48.1460945,17.0990481,t,
Gynekologická ambulancia,MUDr. Peter Snopko,ČSA 35,Moldava nad Bodvou,04501,SK,03769329855812,info@zzz.sk,https://www.zzz.sk/zariadenie/9278-9278-gynekologicka-ambulancia-mudr-peter-snopko,,,t,
Gynekologicko-pôrodnícka ambulancia,MUDr. Jozef Ravinger,Čajkovského  2,Nitra,94901,SK,03769329855812,info@zzz.sk,https://www.zzz.sk/zariadenie/21029-21029-gynekologicko-porodnicka-ambulancia-mudr-jozef-ravinger-medifarm-nitra-sro,48.3014125,18.0597344,t,
Gynekologická ambulancia Bratislava EMIMED,,Mýtna 5,Staré Mesto,811 07,SK,+421907897839,sestricka@emimed.sk,https://www.zzz.sk/zariadenie/24187-24187-,,,t,
"Gynekologická ambulancia (Med Dar, s.r.o.)",MUDr. Jana Mareková,Rovniankova 1,Petržalka,851 02,SK,+421263813225,ambulancia@marekova.sk,https://www.zzz.sk/zariadenie/3911-3911-gynekologicka-ambulancia-med-dar-sro-mudr-jana-marekova,48.1166284,17.1120150,t,
Gynekologická ambulancia Čaňa,MUDr. Ruth Špirková,Jarná 1,Čaňa,04414,SK,+421556997117,ruthspirkova@azet.sk,https://www.zzz.sk/zariadenie/4272-4272-gynekologicka-ambulancia-cana-gynerva-sro-mudr-ruth-spirkova,48.6104777,21.3232918,t,
"Gynekologická ambulancia, PED-GYN, s.r.o.",MUDr. Ján Janík,Školská ul. 21,Lendak,05907,SK,+421524562454,info@zzz.sk,https://www.zzz.sk/zariadenie/5686-5686-gynekologicka-ambulancia-ped-gyn-sro-mudr-jan-janik,49.2312257,20.3588268,t,
Gynekologická ambulancia,MUDr. Marián Čelovský,"Letná 40,",Košice 04001 Staré Mesto,040 01,SK,03769329855812,info@zzz.sk,https://www.zzz.sk/zariadenie/10748-10748-gynekologicka-ambulancia-mudr-marian-celovsky,48.7288008,21.2428466,t,
Gynekologicko-pôrodnícka ambulancia,MUDr. Jozef Kmeť,Obvodné zdravotné stredisko Lehnice,Lehnice,93037,SK,03769329855812,info@zzz.sk,https://www.zzz.sk/zariadenie/12614-12614-gynekologicko-porodnicka-ambulancia-mudr-jozef-kmet,48.0508695,17.4589951,t,
Gynekologicko-pôrodnícka ambulancia,MUDr. Ľubica Chovanová,Tamaškovičova  5267/5,Trnava,91701,SK,03769329855812,info@zzz.sk,https://www.zzz.sk/zariadenie/22068-22068-gynekologicko-porodnicka-ambulancia-allatura-sro-mudr-lubica-chovanova,48.3669010,17.5894592,t,
Gynekologická ambulancia,MUDr. Peter Suchánek,"Maurerova 21,",Košice 040 22 Dargovských Hrdinov,040 22,SK,03769329855812,xenonsk@xenonsk.sk,https://www.zzz.sk/zariadenie/8918-8918-gynekologicka-ambulancia-mudr-peter-suchanek,48.7278534,21.2879551,t,
"Gynekologická ambulancia, MUDr. Milan Dzadík, (wesper, a.s.)",MUDr. Milan Dzadík,Jurkovičova  19,Prešov,08001,SK,+421517563542,info@zzz.sk,https://www.zzz.sk/zariadenie/23619-23619-gynekologicka-ambulancia-mudr-milan-dzadik-wesper-as,48.9941174,21.2669388,t,
Gynekologická ambulancia,MUDr. Karol Krak,Námestie 1. mája č. 11,Rožňava,04801,SK,+421587342724,krak.karol@nextra.sk,https://www.zzz.sk/zariadenie/1689-1689-gynekologicka-ambulancia-mudr-karol-krak,48.6616425,20.5267762,t,
Ambulancia detskej gynekológie,MUDr. Nataša Feráková,Limbova 5,Nové Mesto,83305,SK,+421259542794,info@zzz.sk,https://www.zzz.sk/zariadenie/186-186-ambulancia-detskej-gynekologie-mudr-natasa-ferakova,48.1673919,17.0878109,t,
Gynekologická ambulancia,MUDr. Jana Mareková,Obchodná ulica č.,6 38 Rohožník,323 90,SK,+421343811830,info@zzz.sk,https://www.zzz.sk/zariadenie/22849-22849-gynekologicka-ambulancia-mudr-jana-marekova,48.4572038,17.1670765,t,
Gynekologicko-pôrodnícka ambulancia,MUDr. Adela Šimurková,Hlavná  49,Nitrianske Rudno,97226,SK,+421465455215,info@zzz.sk,https://www.zzz.sk/zariadenie/11648-11648-gynekologicko-porodnicka-ambulancia-mudr-adela-simurkova,48.8011345,18.4764711,t,
Gynekologická ambulancia,MUDr. Martin Kŕč,Sotinská  1,5 01 Senica,588 90,SK,03769329855812,info@zzz.sk,https://www.zzz.sk/zariadenie/20545-20545-gynekologicka-ambulancia-mudr-martin-krc-mudr-kurinska-sro,48.6880827,17.3723464,t,
Gynekologická ambulancia,MUDr. Zdenka Lacková,Muránska 1333/8,Revúca,05001,SK,+421584424295,zdenkala@centrum.sk,https://www.zzz.sk/zariadenie/3654-3654-gynekologicka-ambulancia-mudr-zdenka-lackova,48.6846561,20.1120623,t,
Gynekológia,MUDr. Anton Orbán,Hlavná 58 A,Dunajská Streda,92901,SK,+421315503322,sagax@sagax.sk,https://www.zzz.sk/zariadenie/3368-3368-gynekologia-mudr-anton-orban,47.9891053,17.6279246,t,
"Gynekologická ambulancia, Women´s Health s.r.o",MUDr. Maroš Suchánek,Tbiliská 6,Rača,83106,SK,+421918312716,info@womens-health.sk,https://www.zzz.sk/zariadenie/210-210-gynekologicka-ambulancia-womens-health-sro-mudr-maros-suchanek-phd,48.2153819,17.1601052,t,
Gynekologicko,MUDr. Eduard Havlas,Jaka Kráľa  3,Nové Zámky,94002,SK,03769329855812,info@zzz.sk,https://www.zzz.sk/zariadenie/21934-21934-gynekologicko-porodnicka-ambulancia-mudr-eduard-havlas-diamond-medical-sro,47.9827888,18.1573343,t,
Gynekologicko,MUDr. Milan Vanko,Šafárikova  65,Senec,90301,SK,+421245923246,info@zzz.sk,https://www.zzz.sk/zariadenie/11953-11953-gynekologicko-porodnicka-ambulancia-gyn-reh-sro-mudr-milan-vanko,48.2208721,17.3953055,t,
Gynekologická ambulancia,Doc. MUDr. Marián Križko,Ružinovská 6,Ružinov,826 06,SK,+421248234738,info@zzz.sk,https://www.zzz.sk/zariadenie/23074-23074-gynekologicka-ambulancia-doc-mudr-marian-krizko-csc,48.1553175,17.1519462,t,
NZZ Gynekologická ambulancia,MUDr. Jaroslav Dura,SNP 3818/91/A,Trebišov,07501,SK,+421566716220,dura@post.sk,https://www.zzz.sk/zariadenie/3244-3244-nzz-gynekologicka-ambulancia-mudr-jaroslav-dura,48.6187561,21.7175814,t,
Gynekologicko-pôrodnícka ambulancia,MUDr.,SNP 26,Handlová,97151,SK,+421465477978,info@zzz.sk,https://www.zzz.sk/zariadenie/11021-11021-gynekologicko-porodnicka-ambulancia-borkova-viera-mudr,48.7282063,18.7554964,t,
Gynekologicko-pôrodnícka ambulancia,MUDr. Ľubica Levčík Poláková,Hollého 2,Čadca,02201,SK,+421908708148,lubica.polak@gmail.com,https://www.zzz.sk/zariadenie/6578-6578-gynekologicko-porodnicka-ambulancia-femina-gynsro-mudr-lubica-levcik-polakova,49.4396125,18.7820429,t,
Gynekologicko-pôrodnícka ÚPS,MUDr. Ľubomír Božoň,"M.R.Štefánika, 187/177B",Vranov nad Topľou,09327,SK,+421574865356,info@zzz.sk,https://www.zzz.sk/zariadenie/175-175-gynekologicko-porodnicka-ups-mudr-lubomir-bozon,48.8853267,21.6907975,t,
"Gynekologicko-pôrodnícka ambulancia: MUDr. Ivan Sirotiak, s.r.o.",MUDr. Ivan Sirotiak,Hviezdoslavova  1,Nitra,94901,SK,03769329855812,info@zzz.sk,https://www.zzz.sk/zariadenie/20972-20972-gynekologicko-porodnicka-ambulancia-mudr-risko-ivan-mlmudr-ivan-sirotiak-sro,48.3030715,18.0656880,t,
"Gynekologicko-pôrodnícka ambulancia Málik, s.r.o.",,Prieložtek 1,Martinová,03601,SK,+421434223773,info@zzz.sk,https://www.zzz.sk/zariadenie/10447-10447-gynekologicko-porodnicka-ambulancia-malik-sro,49.0563052,18.9175045,t,
Gynekologická ambulancia,MUDr. Pavol Rozprávka,"Privátne Gynekologické Centrum - RoyalGYN, Alžbetina 55",Staré Mesto,04000,SK,+421908988311,info@zzz.sk,https://www.zzz.sk/zariadenie/9086-9086-gynekologicka-ambulancia-mudr-pavol-rozpravka-phd,48.7193527,21.2530754,t,
"Gynekologická ambulancia, GYNA MS",MUDr. Zuzana Oravcová,Mýtna,601 Stará Turá,146 91,SK,+421327763620,info@gynams.sk,https://www.zzz.sk/zariadenie/6496-6496-gynekologicka-ambulancia-gyna-ms-mudr-zuzana-oravcova,48.7749759,17.6934475,t,
Gynekologicko-pôrodnícka ambulancia,MUDr. Ján Kováč,ObZS,Jelenec,95173,SK,03769329855812,info@zzz.sk,https://www.zzz.sk/zariadenie/20960-20960-gynekologicko-porodnicka-ambulancia-mudr-jan-kovac-mudr-jan-kovac-sro,,,t,
Gynekológicko,MUDr. František Filla,29. augusta  2,Levice,93401,SK,03769329855812,info@zzz.sk,https://www.zzz.sk/zariadenie/22359-22359-gynekologicko-porodnicka-ambulancia-mudr-frantisek-filla-cs-salvus-spol-s-ro-zariadenie-na-poskytovanie-jednodnovej-zdravotnej-starostlivosti,48.2212442,18.6104308,t,
Gynekologická ambulancia,MUDr. Alexander Maráky,Čsl. Armády 11,Hurbanovo,94701,SK,03769329855812,info@zzz.sk,https://www.zzz.sk/zariadenie/24025-24025-gynekologicka-ambulancia-mudr-alexander-maraky-ab-gyn-sro,47.8704864,18.1922778,t,
Gynekologická ambulancia,MUDr. Eva Petláková Hasprová,Aleja Slobody 1905/7,Dolný Kubín,026 01,SK,+421435864100,info@zzz.sk,https://www.zzz.sk/zariadenie/22964-22964-gynekologicka-ambulancia-mudr-eva-petlakova-hasprova-hpartners-spols-ro,49.2164226,19.2973454,t,
Gynekologická ambulancia,MUDr. Bašternáková Anna,1,634 Marcelová,781 94,SK,03769329855812,info@zzz.sk,https://www.zzz.sk/zariadenie/22663-22663-gynekologicka-ambulancia-mudr-basternakova-anna-ab-gyn-sro,47.8304839,18.4118276,t,
"Centrum pre asistovanú reprodukciu GYNCARE, s.r.o. Košice",MUDr. Silvia Toporcerová,Magnezitárska č. 2/C,Staré Mesto,040 13,SK,+421800300000,info@gyncare.sk,https://www.zzz.sk/zariadenie/1658-1658-centrum-pre-asistovanu-reprodukciu-gyncare-sro-kosice-doc-mudr-silvia-toporcerova-phd-mba,48.7428077,21.2677503,t,
Gynekologicko-pôrodnícka ambulancia,MUDr. Ján Kováč,Mostná  27,Nitra,94901,SK,03769329855812,info@zzz.sk,https://www.zzz.sk/zariadenie/20959-20959-gynekologicko-porodnicka-ambulancia-mudr-jan-kovac-mudr-jan-kovac-sro,48.3147762,18.0865354,t,
"Gynekologická ambulancia, ultrazvuková diagnostika v gynekológii a pôrodníctve",MUDr. Milan Stripaj,Špitálska 1,Rožňava,04801,SK,+421587343243,info@zzz.sk,https://www.zzz.sk/zariadenie/8920-8920-gynekologicka-ambulancia-ultrazvukova-diagnostika-v-gynekologii-a-porodnictve-mudr-milan-stripaj,48.6623651,20.5342688,t,
Gynekologicko,Doc. MUDr. Martin Redecha,Mýtna 5,Okres Bratislava,81105,SK,+421336448449,info@zzz.sk,https://www.zzz.sk/zariadenie/1138-1138-gynekologicko-porodnicka-ambulancia-gyn-media-plus-sro-doc-mudr-martin-redecha-phd,48.1547574,17.1157653,t,
Gynekologická ambulancia,MUDr. Ľudovít Hritz,Jarná 4,Spišské Vlachy,05361,SK,+421534495109,info@zzz.sk,https://www.zzz.sk/zariadenie/10033-10033-gynekologicka-ambulancia-mudr-ludovit-hritz-pegyn-sro,48.9478154,20.7899353,t,
Gynekologicko-pôrodnícka ambulancia,MUDr. Peter Kosler,J. Dalloša  1,521 Sládkovičovo,354 92,SK,03769329855812,info@zzz.sk,https://www.zzz.sk/zariadenie/20396-20396-gynekologicko-porodnicka-ambulancia-mudr-peter-kosler,48.1963623,17.6353144,t,
Gynekologická ambulancia,,Budmerice,Budmerice,90086,SK,+421336448449,info@zzz.sk,https://www.zzz.sk/zariadenie/7888-7888-gynekologicka-ambulancia,48.3556562,17.4100898,t,
"Gynekologická I. príjmová a konziliárna, Nemocnica Ružinov",,Ružinovská 6,Ružinov,82606,SK,+421248234764,info@zzz.sk,https://www.zzz.sk/zariadenie/369-369-gynekologicka-i-prijmova-a-konziliarna-nemocnica-ruzinov,48.1553175,17.1519462,t,
Gynekologická ambulancia a ambulancia gynekologickej urogynekológie,MUDr. Peter Brenišin,Liptovská Tepička 545/14,Okres Poprad,059 40,SK,+421917958831,p.brenisin@centrum.sk,https://www.zzz.sk/zariadenie/23874-23874-gynekologicka-ambulancia-a-ambulancia-gynekologickej-urogynekologie-brencare-liptovska-teplicka-mudr-peter-brenisin,48.9668200,20.0898640,t,
Klinika AuraMedica,,Tomášikova 28/C,Ružinov,821 01,SK,+421905515616,info@auramedica.sk,https://www.zzz.sk/zariadenie/24383-24383-klinika-auramedica,,,t,
RS,MUDr. Pavel Rozrávka,Alžbetina č.55,Staré Mesto,04000,SK,+421908988311,rozp@post.sk,https://www.zzz.sk/zariadenie/803-803-rs-trade-sro-royalgyn-privatne-gynekologicke-centrum-mudr-pavel-rozravka-md-phd,48.7194679,21.2541505,t,
"Gynekologicko-pôrodnícka ambulancia, MUDr. JÁN BÁNYI, s.r.o.",MUDr. JÁN BÁNYI,Hlavná  1,Dvory nad Žitavou,94131,SK,03769329855812,info@zzz.sk,https://www.zzz.sk/zariadenie/21822-21822-gynekologicko-porodnicka-ambulancia-mudr-jan-banyi-sro,47.9934267,18.2676253,t,
Gynekologicko-pôrodnícka ambulancia,MUDr. Mária Slivková,Hviezdoslavova  1742/10,Holíč,90851,SK,03769329855812,info@zzz.sk,https://www.zzz.sk/zariadenie/20689-20689-gynekologicko-porodnicka-ambulancia-mudr-maria-slivkova,48.8089788,17.1652977,t,
Gynekologická ambulancia,MUDr. Gizela Regulyová,Nemocničná 1944/10,Dolný Kubín,02601,SK,+421435801324,info@zzz.sk,https://www.zzz.sk/zariadenie/4566-4566-gynekologicka-ambulancia-mudr-gizela-regulyova,49.2132374,19.3037637,t,
Gynekologicko-pôrodnícka ambulancia,MUDr. Martin Alföldi,ObZS Selice  1,572 Selice,177 92,SK,03769329855812,info@zzz.sk,https://www.zzz.sk/zariadenie/21626-21626-gynekologicko-porodnicka-ambulancia-mudr-martin-alfoldi-gyn-iv-sro,,,t,
Gynekologicko-pôrodnícka ambulancia,MUDr. Dušan Kollár,G. Czuczora  1,Nové Zámky,94053,SK,03769329855812,info@zzz.sk,https://www.zzz.sk/zariadenie/21821-21821-gynekologicko-porodnicka-ambulancia-mudr-dusan-kollar-sro,47.9865847,18.1599590,t,
GYNARUB s.r.o,MUDr. Ružena Bugárová,Sládkovičova 13,Žiar nad Hronom,96501,SK,+421456723079,rbugarova@stonline.sk,https://www.zzz.sk/zariadenie/3214-3214-gynarub-sro-mudr-ruzena-bugarova,48.5893625,18.8458428,t,
Uro-gynekologická ambulancia,MUDr. Tibor Matuška,Slovenská 11/A,Nové Zámky,94034,SK,+421356912658,info@zzz.sk,https://www.zzz.sk/zariadenie/2667-2667-uro-gynekologicka-ambulancia-mudr-tibor-matuska-csc,47.9884245,18.1554813,t,
"Gynekologická ambulancia, Gyneta, s.r.o.",MUDr. Adrián Teplica,Sihoť 5,Kežmarok,06001,SK,+421524522109,info@zzz.sk,https://www.zzz.sk/zariadenie/4951-4951-gynekologicka-ambulancia-gyneta-sro-mudr-adrian-teplica,49.1338869,20.4231497,t,
Gynekologicko-pôrodnícka ambulancia,MUDr. Dominik Mízner Mízner,Jánošíkova  27,Malacky,90101,SK,+421347723477,info@zzz.sk,https://www.zzz.sk/zariadenie/12318-12318-gynekologicko-porodnicka-ambulancia-malgyn-sro-mudr-dominik-mizner-mizner,48.4296425,17.0152972,t,
"Neštatná gynekologická ambulancia, mamodiagnostika",MUDr. František Kruľ,Hviezdoslavova 34,Stropkov,09101,SK,+421917690565,topgyn29@gmail.com,https://www.zzz.sk/zariadenie/6416-6416-nestatna-gynekologicka-ambulancia-mamodiagnostika-topgyn-sro-mudr-frantisek-krul,49.1932687,21.6554071,t,
Gynekologická ambulancia,MUDr. Július Häring,Kuzmányho nábrežie  28,Zvolen,96001,SK,+421455201368,info@nemzvolen.sk,https://www.zzz.sk/zariadenie/6687-6687-gynekologicka-ambulancia-mudr-julius-haring,48.5802024,19.1327169,t,
Gynekologicko-pôrodnícka ambulancia,MUDr. Miroslav Krjak,Radlinského  7/,901 Nitra,107 94,SK,03769329855812,info@zzz.sk,https://www.zzz.sk/zariadenie/21160-21160-gynekologicko-porodnicka-ambulancia-mudr-miroslav-krjak-phd-colpex-sro,48.3123487,18.0887180,t,
Gynekologická ambulancia,MUDr. Melinda Baloghová,ul. Mateja Bela 1227/33,Kráľ,07701,SK,+421905871477,info@zzz.sk,https://www.zzz.sk/zariadenie/8327-8327-gynekologicka-ambulancia-mudr-melinda-baloghova,48.4175048,21.9757911,t,
Gynekologicko-pôrodnícka ambulancia,MUDr. Tatiana Ičová,Javorová 25,Piešťany,92101,SK,+421337729841,milanic@pobox.sk,https://www.zzz.sk/zariadenie/1516-1516-gynekologicko-porodnicka-ambulancia-mudr-tatiana-icova,48.5858946,17.8170423,t,
Gynekologická ambulancia,MUDr. Mária Pilišová,Kpt. Nálepku,101 Hnúšťa,140 98,SK,+421475422417,sitka@stonline.sk,https://www.zzz.sk/zariadenie/3935-3935-gynekologicka-ambulancia-mudr-maria-pilisova,48.5695918,19.9562602,t,
Gynekologicko-pôrodnícka ambulancia,MUDr. Pavol Tallo,Staromyjavská 59,Myjava,90701,SK,+421346539166,parthenos@stonline.sk,https://www.zzz.sk/zariadenie/742-742-gynekologicko-porodnicka-ambulancia-parthenos-sro-mudr-pavol-tallo,48.7632337,17.5609462,t,
Gynekologicko-pôrodnícka ambulancia,MUDr. Beata Sonogova,M. Rázusa  4843/4,Topoľčany,95501,SK,03769329855812,info@zzz.sk,https://www.zzz.sk/zariadenie/21471-21471-gynekologicko-porodnicka-ambulancia-mudr-beata-sonogova-gyn-in-sro,48.5614415,18.1693357,t,
Gynekologická ambulancia GYNARIN s.r.o.,MUDr.Patrik Horváth,Biskupická 32 98 601 Fiľakovo,,,SK,+421474382722,mudrhorvath@zoznam.sk,https://www.zzz.sk/zariadenie/20302-20302-gynekologicka-ambulancia-gynarin-sro-mudrpatrik-horvath,48.2644654,19.8242334,t,
Gynekologicko-pôrodnícka ambulancia,MUDr. Lucia Rákosová,Generála Svobodu 1830/3A,Partizánske,95801,SK,+421385372424,info@zzz.sk,https://www.zzz.sk/zariadenie/10358-10358-gynekologicko-porodnicka-ambulancia-gynfesa-sro-mudr-lucia-rakosova,,,t,
Gynekologická ambulancia NsP Prievidza,Doc. MUDr. Ernest Lányi,Nemocničná 2,Bojnice,972 01,SK,+421465112247,elanyi@hospital-bojnice.sk,https://www.zzz.sk/zariadenie/1276-1276-gynekologicka-ambulancia-nsp-prievidza-doc-mudr-ernest-lanyi-csc,48.7852276,18.5894133,t,
"Gynekologická ambulancia, MUDr. Jana Kolejáková, (gynfet, s. r. o.)",MUDr. Jana Kolejáková,Železničiarov,8 01 Trstená,262 02,SK,+421435393700,kolejakova.jana@gmail.com,https://www.zzz.sk/zariadenie/23585-23585-gynekologicka-ambulancia-mudr-jana-kolejakova-gynfet-s-r-o,49.3599892,19.6133171,t,
Gynekologická ambulancia,MUDr. Anton Holeša,"Masarykova 1342,",Michalovce 07214 Nezaradené,071 01,SK,03769329855812,info@zzz.sk,https://www.zzz.sk/zariadenie/10126-10126-gynekologicka-ambulancia-mudr-anton-holesa,,,t,
"Gynekologicko-pôrodnícka ambulancia  / MUDr. Jana Pijáková, spol. s.r.o.",MUDr. Jana Pijáková,Palárikova  2,201 Čadca,311 02,SK,+421414604446,info@zzz.sk,https://www.zzz.sk/zariadenie/11439-11439-gynekologicko-porodnicka-ambulancia-mudr-jana-pijakova-spol-sro-mudr-jana-pijakova,49.4410988,18.7610081,t,
"Gynekologicko-pôrodnícka ambulancia / MUDr. Jana Popluhárová, s.r.o.",MUDr. Jarmila Hrtánková,Sládkovičova  13,Žilina,01001,SK,+421415643724,info@zzz.sk,https://www.zzz.sk/zariadenie/11476-11476-gynekologicko-porodnicka-ambulancia-mudr-jana-popluharova-sro-mudr-jarmila-hrtankova,49.2239575,18.7382038,t,
Gynekologicko-pôrodnícka ambulancia,MUDr. Tarabčák Igor,ObZS,Nitriansky kraj,95144,SK,03769329855812,info@zzz.sk,https://www.zzz.sk/zariadenie/20307-20307-gynekologicko-porodnicka-ambulancia-mudr-tarabcak-igor,48.4076985,18.0857046,t,
"Gynekologická ambulancia, MORAS s.r.o.",MUDr. Rastislav Šindler,Bernolákova 24,Zlaté Moravce,95301,SK,+421905366613,rastosin@azet.sk,https://www.zzz.sk/zariadenie/2393-2393-gynekologicka-ambulancia-moras-sro-mudr-rastislav-sindler,48.3848696,18.3994791,t,
Gynekologicko-pôrodnícka ambulancia,MUDr. Gabriel Bende,Nábrežná  3,Levice,93401,SK,03769329855812,info@zzz.sk,https://www.zzz.sk/zariadenie/22127-22127-gynekologicko-porodnicka-ambulancia-mudr-gabriel-bende-pro-fem-bg-sro,48.2095235,18.6039298,t,
"Gynops, s.r.o.",,Pod Lachovcom 1727/55,Púchov,020 01,SK,+421090534923,info@zzz.sk,https://www.zzz.sk/zariadenie/22966-22966-gynops-sro,49.1294488,18.3236111,t,
Gynekologicko-pôrodnícka ambulancia,MUDr. Peter Princzkel,ZS,566 Farná,161 93,SK,03769329855812,info@zzz.sk,https://www.zzz.sk/zariadenie/22129-22129-gynekologicko-porodnicka-ambulancia-mudr-peter-princzkel-princzkel-sro,,,t,
"Gynekologická ambulancia (Poliklinika Giraltovce ILB, s.r.o.)",,Kukorelliho,701 Giraltovce,337 08,SK,+421547322292,ilb@ilb.sk,https://www.zzz.sk/zariadenie/2356-2356-gynekologicka-ambulancia,49.1102290,21.5125548,t,
"MIAMED, s.r.o.",MUDr. Milan Pidanič,M.R.Štefánika 187/177 B,Vranov nad Topľou,09301,SK,+421574865319,info@zzz.sk,https://www.zzz.sk/zariadenie/8054-8054-miamed-sro-mudr-milan-pidanic,48.8853267,21.6907975,t,
"Gynekologicko-pôrodnícka ambulancia PAVLIČKOVCI, spol. s r.o.",MUDr. Světlana Pavličková,A. Hlinku 1453/A,Čadca,02201,SK,03769329855812,info@zzz.sk,https://www.zzz.sk/zariadenie/10461-10461-gynekologicko-porodnicka-ambulancia-pavlickovci-spol-s-ro-mudr-svetlana-pavlickova,49.4345207,18.7963680,t,
Gynekologicko-pôrodnícka ambulancia,MUDr. Ivan Schmidt,SNP  26,Handlová,97251,SK,+421465477979,info@zzz.sk,https://www.zzz.sk/zariadenie/11611-11611-gynekologicko-porodnicka-ambulancia-mudr-ivan-schmidt,48.7282063,18.7554964,t,
"Gynekologická ambulancia, MUDr. Ivan Taufer, (GYNPORSON, s.r.o.)",MUDr. Ivan Taufer,Rudohorská  2002/27,Banská Bystrica,97411,SK,+42148417396,info@zzz.sk,https://www.zzz.sk/zariadenie/23852-23852-gynekologicka-ambulancia-mudr-ivan-taufer-gynporson-sro,48.7599553,19.1660664,t,
"Gynekologická ambulancia (Medifem,s.r.o.)",MUDr. Nataša Kóňová,Björnsonova 7,Staré Mesto,81105,SK,+421252626344,medifem@medifem.sk,https://www.zzz.sk/zariadenie/8281-8281-gynekologicka-ambulancia-medifemsro-mudr-natasa-konova,48.1559202,17.1145852,t,
Gynekologicko-pôrodnícka ambulancia,MUDr. Darina Nagyová,Ulica Hviezdoslavova  1742/10,Trnava,908 51,SK,03769329855812,info@zzz.sk,https://www.zzz.sk/zariadenie/20701-20701-gynekologicko-porodnicka-ambulancia-mudr-darina-nagyova,48.3781900,17.5879584,t,
"Gynekologicko-pôrodnícka ambulancia CeGyS, s. r. o.",MUDr. Martin Hlaváčik,Legionárska 642/31,Trenč,91101,SK,+421948009005,cegys@cegys.sk,https://www.zzz.sk/zariadenie/10784-10784-gynekologicko-porodnicka-ambulancia-cegys-s-r-o-mudr-martin-hlavacik,48.8832976,18.0310070,t,
Gynekologicko-pôrodnícka ambulancia,MUDr. Marta Václavíková,Vajnorská 62,Okres Bratislava,83103,SK,+421244259255,info@zzz.sk,https://www.zzz.sk/zariadenie/7752-7752-gynekologicko-porodnicka-ambulancia-gyn-vm-s-r-o-mudr-marta-vaclavikova,48.1641692,17.1341639,t,
"Gynekologická ambulancia, MUDr.Anna Kolejáková, (E+T GYN, s.r.o.)","MUDr.Anna Kolejáková, (E+T GYN, s.r.o.)",Zápotočná,801 Trstená,580 02,SK,+421435393245,info@zzz.sk,https://www.zzz.sk/zariadenie/23694-23694-gynekologicka-ambulancia-mudranna-kolejakova-et-gyn-sro,49.3574536,19.6053345,t,
Gynekologická ambulancia,MUDr. Bašternáková Anna,Čsl. Armády  11,Hurbanovo,94701,SK,03769329855812,info@zzz.sk,https://www.zzz.sk/zariadenie/22662-22662-gynekologicka-ambulancia-mudr-basternakova-anna-ab-gyn-sro,47.8703675,18.1922605,t,
Gynekologická ambulancia,MUDr. Katarína Sovová,Trieda SNP 1,Západ,04001,SK,+421556444312,info@zzz.sk,https://www.zzz.sk/zariadenie/8965-8965-gynekologicka-ambulancia-mudr-katarina-sovova,48.7215255,21.2386443,t,
Gynekologicko-pôrodnícka ambulancia,MUDr. Jana Bezáková,Komenského  36,Želiezovce,93701,SK,03769329855812,info@zzz.sk,https://www.zzz.sk/zariadenie/22291-22291-gynekologicko-porodnicka-ambulancia-mudr-jana-bezakova-jana-z-gyn-sro,48.0433674,18.6566520,t,
gynekologicko-pôrodnícka ambulancia,MUDr. Miroslav Zábovský,Kpt. Nálepku,701 Považská Bystrica,346 01,SK,+421424330322,info@zzz.sk,https://www.zzz.sk/zariadenie/4200-4200-gynekologicko-porodnicka-ambulancia-melzetsro-mudr-miroslav-zabovsky,49.1160122,18.4393614,t,
Ambulancia pre rizikovú a patologickú tehotnosť,MUDr. Pavol Babjak,ul. Vojtecha Spanyola 43,Žilina,01207,SK,+421415110611,info@zzz.sk,https://www.zzz.sk/zariadenie/4510-4510-ambulancia-pre-rizikovu-a-patologicku-tehotnost-mudr-pavol-babjak,49.2188357,18.7451699,t,
Gynekologická ambulancia,MUDr. Ján Kurucz,ObZS,Zemianska Olča 94614 Zemianska Olča,94614,SK,03769329855812,info@zzz.sk,https://www.zzz.sk/zariadenie/22512-22512-gynekologicka-ambulancia-mudr-jan-kurucz,47.8101171,17.8638754,t,
Gynekologicko-pôrodnícka ambulancia,MUDr. Elvíra Höesová,SNP  19,Levice,93401,SK,03769329855812,info@zzz.sk,https://www.zzz.sk/zariadenie/22324-22324-gynekologicko-porodnicka-ambulancia-mudr-elvira-hoesovafemina-eh-sro,48.2229859,18.6145209,t,
Gynekologická ambulancia,MUDr. Anna Moresová,Červeného Kríža 62/30,Námestovo,02901,SK,+421904704074,moresova.anna@gmail.com,https://www.zzz.sk/zariadenie/5904-5904-gynekologicka-ambulancia-mudr-anna-moresova,49.4029813,19.4754194,t,
Gynekologická ambulancia,MUDr. Miroslav Klein,Mýtna 5,Staré Mesto,81107,SK,+421257786334,klein@emimed.sk,https://www.zzz.sk/zariadenie/7777-7777-gynekologicka-ambulancia-mudr-miroslav-klein,48.1546933,17.1159631,t,
Poradňa pre antikoncepciu a plánované rodičovstvo,Prof. MUDr. Ján Štencl,Limbova 5,Nové Mesto,83305,SK,+421259542583,info@zzz.sk,https://www.zzz.sk/zariadenie/3586-3586-poradna-pre-antikoncepciu-a-planovane-rodicovstvo-prof-mudr-jan-stencl-csc,48.1673919,17.0878109,t,
"DALIJANA s.r.o., Gynekologická ambulancia",MUDr. Jana Šedivá,Hlavná č. 28/7,Dunajská Streda,92901,SK,+421315527978,sediva@slovanet.sk,https://www.zzz.sk/zariadenie/2412-2412-dalijana-sro-gynekologicka-ambulancia-mudr-jana-sediva,47.9945050,17.6176124,t,
Gynekologická ambulancia,MUDr. Zlata Polgáryová,Mierová 1/,701 Kráľ,905 07,SK,+421905765608,info@zzz.sk,https://www.zzz.sk/zariadenie/9184-9184-gynekologicka-ambulancia-mudr-zlata-polgaryova,48.4196176,21.9818712,t,
Gynekologická ambulancia,MUDr. Richard Barán,Kráľová pri Senci,050 Kráľová pri Senci,327 90,SK,+421245901107,info@zzz.sk,https://www.zzz.sk/zariadenie/7053-7053-gynekologicka-ambulancia-mudr-richard-baran,48.1950275,17.4505497,t,
Gynekologická ambulancia,MUDr. Bystrý s.r.o.,Rákocziho  6,Šahy,93601,SK,+421902720479,info@zzz.sk,https://www.zzz.sk/zariadenie/22245-22245-gynekologicka-ambulancia-mudr-bystry-sro,48.0692045,18.9487108,t,
Gynekologicko-pôrodnícka ambulancia,MUDr. Alexandra Novotná,"Fatranská 12 ,  PK",Nitra,94901,SK,03769329855812,info@zzz.sk,https://www.zzz.sk/zariadenie/21014-21014-gynekologicko-porodnicka-ambulancia-mudr-alexandra-novotna-mudr-alexandra-novotna-sro,48.3148451,18.0879864,t,
Gynekologicko-pôrodnícka ambulancia,MUDr. Filla František,Komenského  36,Želiezovce,93701,SK,03769329855812,info@zzz.sk,https://www.zzz.sk/zariadenie/22321-22321-gynekologicko-porodnicka-ambulancia-mudr-filla-frantisek-fife-sro,48.0433674,18.6566520,t,
Gynekologicko-pôrodnícka ambulancia,MUDr. Ján Perhács,Obvodné zdravotné stredisko Holice,Holice,93034,SK,03769329855812,info@zzz.sk,https://www.zzz.sk/zariadenie/12780-12780-gynekologicko-porodnicka-ambulancia-hera-spol-s-ro-mudr-jan-perhacs,,,t,
Gynekologicko,MUDr. Károly Foldes,obvodné zdravotné stredisko  Horný Bar,Horný Bar,93033,SK,03769329855812,info@zzz.sk,https://www.zzz.sk/zariadenie/12856-12856-gynekologicko-porodnicka-ambulancia-afk-sro-mudr-karoly-foldes,47.9495430,17.4600930,t,
"Centrum jednodňovej chirurgie spoločnosti GYNECOLOGY, s.r.o.",MUDr. Peter Frankovský,Sabinovská 88,Prešov,08001,SK,03769329855812,info@zzz.sk,https://www.zzz.sk/zariadenie/1401-1401-centrum-jednodnovej-chirurgie-spolocnosti-gynecology-sro-mudr-peter-frankovsky-gynekolog-konatel,49.0112931,21.2370406,t,
Gynekologicko-pôrodnícka ambulancia,MUDr. Žák Pavel,Palatínova  11,Komárno,94501,SK,03769329855812,info@zzz.sk,https://www.zzz.sk/zariadenie/22413-22413-gynekologicko-porodnicka-ambulancia-mudr-zak-pavel-via-fem-sro,47.7574661,18.1275139,t,
"Gynekologicko-pôrodnícka ambulancia-MUDr. Anton Ďurkech / MUDr. Darina Orálková, (GYNEDUR s. r. o.)",MUDr. Anton Ďurkech / MUDr. Darina Orálková,Pod hájom  1288/,841 Dubnica nad Váhom,116 01,SK,+421424420528,info@zzz.sk,https://www.zzz.sk/zariadenie/11284-11284-gynekologicko-porodnicka-ambulancia-mudr-anton-durkech-mudr-darina-oralkova-gynedur-s-r-o,48.9569037,18.1739251,t,
Gynekologicko-pôrodnícka ambulancia,MUDr. Valentína Ronchetti,Nábrežná  5,Prievidza,97101,SK,+421465113363,info@zzz.sk,https://www.zzz.sk/zariadenie/11565-11565-gynekologicko-porodnicka-ambulancia-unigyn-s-r-o-mudr-valentina-ronchetti,48.7804329,18.6104183,t,
Gynekologicko-pôrodnícka ambulancia,MUDr. Ján Vodička,Winterova,Piešťany,92101,SK,03769329855812,info@zzz.sk,https://www.zzz.sk/zariadenie/20536-20536-gynekologicko-porodnicka-ambulancia-proktologia-chirurgia-sro-kruzliak-sromudr-jan-vodicka,48.5902007,17.8354439,t,
Gynekologická ultrazvuková ambulancia,MUDr. Igor Rusňán,Limbova 5,Nové Mesto,83305,SK,+421259542423,info@zzz.sk,https://www.zzz.sk/zariadenie/3588-3588-gynekologicka-ultrazvukova-ambulancia-mudr-igor-rusnan-csc,48.1673919,17.0878109,t,
Gynekologicko-pôrodnícka ambulancia,MUDr. Eva Plrivitzerová,17. novembra  1,501 Topoľčany,300 95,SK,+421038531899,info@zzz.sk,https://www.zzz.sk/zariadenie/21470-21470-gynekologicko-porodnicka-ambulancia-mudr-eva-plrivitzerova-gyno-arno-sro,48.5610968,18.1707168,t,
Gynekologicko-pôrodnícka ambulancia,MUDr. Miroslav Krjak,Radlinského 7,Nitra nad Ipľom,94901,SK,+421377410538,colpexnr@gmail.com,https://www.zzz.sk/zariadenie/8123-8123-gynekologicko-porodnicka-ambulancia-colpex-sro-mudr-miroslav-krjak-phd,48.3123044,18.0874641,t,
Gynekologicko-pôrodnícka ambulancia,MUDr. Jozef Barát,Škarniclovská  12,Skalica,90901,SK,03769329855812,info@zzz.sk,https://www.zzz.sk/zariadenie/20699-20699-gynekologicko-porodnicka-ambulancia-mudr-jozef-barat,48.8476000,17.2275031,t,
"Gynekologická ambulancia, MUDr. Kamil Pahuli, (Bona Quarta, s.r.o.)",MUDr. Kamil Pahuli,Švantnerova  23,Nová Baňa,96801,SK,+421905157732,info@zzz.sk,https://www.zzz.sk/zariadenie/23866-23866-gynekologicka-ambulancia-mudr-kamil-pahuli-bona-quarta-sro,48.4129028,18.6403366,t,
Gynekologicko-pôrodnícka ambulancia,MUDr. Eva Dedinská,Limbova 5,Nové Mesto,83305,SK,+421259542794,info@zzz.sk,https://www.zzz.sk/zariadenie/109-109-gynekologicko-porodnicka-ambulancia-mudr-eva-dedinska,48.1673919,17.0878109,t,
Gynekologická ambulancia,MUDr. Katarína Demková,Ochtinská,932 Štítnik,447 04,SK,+421587931120,info@zzz.sk,https://www.zzz.sk/zariadenie/10539-10539-gynekologicka-ambulancia-mudr-katarina-demkova,48.6616882,20.3622323,t,
Gynekologická ambulancia,MUDr. Peter Očko,J. Kačku  4,Likavka,034 95,SK,+421444303227,info@zzz.sk,https://www.zzz.sk/zariadenie/6056-6056-gynekologicka-ambulancia-mudr-peter-ocko,49.0845960,19.3057288,t,
Gynekologicko-pôrodnícka ambulancia,MUDr. Mária Skalická,Starohájska ulica  2,Trnava,91701,SK,03769329855812,info@zzz.sk,https://www.zzz.sk/zariadenie/21137-21137-gynekologicko-porodnicka-ambulancia-riagyn-sromudr-maria-skalicka,48.3795524,17.5954806,t,
Gynekologicko-pôrodnícka ambulancia,MUDr. Karol Pálfy,Poľovnícka  41,Veľký Meder,93101,SK,03769329855812,info@zzz.sk,https://www.zzz.sk/zariadenie/12459-12459-gynekologicko-porodnicka-ambulancia-p-gyn-sro-mudr-karol-palfy,47.8502085,17.7633545,t,
Gynekologicko,MUDr. Károly Foldes,obvodné zdravotné stredisko Čiližská Radvaň,Čiližská Radvaň,93008,SK,03769329855812,info@zzz.sk,https://www.zzz.sk/zariadenie/12858-12858-gynekologicko-porodnicka-ambulancia-afk-sro-mudr-karoly-foldes,47.8236298,17.7023913,t,
Gynekologická ambulancia,Mgr. Viola Tömösközyová,Ambulancia gynekológie a pôrodníctva FORLIFE Všeobecná nemocnica Komárno Mederčská ul.  39,Komárno,94501,SK,03769329855812,info@zzz.sk,https://www.zzz.sk/zariadenie/22617-22617-gynekologicka-ambulancia-mgr-viola-tomoskozyova-zuzana-doczeova-mgr-zuzana-szaboova-mgr-zlatica-halmova-mudr-rudolf-pelikan-komarno-forlife-no,47.7625785,18.1294132,t,
Gynekologicko-pôrodnícka ambulancia,MUDr. Juraj Schwarz,Gabčíkovo,Gabčíkovo,93005,SK,03769329855812,info@zzz.sk,https://www.zzz.sk/zariadenie/12807-12807-gynekologicko-porodnicka-ambulancia-femga-sro-mudr-juraj-schwarz,47.8914405,17.5762670,t,
Gynekologická ambulancia,MUDr. Marián Kern,Šafárikovo námestie 3,Spišská Nová Ves,05201,SK,+421534426687,info@zzz.sk,https://www.zzz.sk/zariadenie/9908-9908-gynekologicka-ambulancia-mudr-marian-kern,48.9451752,20.5493416,t,
Gynekologicko-pôrodnícka ambulancia,MUDr. Klaudia Zuzčáková,Námestie hrdinov 13,Levice,93401,SK,+421366313536,info@zzz.sk,https://www.zzz.sk/zariadenie/3140-3140-gynekologicko-porodnicka-ambulancia-mudr-klaudia-zuzcakova-gynservis-sro,48.2204952,18.6062579,t,
Gynekologicko-pôrodnícka ambulancia,MUDr. Tarabčák Igor,ObZS,Nitriansky kraj,95142,SK,03769329855812,info@zzz.sk,https://www.zzz.sk/zariadenie/20306-20306-gynekologicko-porodnicka-ambulancia-mudr-tarabcak-igor,48.3681037,18.0157209,t,
Gynekologicko-pôrodnícka ambulancia,MUDr. Peter Feldmár,Hlavná  5599/3A,Dunajská Streda,92901,SK,03769329855812,info@zzz.sk,https://www.zzz.sk/zariadenie/12786-12786-gynekologicko-porodnicka-ambulancia-pediatricka-gynekologia-mudr-peter-feldmar,47.9947350,17.6171997,t,
Gynekologicko-pôrodnícka ambulancia,MUDr. Ivan Dečkov,Starohájska ulica  2,Trnava,91701,SK,+421335953288,info@zzz.sk,https://www.zzz.sk/zariadenie/22039-22039-gynekologicko-porodnicka-ambulancia-deckov-sro-mudr-ivan-deckov,48.3795524,17.5954806,t,
Gynekologická ambulancia,MUDr. Mária Gašparová,Administratívna budova 1,7 03 Šaľa,236 92,SK,+421317754403,info@zzz.sk,https://www.zzz.sk/zariadenie/22978-22978-gynekologicka-ambulancia-mudr-maria-gasparova,48.1520970,17.8738850,t,
Poradňa pre poruchy klimaktéria a postmenopauzy,Prof. MUDr. Ján Štencl,Limbova 5,Nové Mesto,83305,SK,+421259542583,info@zzz.sk,https://www.zzz.sk/zariadenie/3585-3585-poradna-pre-poruchy-klimakteria-a-postmenopauzy-prof-mudr-jan-stencl-csc,48.1673919,17.0878109,t,
Gynekologicko-pôrodnícka ambulancia,MUDr. Peter Molitoris,Kuzmányho nábrežie 28,Zvolen,960 01,SK,+421455201664,info@zzz.sk,https://www.zzz.sk/zariadenie/22962-22962-gynekologicko-porodnicka-ambulancia-mudr-peter-molitoris,48.5796948,19.1318102,t,
"Gynekologická ambulancia, MUDr. Ondrej Šefara, (GYPOS, s. r. o.)",MUDr. Ondrej Šefara,Royova  1908/12A,Púchov,02001,SK,+421424677564,info@zzz.sk,https://www.zzz.sk/zariadenie/23501-23501-gynekologicka-ambulancia-mudr-ondrej-sefara-gypos-s-r-o,49.1229633,18.3264118,t,
Gynekologicko-pôrodnícka ambulancia,MUDr. Cyril Hýbal,Nám. A. Hlinku  27,Hlohovec,92001,SK,+421337941251,info@zzz.sk,https://www.zzz.sk/zariadenie/20550-20550-gynekologicko-porodnicka-ambulancia-hc-gyn-sro-mudr-cyril-hybal,48.4247366,17.7890406,t,
"Gynekologická ambulancia, MUDr. Jana Buhajová, (BUGYN s.r.o.)",MUDr. Jana Buhajová,Komenského  6206/7,Humenné,06601,SK,+421577694693,info@zzz.sk,https://www.zzz.sk/zariadenie/23606-23606-gynekologicka-ambulancia-mudr-jana-buhajova-bugyn-sro,48.9326707,21.8928178,t,
Ambulancia gynekologickej onkológie,MUDr. Marián Matejka,Špitálska 6,Nitra,949 01,SK,+421376545240,info@zzz.sk,https://www.zzz.sk/zariadenie/22980-22980-ambulancia-gynekologickej-onkologie-mudr-marian-matejka,48.3015057,18.0875842,t,
Gynekologická ambulancia,MUDr. Oliver Loboda,Gemerská,911 Pleš,234 04,SK,+421587921828,info@zzz.sk,https://www.zzz.sk/zariadenie/9685-9685-gynekologicka-ambulancia-mudr-oliver-loboda,,,t,
Gynekologicko-pôrodnícka ambulancia,MUDr. Peter Trajanov,ObZS,Veľké Zálužie,95135,SK,03769329855812,info@zzz.sk,https://www.zzz.sk/zariadenie/12564-12564-gynekologicko-porodnicka-ambulancia-mudr-peter-trajanov,48.3098116,17.9385008,t,
Gynekologický ultrazvuk,MUDr. Jozef Kállay,Heydukova 10,Staré Mesto,81250,SK,+421232249121,info@zzz.sk,https://www.zzz.sk/zariadenie/6849-6849-gynekologicky-ultrazvuk-mudr-jozef-kallay,48.1472096,17.1130618,t,
Gynekologicko-pôrodnícka ambulancia,MUDr. Ján Kováč,Moravská,201 Vráble,512 95,SK,03769329855812,info@zzz.sk,https://www.zzz.sk/zariadenie/20958-20958-gynekologicko-porodnicka-ambulancia-mudr-jan-kovac-mudr-jan-kovac-sro,48.2431317,18.3058721,t,
Gynekologická ambulancia,MUDr. Elena Borsíková,Limbová 1,Nové Mesto,83340,SK,+421259371628,info@zzz.sk,https://www.zzz.sk/zariadenie/684-684-gynekologicka-ambulancia-mudr-elena-borsikova,48.1669780,17.0903475,t,
Gynekologicko-pôrodnícka ambulancia,MUDr. Juraj Puha,Zdravotné stredisko,Horné Saliby,92503,SK,03769329855812,info@zzz.sk,https://www.zzz.sk/zariadenie/20509-20509-gynekologicko-porodnicka-ambulancia-cyrma-sro-mudr-juraj-puha,48.1245014,17.7503715,t,
Gynekologicko-pôrodnícka ambulancia,MUDr. Miloslav Hajdušek,ObZS,Podhájska,94148,SK,03769329855812,info@zzz.sk,https://www.zzz.sk/zariadenie/21894-21894-gynekologicko-porodnicka-ambulancia-mudr-miloslav-hajdusek-jomimed-sro,,,t,
Onkogynekologická ambulancia,MUDr. Martin Sudek,ul. Vojtecha Spanyola 43,Žilina,012 07,SK,+421415110611,info@zzz.sk,https://www.zzz.sk/zariadenie/4508-4508-onkogynekologicka-ambulancia-mudr-martin-sudek,49.2188357,18.7451699,t,
Gynekologická ambulancia,MUDr. Jaroslav Jasovský,"Bratislavská 10/153,",Veľké Kapušany 07643 Čierna,079 01,SK,+421566382696,info@zzz.sk,https://www.zzz.sk/zariadenie/9967-9967-gynekologicka-ambulancia-mudr-jaroslav-jasovsky,,,t,
Gynekologická ambulancia,MUDr. Anna Bubanová,Komenského 42,Michalovce,07101,SK,+421566421307,info@zzz.sk,https://www.zzz.sk/zariadenie/10795-10795-gynekologicka-ambulancia-mudr-anna-bubanova,48.7482806,21.9120521,t,
Gynekologicko-pôrodnícka ambulancia,MUDr. Tarabčák Igor,ObZS,Močenok,95131,SK,03769329855812,info@zzz.sk,https://www.zzz.sk/zariadenie/21554-21554-gynekologicko-porodnicka-ambulancia-mudr-tarabcak-igor,48.2323785,17.9318605,t,
Gynekologická ambulancia (aj pediatrickej),MUDr. Gabriela Koleničová,ul. ČSA 35,Moldava nad Bodvou,04501,SK,+421903602245,info@zzz.sk,https://www.zzz.sk/zariadenie/9874-9874-gynekologicka-ambulancia-aj-pediatrickej-mudr-gabriela-kolenicova-kg-m-sro,,,t,
Gynekologická ambulancia,MUDr. Peter rSlezák,Hlavná  58A,Dunajská Streda,92901,SK,03769329855812,info@zzz.sk,https://www.zzz.sk/zariadenie/12416-12416-gynekologicka-ambulancia-sonograficke-gynekologicke-a-prenatalne-centrum-sgpc-sro-zariadenie-na-poskytovanie-jednodnovej-zdravotnej-starostlivosti-mudr-peter-rslezak,47.9890940,17.6278860,t,
Gynekologicko-pôrodnícka ambulancia,MUDr. Ján Ondrášik,SNP  19,Levice,93401,SK,03769329855812,info@zzz.sk,https://www.zzz.sk/zariadenie/22308-22308-gynekologicko-porodnicka-ambulancia-mudr-jan-ondrasik-gynekologia-nino-sro,48.2229859,18.6145209,t,
Gynekologicko-pôrodnícka ambulancia,MUDr. Síleš Jozef,Mudroňova  2,Topoľčany,95501,SK,03769329855812,info@zzz.sk,https://www.zzz.sk/zariadenie/21479-21479-gynekologicko-porodnicka-ambulancia-mudr-siles-jozef-diagyn-siles-sro,48.5614719,18.1716087,t,
Gynekologicko-pôrodnícka ambulancia,MUDr. Peter Juhász,J.Kráľa  3,Nové Zámky,94001,SK,03769329855812,info@zzz.sk,https://www.zzz.sk/zariadenie/21893-21893-gynekologicko-porodnicka-ambulancia-mudr-peter-juhasz-jupet-sro,47.9827662,18.1575605,t,
Gynekologicko-pôrodnícka ambulancia MUDr. Eva Gogová,MUDr. Eva Gogová,Ľ. Štúra 843/36,Ilava,01901,SK,+421424441730,info@zzz.sk,https://www.zzz.sk/zariadenie/10229-10229-gynekologicko-porodnicka-ambulancia-mudr-eva-gogova,,,t,
4D Ultrazvuk,MUDr. Martin Korčok,Jesenského 85,Štúrovo,94301,SK,+421367511157,femina@femina-m.sk,https://www.zzz.sk/zariadenie/3491-3491-4d-ultrazvuk-mudr-martin-korcok,47.7911016,18.7231717,t,""
